LIB_CODE,LIB_NAME,DIVISION,ZIP_CODE,TEL,FAX,ADDRESS,E_MAIL,HOMEPAGE
111001,4.19혁명기념도서관,,110-102,02-737-9556,,서울특별시 종로구 평동 166,419lib@naver.com,http://library.419revolution.org/
111003,강남도서관,,06093,02)3448-4744,02)517-9194,서울특별시 강남구 선릉로116길 45,gn@gangnamlib.seoul.kr,http://gnlib.sen.go.kr/
111004,강동도서관,,05344,02)2225-9841,02)472-0522,서울특별시 강동구 양재대로116길 57 1층 문헌정보실,gdlib@sen.go.kr,gdlib.sen.go.kr
111005,강서도서관,,07669,02)3219-7026,02)3219-7092,서울특별시 강서구 등촌로51나길 29,gslib@sen.gorkr,gslib.sen.go.kr/
111006,개포도서관,,06327,02)3460-8200,02)3462-1970,서울특별시 강남구 선릉로4길 30,admin@gaepo.lib.seoul.kr,http://gplib.sen.go.kr
111007,고덕평생학습관,,05225,02-6902-2600,02-6902-2680,서울특별시 강동구 고덕로 295,gdllc@godeok.or.kra,http://gdllc.sen.go.kr/
111008,고척도서관,,08239,02-2615-0526,02-2682-4176,서울특별시 구로구 고척로45길 31,gochuk2@sen.go.kr,http://gclib.sen.go.kr
111009,구로도서관,,08298,02-6958-2800,02-6958-2888,서울특별시 구로구 공원로 15,grlib@sen.go.kr,
111010,남산도서관,,04340,02-6911-0125,02-779-6546,서울특별시 용산구 소월로 109 (후암동),goodegg@sen.go.kr,https://nslib.sen.go.kr/nslib/index.do
111011,도봉도서관,,01368,02-6714-7424,02-991-3974,서울특별시 도봉구 삼양로 556 (쌍문동),,http://dblib.sen.go.kr
111012,서울특별시교육청동대문도서관,,02586,02-2170-1000,02-2233-1846,서울특별시 동대문구 천호대로4길 22,dplib@sen.go.kr,http://ddmlib.sen.go.kr/
111013,동작도서관,,06925,02)823-6418,02)823-6511,서울특별시 동작구 장승배기로 94,djlib@sen.go.kr,djlib.sen.go.kr/
111014,마포평생학습관,,04054,02-2137-0015,02-323-1057,서울특별시 마포구 홍익로2길 16,mapollc@sen.go.kr,http://mpllc.sen.go.kr
111015,양천도서관,,07988,02)2062-3922,02)2652-5943,서울특별시 양천구 목동서로 113 (목동),hyo618@hanmail.net,yclib.sen.go.kr/
111016,서대문도서관,,03717,02)396-3157,02)6948-2119,서울특별시 서대문구 모래내로 412,-,http://sdmlib.sen.go.kr/
111017,서울시교육청 어린이도서관,,03027,02-731-2300,02-723-5023,서울특별시 종로구 사직로9길 7,childlib@sen.go.kr,childlib.sen.go.kr
111018,영등포평생학습관,,07229,02)6712-7500,02)2636-1680,서울특별시 영등포구 버드나루로15길 10,-,ydpllc.sen.go.kr/
111019,용산도서관,,04328,02)754-3439,02)754-3744,서울특별시 용산구 두텁바위로 160,yslib@sen.go.kr,yslib.sen.go.kr
111020,정독도서관,,03055,02-737-6943,02-722-5707,서울특별시 종로구 북촌로5길 48,rkfka7@hanmail.net,jdlib.sen.go.kr/
111021,종로도서관,,110-054,02-7210-721,02)737-1707,서울특별시 종로구 사직로9길 15-14(사직동1-28),jnlib@sen.go.kr,http://jnlib.sen.go.kr/
111022,노원평생학습관,,01783,02) 979-1742,02)977-9182,서울특별시 노원구 동일로204길 13,-,http://nwllc.sen.go.kr/
111023,오류도서관ⓧ,,152-890,02)2613-8983,02)2614-8982,서울특별시 구로구 오류1동 13-15,harchive@naver.com,http://oryulibrary.or.kr/
111025,학산도서관,,110-848,02)396-3916,02-396-3907,서울 종로구 평창동 400~529 466-9 (재)일중장학재단 학산도서관,www.haksan.or.kr,http://www.haksan.or.kr/
111026,한국사회과학도서관,,110-054,02)767-9514,02)767-9595,서울특별시 종로구 사직동 304-28,ynshin@lib.kssi.or.kr,www.kossda.or.kr/
111028,한국점자도서관,,05242,02)3426-7411,02)3426-7411,서울특별시 강동구 상암로4가길 32,cjs@kdll.or.kr,infor.kbll.or.kr/
111029,한국학생도서관,,100-380,02)275-0753,02)279-9035,서울특별시 중구 묵정동 18-27,,
111030,송파도서관,,05725,02-3434-3323,02-404-7957,서울특별시 송파구 동남로 263(오금동 51),magnetism@sen.go.kr,splib.sen.go.kr/
111031,마포평생학습관아현분관,,04202,02-362-8786,02-393-1586,서울특별시 마포구 마포대로 224,mapollc@sen.go.kr,http://ahyon.sen.go.kr/
111033,맹인점자도서관ⓧ,,139-200,02)950-0114,02)934-806,서울 노원구 상계동 771,,
111034,중랑구립정보도서관,,02041,02-3407-1111,02-3422-1114,서울특별시 중랑구 신내로15길 197,bgl7407@jungnanglib.seoul.kr,www.jungnanglib.seoul.kr/
111035,성동구립도서관,,04744,02-2204-6420,0222996449,서울특별시 성동구 고산자로10길 9,webmaster@sdfac.or.kr,http://www.sdlib.or.kr
111036,광진정보도서관,,04969,02-3437-5092,02-3437-0164,서울특별시 광진구 아차산로78길 90,tjk11@gwangjinlib.seoul.kr,http://www.gwangjinlib.seoul.kr/
111037,강북문화정보도서관,,01151,029443100,029443139,서울특별시 강북구 오현로 145,tssyjung@gangbuklib.seoul.kr,www.gblib.or.kr/
111038,강북청소년문화정보도서관,,01167,02-986-9581,,서울특별시 강북구 삼양로54길 68,1,http://www.gangbuklib.seoul.kr/youth/
111039,강남구립대치도서관,,06284,02-565-6666,02-554-6666,"서울특별시 강남구 삼성로 212, 은마복지상가 215호 (대치동, 은마아파트)",lib_daechi@naver.com,http://dchlib.gangnam.go.kr/
111040,금천구립독산도서관,,08560,02-863-9544-6,02-863-9548,서울특별시 금천구 독산로54길 114,libkumchon@hanmail.net,geumcheonlib.seoul.kr
111041,도봉문화정보도서관,,132-041,02-900-1835,02-900-1551,서울특별시 도봉구 덕릉로 315,dobong_lib@daum.net,www.dobonglib.seoul.kr/
111042,은평구립도서관,,03352,023851671,023522944,서울특별시 은평구 통일로78가길 13-84,tax@eplib.or.kr,http://www.eplib.or.kr/
111044,성북정보도서관,,02791,02-962-1081,02-962-5335,서울특별시 성북구 화랑로18자길 13,mana7083@sbculture.go.kr,http://www.sblib.seoul.kr
111045,관악중앙도서관,,08825,02-828-5700,02-828-5820,서울특별시 관악구 신림로3길 35,sunny@gfac.or.kr,http://lib.gwanak.go.kr/
111047,노원어린이도서관,,01715,02)933-7145,02)933-2455,서울특별시 노원구 한글비석로 346,juchan2@nowonlib.kr,https://www.nowonlib.kr
111048,아리랑도서관,,02827,02)3291-4990,02)3291-4993,서울특별시 성북구 아리랑로 82,catalog@arirang.go.kr,ar.sblib.seoul.kr
111049,송파구립거마도서관,,138-110,02-449-2332,02-449-5932,서울시 송파구 거여동 거마로2길 19 거여2동 주민센터 4층,webmaster@geomalib.or.kr,http://www.geomalib.or.kr/
111050,새세대육영회 어린이도서실,,138-732,02-932-4249,02-932-4241,서울 송파구 장지동 45번지 새세대육영회,childlib@kidpia.org,http://yukyoung.dongsamo.co.kr/home.php
111051,서대문구립이진아기념도서관,,03732,02-330-1412,,서울특별시 서대문구 독립문공원길 80,sweet23@daum.net,https://lib.sdm.or.kr:446/main/main.asp
111052,솔샘문화정보도서관,,01187,02-901-6501,,서울특별시 강북구 솔샘로 177,h6375@gangbuk.seoul.kr,http://www.gangbuklib.seoul.kr/solsem/
111053,이문체육문화센터 어린이 도서관,,130-080,02-963-0534,02-963-0539,서울 동대문구 이화교길 47 (이문3동 189번지),avangel@naver.com,http://www.ddmgongdan.or.kr/life_center/emun/index1.php
111054,남부여성발전센터 도서실,,153-034,02-802-0924,02-891-4017,서울 금천구 시흥4동 산 139-2 남부여성발전센터,ja0609@hanmail.net,
111055,부곡대우문고ⓧ,,609-320,051)515-8735,051)517-1173,부산시 금정구 부곡동 244-7번지 부곡대우아파트,my8735@hanmail.net,
111056,강남구립즐거운도서관,,06204,02-565-7533,02-565-7532,"서울특별시 강남구 도곡로77길 23, 대치4동주민센터 4층",jekwon@gangnamlib.or.kr,https://library.gangnam.go.kr/jgwlib
111057,이문체육문화센타,,121-887,016-9221-9428,02-941-9428,서울 마포구 합정동 434-4 신정교회,sjs7724@hanmail.net,
111058,노원중앙도서관,,139-825,02-950-0028,02-950-0059,서울 노원구 노원로 34길 43 (상계10동 686번지),nwlib@nowonlib.kr,https://nowonlib.kr/
111059,개봉3동 새마을작은도서관,,08353,02-2620-7852,,서울특별시 구로구 개봉로3길 47-5 (개봉동),libdream@guro.go.kr,
111060,중랑구립면목정보도서관,,02219,02-432-4120,02-432-4126,서울특별시 중랑구 면목로 397 (면목동),redfox798@hotmail.com,www.jungnanglib.seoul.kr/mmlib
111061,서울남문고,,152-871,02-867-1401,,서울 구로구 구로2동 708-25 서울남교회내 서울남문고,lovechae@mail.com,
111062,글빛정보도서관,,08734,02-878-7460,02-878-7461,서울특별시 관악구 관악로30길 23,library@gwanakcullib.seoul.kr,http://www.gwanakcullib.seoul.kr/
111063,성현동작은도서관,,08726,02-877-7182,02-877-7184,"서울특별시 관악구 관악로37길 56, 상가B동 5층",library@gwanakcullib.seoul.kr,
111064,강서정보도서관,,157-030,02-3662-8132,02-3662-8134,서울특별시 강서구 등촌동 705-4,,
111065,동대문구정보화도서관,,02456,02-960-1959,02-964-1959,서울특별시 동대문구 회기로10길 60,l4d_bill@l4d.or.kr,http://www.l4d.or.kr/
111066,경기도립발안도서관 ⓧ,,445-921,031-366-2901,031-366-2904,경기 화성시 향남읍 도이리 203-12(발안로 85-10),race3@hanmail.net,http://www.balib.or.kr/
111067,강서구립길꽃어린이도서관,,157-857,02-2663-4764,02-2663-4766,서울 강서구 금낭화로 24길 5(방화3동 828),bada_913@naver.com,http://lib.gangseo.seoul.kr/
111068,성동구립금호도서관,,04718,02-2204-6457,02-2282-5448,서울특별시 성동구 난계로 20,wig7987@sdfac.or.kr,
111069,강남구립청담도서관,,06012,02-540-7042,02-540-7043,"서울특별시 강남구 압구정로79길 26, 청담동주민센터 7층",bonayu@naver.com,cdlib.gangnam.go.kr
111070,강남구립논현도서관,,06058,02-3443-7650,02-542-6459,"서울특별시 강남구 학동로43길 17, 논현2동주민센터 6층",bonayu@naver.com,nhilib.gangnam.go.kr
111071,강남구립 논현정보도서관,,06046,02-511-7466,,"서울특별시 강남구 학동로 169, 논현1파출소건물 3층 (논현동)",jskim@gangnamlib.or.kr,https://library.gangnam.go.kr/nhilib
111072,대조꿈나무어린이도서실,,122-843,02-382-3959,02-382-3859,서울 은평구 대조동 214-7(대조동사무소 옆),hanlakyoung@hanmail.net,http://cafe.daum.net/djlibrary/
111073,강남구립 정다운도서관,,06066,02-512-9326,02-512-9346,"서울특별시 강남구 학동로67길 11, 청담2문화센터 3층",j_choi_kr@hanmail.net,library.gangnam.go.kr/usweb/opt2/usmn100.asp
111074,구립서초어린이도서관ⓧ,,06629,02-3471-1337,02-3471-1336,서울특별시 서초구 효령로 77길 37(서초동),etesian@naver.com,http://kidslib.seocho.go.kr
111075,강남구립행복한도서관,,06187,02-567-3833,02-565-3834,"서울특별시 강남구 영동대로65길 24, 대치2주민센터 3층",libhappy@naver.com,happylib.gangnam.go.kr/
111076,성동구립용답도서관,,04804,02-2204-6480,02-2216-3663,서울특별시 성동구 용답중앙3길 10,jhj225@sdfac.or.kr,http://www.sdlib.or.kr/YD
111077,금천구립가산도서관,,08521,02-865-6817,02-865-6820,서울특별시 금천구 가산로5길 43,gasanlib@naver.com,geumcheonlib.seoul.kr
111078,강동구립성내도서관,,05374,02-471-0044,02-471-1072,서울특별시 강동구 성안로 106-1,mgchoe71@empal.com,http://www.gdlibrary.or.kr/
111079,서초어린이책마을,,137-872,02)3486-0737,02)3486-0023,서울 서초구 반포로 808 (서초3동 1535-6),song314@hanmail.net,http://www.scy.or.kr/
111080,구로꿈나무도서관ⓧ,,152-872,02-860-2383,02-857-9991,서울특별시 구로구 구로장터길48 (구로동 741-27) 구로구시설관리공단 2층,jammysam@nate.com,http://lib.guro.go.kr/dream
111081,신월음악도서관,,07929,02-2065-1260,02-2065-1265,서울특별시 양천구 오목로5길 34,choizzang@yangcheon.go.kr,lib.yangcheon.go.kr
111082,가재울어린이도서관,,120-120,02-372-1380,,서울 서대문구 모래내길 302번지 3층 (남가좌동124-313),younghwa@sscmc.or.kr,
111083,대림도서관,,07376,02-828-3711,02-828-3701,서울특별시 영등포구 도신로 27,hming@ydpcf.or.kr,http://www.dllib.or.kr
111084,소나무언덕1호 작은도서관,,138-879,02-475-0266,02-475-0266,서울 송파구 풍납동(401-1번지 쌍용 아파트 상가 3층),1libsonamoo@naver.com,http://www.splib.or.kr
111085,월계도서관,,01880,02-991-0871,02-991-0882,서울특별시 노원구 월계로 319,isu0330@naver.com,www.wolgyelib.kr
111086,마포구립서강도서관,,04099,02-3141-7053,02-3141-7059,서울특별시 마포구 독막로 165,lib@sglibmapo.kr,https://mplib.mapo.go.kr/sglib/index.do
111087,미래향기 작은도서관,,08618,02-809-4861,02-890-2565,서울특별시 금천구 독산로 179 (독산동),tttresbien@geumcheon.go.kr,
111088,시흥1동 마을문고,,153-039,02-809-2171,02-890-2573,서울시 금천구 대명시장1길 18(시흥동 886-6),hwa1117@hanmail.net,
111089,시흥3동 마을문고,,153-861,02-891-8770,02-891-1485,서울 금천구 시흥대로 18길 40 (박미길 20 시흥동 956-3),ggombau@hanmailnet,
111090,시흥제4동 마을문고,,153-855,02-896-6051,02-890-2579,서울시 금천구 신흥초등길 10 (시흥동 812-38),koheung2@hanmail.net,
111091,시흥5동 마을문고,,08573,02-2104-5729,,"서울특별시 금천구 금하로21길 20, 시흥5동 주민센터2층 책읽는주민사랑방작은도서관 (시흥동)",donghun0117@naver.com,
111092,가산동 주민센터 마을문고,,153-023,02-839-0941,02-890-2561,서울 금천구 구굴동길 284,mjwas@naver.com,http://www.geumcheon.go.kr
111093,독산4동 어린이작은도서관,,153-014,02-859-7894,02-809-2567,서울시 금천구 독산로 232,mhm1997@nate.com,
111094,해오름작은도서관,,153-011,02-839-1381,02-890-2563,서울시 금천구 열린 문화길 5 (독산1동 289-5),mhm1997@nate.com,
111095,책이 든 거리 작은도서관,,153-032,02-896-6141,02-890-2575,서울 금천구 금천로 54 (시흥동 1010-1),mhm1997@nate.com,
111096,독산3동 마을문고,,153-819,02-857-4171,02-890-2567,서울시 금천구 문성동길 219 (893-1),kmax2002@naver.com,
111097,강서구립푸른들청소년도서관,,07709,02-2691-1630,02-2691-1632,서울특별시 강서구 강서로45다길 71,gsplibrary@naver.com,lib.gangseo.seoul.kr/
111098,강서구립꿈꾸는어린이도서관,,157-864,02-3663-4025,02-3663-4024,서울 강서구 염창동 281-25,kmjkmj@gangseo.seoul.kr,http://lib.gangseo.seoul.kr/
111099,구로꿈나무도서관,,08311,02-830-1623,02-857-9991,서울특별시 구로구 구로동로26길 54,loveandrun@hanmail.net,
111100,꿈마을도서관,,152-701,02-830-5807,02-830-5839,서울 구로구 구로동 777-1,kchanam@hanmail.net,http://lib.guro.go.kr/dreamtown/
111101,강동구립해공도서관,,05324,02-471-0044,02-471-1072,서울특별시 강동구 올림픽로 702,kgmi09@empal.com,http://hg.gdlibrary.or.kr/
111102,동작어린이도서관,,06926,02-823-6750,02-823-1906,서울특별시 동작구 장승배기로16길 98,choi_615@idongjak.or.kr,http://lib.dongjak.go.kr/
111103,강남구립 역삼도서관,,06244,02-508-1139,02-508-1139,"서울특별시 강남구 역삼로7길 16, 역삼1문화센터 5층",phm567@naver.com,http://library.gangnam.go.kr/
111104,꿈을 이루는 작은도서관,,121-805,02-330-2126,,서울 마포구 공덕동 458 아현동 주민자치센터 내 2층,dtdwgd@hanmail.net,http://cafe.naver.com/gddream/
111105,늘 푸른 소나무 작은도서관,,121-030,02-330-2126,,서울 마포구 신공덕동 158,dtdwgd@hanmail.net,http://cafe.naver.com/gsonamu/
111106,성메 작은도서관,,121-250,02-330-2126,,서울 마포구 성산2동 603 성산2동주민센터2층,dtdwgd@hanmail.net,http://cafe.naver.com/seongmae/
111107,약수도서관,,07036,02-823-1907,02-823-1908,서울특별시 동작구 양녕로22바길 64,garnet42@nate.com,lib.dongjak.go.kr
111108,가온도서관,,04607,02-2280-8470,02-2235-4607,"서울특별시 중구 동호로14길 18, 중구구립도서관 신당동",hhoo@e-junggu.or.kr,http://www.e-junggulib.or.kr/
111110,구립증산정보도서관,,122-936,02-307-6030,02-307-6020,서울 은평구 증산동 173-8번지,master@jsplib.or.kr,http://www.jsplib.or.kr/
111111,문래도서관,,07296,02-2629-8609,02-2629-8601,서울특별시 영등포구 문래로20길 49 (문래동3가),wilshere0108@ydpcf.or.kr,www.mllib.or.kr/
111112,내손책고운도서관,,437-837,031-345-2685,,경기 의왕시 내손1동 787 내손1동 주민센터 4층,sangkun39@hanmail.net,http://www.uwlib.or.kr
111113,금천구립금나래도서관,,08611,02-2627-2991,,서울특별시 금천구 시흥대로73길 70,bear40@hanmail.net,http://geumcheonlib.seoul.kr/doc_gc4/
111114,소나무언덕2호도서관,,138-220,02-424-0083,,서울 송파구 잠실동 44-4 잠실3동 자치회관 2관2층(잠실 119안전센터 옆건물 레이크팰리스 127동옆),2libsonamoo@naver.com,http://www.splib.or.kr/sp2lib/index.jsp
111115,자양제4동도서관,,05084,02-465-0737,02-465-0739,"서울특별시 광진구 뚝섬로26길 58, 자양제4동주민센터 1층 (자양동)",ssj0825@hanmail.net,www.gwangjinlib.seoul.kr
111116,중곡문화체육센터도서관,,04904,02-3408-4900,02-3408-4950,서울특별시 광진구 능동로 433,goodlife0126@naver.com,www.gwangjinlib.seoul.kr
111117,송파어린이도서관,,138-857,024180303,02-418-0358,서울시 송파구 올림픽로 105,ace@spclib.or.kr,
111118,우장산숲속도서관,,07690,02-2696-6690,,"서울특별시 강서구 우현로 34, 우장산 주민센터 4층",windbada@korea.kr,lib.gangseo.seoul.kr/
111119,성동구립 무지개도서관,,04750,02-2204-6495,02-2286-6027,"서울특별시 성동구 고산자로 270, 성동구청 3층",ss17371@sdfac.or.kr,www.sdlib.or.kr/rainbow/
111120,청파도서관,,04300,02-714-3931,02-719-3932,서울 용산구 서계동 227-1,ari71@naver.com,http://www.yslibrary.or.kr/cheongpa
111121,선유도서관,,07210,02-2163-0804,02-2163-0801,서울특별시 영등포구 선유로43가길 10-8,spinos@adminydp.bizmeka.com,www.sylib.or.kr
111122,서초구청북카페,,137-863,02-2155-6234,02-2155-6239,서울 서초구 남부순환로 2584(서초2동 1376-3)서초구청,neofox25@seocho.go.kr,http://bookcafe.seocho.go.kr/
111123,해오름도서관(서울 성북구),,136-060,02-6925-7002,,서울 성북구 돈암동 609-1 2층,cjin0324@gongdan.go.kr,https://www.sblib.seoul.kr/horlib/index.do
111124,구립응암정보도서관,,03481,02-308-2320,02-308-2339,서울특별시 은평구 가좌로7길 15,ealib@ealib.or.kr,http://www.ealib.or.kr
111125,강동구립 강일도서관,,05211,02-427-7676,02-427-0588,서울특별시 강동구 아리수로93길 9-14 강일도서관(강일동),nicky4109@igd.or.kr,http://gangil.gdlibrary.or.kr/
111126,구립상림도서관,,03303,02-351-7264,02-350-1878,서울시 은평구 진관4로 48-25 구립상림도서관,zan2002@ep.go.kr,http://sl.eplib.or.kr
111127,강남구립 역삼푸른솔도서관,,06240,02-2051-1178,,"서울특별시 강남구 테헤란로8길 36, 강남문화원 4층",gn232500@gangnam.go.kr,http://ysplib.gangnam.go.kr/
111128,구로구립 온누리도서관,,08283,02-858-9080,02-858-9082,"서울특별시 구로구 구로중앙로27나길 9, 구로초등학교 내 온누리관 4층 (구로동)",gurolib28@naver.com,http://lib.guro.go.kr
111129,학마을도서관,,01359,070-4470-4087,02-955-0688,"서울특별시 도봉구 시루봉로 128, 학마을도서관 (방학동)",yjy@dbfac.or.kr,http://www.unilib.dobong.kr/main.do
111130,동작상도국주도서관ⓧ,,06919,02-813-6750,02-813-6758,서울특별시 동작구 매봉로 37,onlysugar88@naver.com,http://lib.dongjak.go.kr/
111131,상계2동작은도서관,,139-200,02-932-3581,02-950-3730,서울 노원구 상계동 389-483 상계2동주민센터,bandi1113@nowon.go.kr,
111132,은평작은도서관 (서울),,122-702,02-351-8461,,서울 은평구 녹번동 은평구청 구의회동 1층,a781001@eunpyeong.seoul.kr,http://library.ep.seoul.kr
111133,중계사랑북카페,,139-224,02-950-3514,02-950-3728,서울 노원구 중계4동 369-2,jjangymh@nowon.go.kr,
111134,하계1동 작은도서관,,139-231,02-977-4711,02-977-4714,노원구 하계1동 251-2,jiayoukim08@nowon.kr,
111135,수락 작은도서관,,139-204,02-932-3941,02-950-3731,서울 노원구 상계3·4동 37-7번지,cjmjy00@nowon.kr,
111136,반포1동 작은도서관,,137-704,02-2155-7596,02-2155-7619,서울 서초구 사평로 273(반포동 20-48)반포1동,esjung3@seocho.go.kr,http://banpo1.seocho.go.kr
111137,신사어린이 도서관,,122-882,02-376-4141,02-3151-0042,서울 은평구 신사1동 26-18,sinsa4141@hanmail.net,http://www.sscc.or.kr/
111138,반포본동 작은도서관,,137-049,02-2155-7577,02-2155-7589,서울 서초구 반포본동 1130번지 반포본동 주민센터,bono9922@seocho.go.kr,http://www.seocho.go.kr/site/v5/index.jsp
111139,광진구 중곡4동 새마을문고,,143-220,02-450-1075,02-452-3249,서울특별시 광진구 중곡4동 18-145,shsh4501@yahoo.co.kr,
111140,잠원도서관,,06523,02-520-8710,02-520-8720,"서울특별시 서초구 나루터로 38, 3층 (잠원동)",yjj98@seocho.go.kr,
111141,방배본동 작은도서관,,137-060,02-2155-7711,02-2155-7740,서울 서초구 방배동 774-9,tndud1025@seocho.go.kr,http://www.seocho.go.kr/
111142,방배2동 작은도서관,,137-060,02-2155-7774,02-2155-7800,서울 서초구 방배2동 462-13,pkhuk@citizen.seoul.kr,http://www.seocho.go.kr/site/vc/index.jsp
111143,응봉동 어린이 작은도서관,,133-080,02-2286-7323,02-2286-5958,서울 성동구 응봉동 101,lys4545@sd.go.kr,http://eungbong.sd.go.kr
111144,성수2가제1동 어린이작은도서관,,133-120,02-2286-7463,02-469-9644,서울 성동구 성수동2가 333-134 성수2가1동주민센터,20090220784@sd.go.kr,http://seongsu2ga1.sd.go.kr/
111145,광진구 구의1동 새마을 문고,,143-201,02-450-1202,02-447-3592,서울 광진구 구의1동 237-6,designvivi@naver.com,
111146,방배4동 작은도서관,,06572,02-2155-7851,02-2155-7860,"서울특별시 서초구 방배로 173, 3층, 방배4동주민센터 작은도서관 (방배동)",annks@seocho.go.kr,
111147,금호4가동 새마을문고,,133-809,02-2286-7393,02-2286-5962,서울 성동구 금호동4가 803 (솔샘길 25) 금호4가동 주민센터 3층,21ju10@sd.go.kr,
111148,동작샘터도서관 (작은도서관),,06999,02-533-6750,02-553-6749,서울특별시 동작구 동작대로29길 63-26,bark0718@hanmail.net,http://lib.dongjak.go.kr/
111149,날마다자라는나무 (작은도서관),,143-193,02-455-0614,02-454-0793,서울 광진구 자양3동 580-13 3층 4호,treelib@naver.com,http://cafe.naver.com/treelib
111150,구의3동새마을문고,,143-832,02-450-1245,02-458-7255,서울 광진구 구의3동 630,realwang@gwangjin.go.kr,
111151,수송 작은도서관,,137-906,02-543-7532,02-543-8167,서울 서초구 잠원동 48-13 수송교회 내 수송작은도서관,dhkd007@hanmail.net,http://www.soosong.or.kr
111152,어린이 도서관 꿈꾸는 세상 (작은도서관),,120-848,02-375-7179,02-375-7179,서울 서대문구 홍은2동 407-10,lkypyr@naver.com,
111153,서초2동책사랑방 (작은도서관),,137-704,02-2155-7436,02-2155-7459,서울 서초구 서초동 1332-6,20090603176@seocho.go.kr,http://seocho2.seocho.go.kr/
111154,화곡4동 주민문고 (작은도서관),,157-898,02-2655-0471,02-2651-9282,서울특별시 강서구 화곡제4동 809-3,jino007@gangseo.seoul.kr,http://ccenter.gangseo.seoul.kr
111155,희망문고 (작은도서관),,157-010,02-2690-0511,02-2690-0511,서울 강서구 화곡동 1087-5 원흥타운 207호,kcs-520@hanmail.net,
111156,꿈이 있는 어린이 도서관 (작은도서관),,157-912,02-2601-5232,02-2601-0305,서울 강서구 화곡6동 957-10,kim900816@hanmail.net,
111157,예뜰문고 (작은도서관),,157-010,02-2698-5006,02-2606-1276,서울 강서구 화곡동 358-4,bogi2012@hanmail.net,
111158,환원어린이도서관,,157-230,02-2662-3485,02-2665-0607,서울 강서구 개화동 325-11,gscwc@hanmail.net,http://www.gscl.or.kr/
111159,하늘어린이문고 (작은도서관),,157-866,02-2605-0600/010-3239-9917,02-2065-0601,서울특별시 강서구 화곡동 995-14,haramsmom@hanmail.net,
111160,은천동 작은도서관,,08750,02-877-4237,02-887-6893,서울특별시 관악구 봉천로33나길 30,kgyuhee@gwanakcullib.seoul.kr,www.gwanakcullib.seoul.kr/
111161,발음도서관 (작은도서관),,157-833,02-2662-1372,02-2664-9206,서울 강서구 내발산1동 709-6 2층,sysshk@hanmail.net,http://www.baleum.org/club/~library
111162,신일지역문고 (작은도서관),,120-040,02-363-1004,02-363-1016,서울 서대문구 천연동 145-2,corban322@paran.com,
111163,방배1동 작은도서관,,137-843,02-2155-7765,02-2155-7769,서울 서초구 방배1동 922-18 방배1동주민센터,jungmi84@seocho.go.kr,
111164,하늘꿈 도서관 (작은도서관),,157-280,02-2664-3126,02-2661-4126,서초구 강서구 내발산동 720-2,shin-n-n@hanmail.net,http://www.nelvit.org
111165,카로스도서관 (작은도서관),,143-200,02-444-7004,02-454-8544,서울 광진구 구의동 590-3,goodchurch99@naver.com,
111166,좋은친구 어린이 도서관 (작은도서관),,157-816,02-2662-8326,,서울 강서구 공항동 1344번지 한사랑교회,lysim@seoul.go.kr,http://www.joyhmc.org/communityboard/communityboardView.do?ipostseq=13&icommunitymanagerseq=16
111167,그루터기 문고 (작은도서관),,143-867,02-444-0581,02-454-1614,서울 광진구 자양1동 658-1,dukmh31@hanmail.net,http://www.seongsan.org/
111168,천일어린이도서관,,134-866,02-478-8601,,서울 강동구 천호1동 223-1,libraryk@hanmail.net,http://cafe.daum.net/smilesmilebook
111169,가재울 아이파크 도서관 (작은도서관),,120-132,02-309-0132,02-376-2810,서울 서대문구 북가좌2동 458번지 가재울아이파크아파트,sk9806@hanmail.net,
111170,성수주민문고 (작은도서관),,133-833,011-447-6308,02-468-0691,서울시 성동구 성수2가3동 299-156,02030208@hanmail.net,
111171,아름드리 작은도서관,,121-232,02-322-8639,02-3156-8989,서울 마포구 망원2동 436-14 망원2동 주민센터 1층,keimarine@mapo.go.kr,http://cafe.naver.com/ardr/
111172,새빛작은도서관,,05054,02-3436-6852,02-3436-6852,서울특별시 광진구 아차산로 330,xnet1004@naver.com,
111173,소나무언덕3호 작은도서관,,05761,02-443-0130,,"서울특별시 송파구 성내천로 319, 4층",3210yap@songpa.go.kr,www.splib.or.kr
111174,송중문화정보도서관,,142-100,02-944-3100,02-944-3139,서울 강북구 미아동 138-11,sysop@gangbukcmc.seoul.kr,http://www.gangbuklib.seoul.kr/songjung/
111175,소나무언덕4호 작은도서관,,05674,02-2147-2375,02-2147-3861,서울특별시 송파구 송이로 34,k7209u@songpa.go.kr,http://www.splib.or.kr/sp4lib
111176,강동구립 암사도서관,,05253,02-429-0476,02-429-0471,서울특별시 강동구 고덕로20길 42,illtal@igd.or.kr,http://www.gdlibrary.or.kr/aslib
111177,인문학도서실,,110-800,02-747-6688,02-747-6680,서울 종로구 계동 1번지 중앙고등학교 내,kmoh@kmoh.org,http://www.kmoh.org
111178,푸른꿈 작은도서관(서울 은평구),,122-736,010-4330-6977,02-388-5951,서울 은평구 진관동2번지 은평뉴타운 상림마을 608동 1층,warmcolor@naver.com,
111179,남가좌새롬어린이도서관,,03665,02-360-8675,02-304-0084,서울특별시 서대문구 증가로10길 16-15,lyran@sscmc.or.kr,http://lib.sdm.or.kr
111180,남산타운문화체육센터 어린이도서관,,100-453,02-2280-8520,02-2280-8525,서울 중구 신당3동 844-1,jinapple@e-junggu.or.kr,http://www.e-junggulib.or.kr/namsan
111181,평강 마을도서관,,05098,02-453-6238,02-453-6238,서울특별시 광진구 자양번영로4길 13 (자양동),pgang3@naver.com,http://pgang1.modoo.at
111182,수유문화정보도서관,,142-070,02-944-3170,02-944-3179,서울 강북구 수유동 605-412,tssyjung@naver.com,http://www.gangbuklib.seoul.kr/general/
111183,강서점자도서관,,07626,02-2661-2280,02-2661-2290,서울특별시 강서구 공항대로8길 77-24,ksblwel@naver.com,http://www.ksbl.or.kr
111184,인성시각장애인도서관,,05763,02-422-6070,02-422-6117,서울특별시 송파구 마천로61길 26,songpalib@hanmail.net,hotlineworld.net
111185,서울시각장애인복지관,,138-840,02-3433-3844,02-414-6407,서울 송파구 삼전동 109번지,soohyuni@freechal.com,http://www.bokji.or.kr/
111186,가락2동 마을문고,,138-160,"02-2147-4480, 2239",,서울 송파구 가락동 154,kkosaho@songpa.go.kr,
111187,송죽도서관,,120-091,02-391-3385,02-391-3387,사회복지법인 아동복지생활시설,dol_doggi@hanmail.net,http://www.songjukwon.co.kr/index.asp
111188,종암동새날도서관,,136-090,02-6925-6920,,서울 성북구 종암동 16-8외 2,naidez0@gongdan.go.kr,http://www.sblib.seoul.kr
111189,도봉아이나라도서관,,132-044,02-995-4171,02-995-1600,서울 도봉구 창4동 808-1 (노해로 69길 151),seoreu@hanmail.net,http://www.kidlib.dobong.kr/
111190,솔향기 북카페,,134-740,02-427-6675,02-427-6676,서울 강동구 강일동 강일리버파크10단지아파트 관리사무소 2층 솔향기북카페,ranzhen@lycos.co.kr,
111191,소나무언덕잠실본동도서관,,05573,02-2147-2379,,서울특별시 송파구 탄천동로 205,ikr831112@songpa.go.kr,http://www.splib.or.kr/spmlib
111192,조원도서관,,08766,02-877-4237,02-877-6893,서울특별시 관악구 조원로12길 25,beau0610@gcl.seoul.kr,www.gwanakcullib.seoul.kr/
111193,책이랑 놀이랑 도서관,,151-849,02-878-0955,02-887-6893,서울시 관악구 행운동 1675-12 2층,beau0610@gcl.seoul.kr,http://www.gwanakcullib.seoul.kr
111194,삼양동 새마을문고,,01121,02-3778-4042,02-994-8601,"서울특별시 강북구 삼양로 268, 삼양동주민센타 2층 (미아동)",shawoo19@naver.com,http//moongo.gangbuk.go.kr/www/com
111195,미아동 새마을문고,,142-100,02-901-2382,,서울 강북구 미아동 197-1,iun0915@daum.net,
111196,송중동 새마을문고,,142-100,02-901-2395,,서울 강북구 미아동 138-11,songhk67@hanmail.net,
111197,송천동 새마을문고,,142-100,02-983-8763,,서울 강북구 미아동 860-56,daedos114@hanmail.net,
111198,삼각산동 새마을문고,,142-100,02-988-0858,,서울 강북구 솔샘길 147 SK북한산시티 APT 제1관리사무소 1층,gntmd11@naver.com,
111199,번1동 새마을문고,,142-060,02-901-2386,,서울 강북구 번동 417-11,hwang474@hanmail.net,
111200,번2동 새마을문고,,142-060,02-901-2387,,서울 강북구 번동 232,qlsndn@hanmail.net,
111201,번3동 새마을문고,,142-060,02-901-2388,,서울 강북구 번동 242-3,sunyim@hanmail.net,
111202,수유1동 새마을문고,,142-070,02-901-2389,,서울 강북구 수유동 472-31,lky514@naver.com,
111203,수유2동 새마을문고,,142-070,02-901-2390,,서울 강북구 수유동,hkrsss1201@hotmail.com,
111204,수유3동 새마을문고,,142-070,02-901-2391,,서울 강북구 수유동 223-8,miseon67@hanmail.net,
111205,우이동 새마을문고,,142-070,02-901-2392,,서울 강북구 수유동 568-100,daedos114@hanmail.net,
111206,인수동 새마을문고,,142-070,02-901-2141,,서울 강북구 수유동 605-188,artistm0615@naver.com,
111207,인수동 새마을문고분소,,142-070,02-901-2393,,서울 강북구 수유동 527-19,artistm010@naver.com,
111208,무수골도서관,,01305,02-3492-0078,02-3492-0079,"서울특별시 도봉구 도봉로175길 10, (도봉1동어린이집) 3층 (도봉동)",hmg@dbfac.or.kr,
111209,책사랑작은도서관,,150-013,070-8845-7130,,서울 관악구 신림동 646-452 난곡동복합청사 3층,poling79@ga.go.kr,
111210,한울작은도서관(관악구),,151-828,02-881-4271,,서울 관악구 은천동 635-662 2층,poling79@ga.go.kr,
111211,봉현작은도서관,,151-055,02-881-4061,,서울 관악구 성현동 1703-6 1층,poling79@ga.go.kr,http://lib.gwanak.go.kr
111212,청룡작은도서관,,151-847,02-881-4121,,서울 관악구 청룡동 1577-15 1층,poling79@ga.go.kr,http://lib.gwanak.go.kr
111213,삼성작은도서관,,151-861,070-7163-5166,,서울 관악구 신림동 310-8 1층,poling79@ga.go.kr,http://lib.gwanak.go.kr
111214,구로구립개봉어린이도서관,,08274,02-2066-1695,02-2066-1675,서울특별시 구로구 경인로 318-15,gbclib@naver.com,
111215,하늘도서관,,08317,02-864-9585,02-864-9587,서울특별시 구로구 구로동로13길 68,sja1113@guro.go.kr,lib.guro.go.kr/
111216,구로구립 개봉도서관,,08333,02-2689-1695,02-2689-1696,"서울특별시 구로구 개봉로16길 30-11, 개봉초등학교 내",sja1113@guro.go.kr,http://lib.guro.go.kr
111217,관악산시도서관,,151-858,02-887-6890,02-887-6815,서울 관악구 대학동 210,hoon@gcl.seoul.kr,http://www.gwanakcullib.seoul.kr
111218,낙성대공원도서관,,,02-887-6890,02-887-6815,서울 관악구 봉천동(낙성대길75)낙성대공원 내,hoon@gcl.seoul.kr,http://www.gwanakcullib.seoul.kr
111219,서경로 꿈마루도서관,,136-100,02-920-3071,02-920-2933,서울 성북구 정릉동 227-176번지,belief@sb.go.kr,
111220,어울림도서관,,04584,02-2280-9200,02-2280-9245,서울특별시 중구 다산로38길 66-35 (신당동),sdlib@e-junggu.or.kr,http://www.e-junggulib.or.kr/
111221,당성책세상우리세상,,150-041,02-2675-9191,02-2676-2649,서울 영등포구 당산동1가 185-24,doligoon@hanmail.net,http://cafe.daum.net/d.b.w
111222,마장동 새마을문고,,133-815,02-2286-7256,,서울 성동구 마장동 780-2,arp99@sd.go.kr,
111223,신길1동 작은도서관,,150-050,02-842-1667,02-849-1688,서울 영등포구 신길동 465-2,syw85@ydp.go.kr,
111224,서초1동 작은도서관,,137-071,02-2155-7404,,서울 서초구 서초1동 1649-5,mn821122@seocho.go.kr,
111225,대길열린문고,,150-050,02-831-9908,02-831-9997,서울 영등포구 신길동 466-3,amen1907@hanmail.net,http://www.daegilwelfare.net/
111226,북마크어린이도서관,,150-867,010-3720-6378,02-6007-1824,서울 영등포구 양평동4가 82~330 275-3 북마크 지하1층,to@evchain.com,http://www.evhchain.com
111227,압구정동문고,,135-510,02-3443-6573,,서울 강남구 압구정동 458 압구정동 주민센터,unsupported@gangnam.go.kr,
111228,한진도서관,,137-030,02-593-4141,,서울 서초구 잠원동 72-2(한신문화원 내),clickyonc@hanmail.net,
111229,대림동작은마을문고,,150-070,02-835-8290,02-845-8290,서울 영등포구 대림동 894-78,cns0091@hanmail.net,
111230,여의동 작은도서관,,150-895,02-784-2268,02-2670-1100,서울 영등포구 여의도동 53-22,taksejin@paran.com,
111231,손기정 작은도서관ⓧ,,100-372,02-3396-4134,02-396-6906,서울 중구 만리동2가 6-1,sjlib@e-junggu.or.kr,http://e-junggulib.or.kr
111232,꿈터 마을도서관,,150-055,02-836-1005,,서울 영등포구 신길5동 주민센터 1층,yi1024@paran.com,
111233,대림1동 작은도서관,,150-818,02-834-4560,,서울 영등포구 대림1동 899-2,sukmi0302@daum.net,
111234,꿈이있는도서관(영등포),,,02-833-7661,,서울 영등포구 신길6동 4003번지,gihongsen@naver.com,http://www.namseoulch.com
111235,글마루한옥어린이도서관,,08243,02-2615-8200,02-2611-1543,서울특별시 구로구 고척로27바길 7,hanoklib@naver.com,
111236,방배도서관,,06705,02-3471-3993,,서울특별시 서초구 방배로 40 (방배동),anna@seocho.go.kr,
111237,생명나무도서관,,156-060,070-7132-2931,,서울 동작구 본동 481 신동아 상가 4층 404. 405호,leegajog@hanmail.net,
111238,하늘사다리문고,,156-791,02-823-3090,02-823-3093,서울 동작구 흑석동 명수대 상가 B 2층 7호,dongin196313@hanmail.net,
111239,화랑도서관,,139-242,,,서울 노원구 공릉2동 87-5,,
111240,개울건강도서관,,07944,02-2696-8910,02-2696-8909,서울특별시 양천구 중앙로52길 56,lkyungyeon@yfac.kr,https://lib.yangcheon.or.kr/libgaeul/
111241,구로주민전용도서관ⓧ,,152-050,02-858-9080,,서울 구로구 구로동 443,,
111242,목마교육도서관,,07984,02-2652-8910,,서울특별시 양천구 목동서로 41 3층,mokma@yangcheon.co.kr,http://lib.yangcheon.go.kr/
111243,반포4동 작은도서관,,137-806,02-2155-7703,02-2155-7709,서울 서초구 반포4동 107-43 진영빌딩 3층,pcm8901917@seocho.go.kr,
111244,양재2동 작은도서관,,137-897,02-2155-7904,02-2155-7930,서울 서초구 양재2동 323-1 양재2동 주민센터,csj7538@seocho.go.kr,
111245,반딧불작은도서관(서울),,,010-8670-8840,,서울 강서구 우장산동 670-55,kys422@hanmail.net,
111246,양재1동 작은도서관,,137-900,02-2155-7887,,서울 서초구 우면동 68-2 양재1동 우면주민센터,ojh511@seoul.go.kr,
111247,반포3동 작은도서관,,137-909,02-2155-7659,02-2155-7679,서울 서초구 잠원동 71-7,blueboy83@seocho.go.kr,
111248,내곡동 작은도서관,,137-170,02-2155-7954,02-2155-7959,서울 서초구 염곡동 180-11,annsoo@citizen.seoul.kr,
111249,반포2동 작은도서관,,06504,02-2155-7621,02-2155-7649,"서울특별시 서초구 신반포로15길 16, 2층 (반포동)",kmelily@seocho.go.kr,
111250,서초3동 작은도서관,,137-070,02-3472-7462,,서울 서초구 서초동 1583-10 주민공동시설 2층,02-3472-7462,
111251,서초4동 작은도서관,,137-074,02-2155-7497,,서울 서초구 서초4동 1302-6 서초4동주민센터,rrjshrrj@seocho.go.kr,
111252,홍은도담도서관,,03600,02-360-8645,02-395-8650,서울특별시 서대문구 홍은중앙로 129,jymi76@sscmc.or.kr,lib.sdm.or.kr
111253,보물섬작은도서관,,151-061,02-889-4942,,서울 관악구 인헌동 1635-40 2층,poling79@ga.go.kr,
111254,생각나무 도서관,,151-764,02-8780187,02-6746-3400,서울 관악구 청림동 관악푸르지오2단지아파트 1717,ttl0615@hanmail.net,http://www
111255,통인 어린이 작은도서관,,110-043,02-739-8444,02-739-8446,서울 종로구 통인동 89-14,yym1971@korea.kr,http://lib.jongno.go.kr/
111256,작은도서관 삼봉서랑,,110-701,02-731-0323,,서울 종로구 수송동 종로구청,yym1971@korea.kr,http://lib.jongno.go.kr/
111257,해오름 작은도서관,,121-806,02-3153-8963,02-3153-8989,서울 마포구 노고산동 1-50 우리마포복지관 2층,sskkyy@mapo.go.kr,
111258,성산글마루 작은도서관,,121-250,02-3153-8963,02-3153-8989,서울 마포구 성산동 450 성산시영아파트단지내 주민편익시설 3층,sskkyy@mapo.go.kr,
111259,송파어린이영어도서관,,05507,02-2147-2380,,"서울특별시 송파구 오금로 1, 신천빗물펌프장 구펌프동 4, 5층",spenglib@naver.com,http://www.splib.or.kr/spelib
111260,세광문고,,153-855,02-893-4671,02-893-4672,서울 금천구 시흥4동 813-20,rbc0703@hanmail.net,http://sekwang.org
111261,신당3동 작은도서관,,100-840,02-2232-8324,,서울 중구 신당3동 372-87,whityrabbit@naver.com,
111262,방학1동 마을문고,,132-850,02-2289-7557,02-2289-1753,서울 도봉구 방학1동 687-27 방학1동 주민센터 3층,coldy1140@dobong.go.kr,
111263,필동작은도서관,,100-272,02-2266-4005,02-2266-4005,서울 중구 필동2가 19-22,ansrh55@hanmail.net,
111264,성광작은도서관,,136-104,02-911-4207,02-911-4217,서울 성북구 정릉4동 1028-3 성광교회 2층,skidream@hanmail.net,http://www.skidream.org
111265,씨앗문고(도봉1동),,132-011,02-954-0351,02-3491-2222,서울 도봉구 도봉1동 560-7,715ljh@hanmail.net,http://cafe.daum.net/seed-book
111266,어린이도서관 느티나무,,100-828,02-3298-0918,02-3298-0918,서울 중구 신당2동 353-24 다니엘빌딩 2층,4the_dream@naver.com,http://www.cafe.naver.com/neuty
111267,정동어린이도서관 하늘씨앗,,100-120,02-776-8762,,서울 중구 정동 34,bomi70@hanmail.net,http://chungdong.winbook.co.kr
111268,하늘도서관(금천구),,153-013,02-837-2305,02-837-2306,서울 금천구 독산3동 887-3,yurmwy@naver.com,
111269,산돌어린이도서관,,153-839,02-808-7902,02-893-6737,서울 금천구 시흥1동 108-23 산돌문화센타 2층,lk950402@hanmail.net,http://sandolc.com
111270,도봉2동 새마을문고,,132-822,02-2289-7980,02-2289-1763,서울 도봉구 도봉2동 636-9,orabibari@yahoo.co.kr,
111271,방학2동 작은도서관,,132-020,02-2289-7900,02-2289-1754,서울 도봉구 방학동 621-3,fararoma68@hanmail.net,
111272,창1동작은도서관,,132-910,02-2289-7584,02-2289-1757,서울 도봉구 창1동 347-5 창1동주민센터,kimyong1957@hanmail.net,
111273,아이누리작은도서관,,03703,02-330-8775,02-330-8490,"서울특별시 서대문구 증가로 13-10, 1층",sehee821@sdm.go.kr,lib.sdm.or.kr
111274,쌍문3동 새마을문고,,132-033,02-2289-7870,,서울 도봉구 쌍문3동 327,kks5920@naver.com,
111275,채우리 작은도서관,,134-050,02-442-2592,,서울 강동구 암사동 474-6,lemuet@hanmail.net,
111276,함께크는우리,,05222,02-428-4686,02-428-4683,"서울특별시 강동구 고덕로83길 26, 2층 (고덕동)",dingga30@naver.com,http://cafe.daum.net/dokkebiya
111277,성대문고,,134-806,02-3426-5743,02-483-3005,서울 강동구 고덕1동 637-2,jdy0691@naver.com,
111278,서대문구 홍은2동 행복작은도서관,,120-102,02-330-8778,,서울 서대문구 홍은2동 273-10 3층,wall48@sdm.go.kr,http://book.sdm.seoul.kr
111279,홍제3동 문화촌어린이도서관,,,02-330-8423,02-394-3274,서울 서대문구 홍제3동 7-13,bears59@sdm.go.kr,
111280,홍제2동 꿈이 있는 작은 도서관,,120-090,02-330-8453,,서울 서대문구 홍제동 459-4 홍제2동 주민센터 2층,kimsb63@sdm.go.kr,http://acms.sdm.go.kr/jumin
111281,알음알음작은도서관,,120-013,120-013,02-330-1688,서울 서대문구 경기대로 40 (충정로 3가 185-2번지),arangso@sdm.seoul.kr,http://book.sdm.go.kr
111282,쌍문2동 작은도서관,,132-713,02-2289-7860,,서울 도봉구 쌍문2동 도봉보건소 건물내 7층 쌍문2동작은도서관,ksgim815@hotmail.com,
111283,안말 작은도서관,,134-849,02-488-2392,,서울 강동구 성내2동 508 2층 새마을문고,aurorasoon@hanmail.net,
111284,솔로몬도서관,,134-070,070-7404-1213,02-442-1313,서울 강동구 명일동 225번지,skylig12@naver.com,
111285,반석도서관(작은도서관),,134-811,02-478-2733,02-471-7521,서울 강동구 길동 338-9,yes16kr@korea.com,
111286,동화동 작은도서관,,100-450,02-2233-2626,,서울 중구 신당동 282-49호,coolhye103104@nate.com,
111287,북가좌2동 가슴따뜻한 작은 도서관,,120-814,02-330-8269,02-375-4184,서울 서대문구 북가좌2동 324-13 북가좌2동 주민센터,zambong@sdm.go.kr,
111288,새마을문고암사1동분회ⓧ,,134-050,02-481-6152,,서울 강동구 암사동 474-6 1층,hoho6939@hanmail.net,
111289,책꾸러미 작은도서관,,134-072,070-8161-4598,,서울 강동구 명일2동 223-7,risun510@hanmail.net,
111290,새싹작은도서관(홍제1동),,120-853,02-330-8663,,서울 서대문구 통일로27길 19 (홍제1동자치회관 3층),yasusi@sdm.seoul.kr,
111291,글고운 작은도서관,,134-031,02-475-5156,02-479-0579,서울 강동구 성내1동539-1,narrkjs@hanmail.net,
111292,하늘샘어린이도서관,,120-848,070-4060-0617,,서울 서대문구 홍은2동 338-12 2층,su4288@sjch.kr,http://www.sky.winbook.kr
111293,글향기 작은도서관,,134-863,02-470-3613,,서울 강동구 천호1동 76-2,okj6292@hanmail.net,
111294,가람슬기 작은도서관,,134-846,02-474-4030,,서울 강동구 성내3동 439-29,ieongshis@naver.kr,
111295,반딧불 작은도서관(길동),,134-815,02-474-5157,,서울 강동구 길동 228-6,rose0252@hanmail.net,
111296,해오름 작은도서관,,134-877,02-3426-3070,,서울 강동구 암사2동 502~570,sunsa36@hanmail.net,
111297,우리작은도서관(강서구),,157-846,02-2662-6691,02-2662-6075,서울 강서구 방화1동 183번지,iman153@hanmail.net,
111298,햇살 작은도서관,,134-020,010-9019-7118,,서울 강동구 천호동302-4,songj1002@hanmail.net,
111299,불광천 작은도서관,,122-013,02-308-3117,02-308-3778,서울 은평구 응암3동 586-10호 앞 불광천 휴게데크,ealib@ealib.or.kr,
111300,롯데캐슬도서관,,134-050,070-8702-1899,3427-3427-3427,서울 강동구 암사동 414-2,jmo74@naver.com,
111301,석관동 미리내도서관,,136-817,02-920-3060,02-920-2933,"서울 성북구 석관동 134-2(4,5층)",2009022577@sb.go.kr,
111302,달빛마루도서관,,136-130,02-911-0993,,서울 성북구 하월곡동 230번지,belief@sb.go.kr,
111303,장안어린이도서관,,130-100,02-2249-1959,02-2249-5920,서울 동대문구 장한로26다길 10,kimdahyun@gmail.com,
111304,용두어린이영어도서관,,02583,02-921-1959,02-926-8180,서울특별시 동대문구 무학로 133,yelc1959@naver.com,www.l4d.or.kr
111305,구의3동 도서관,,05047,02-450-1636,02-454-6295,"서울특별시 광진구 강변역로 17, 구의3동 주민센터 3층 (구의동)",qkrgodud11@gwangjin.go.kr,http://www.gwangjinlib.seoul.kr/
111306,신도림어린이영어작은도서관,,08203,02-850-0926,02-2069-0186,서울특별시 구로구 신도림로13길 51,papyrus-zz@gurosisul.or.kr,http://lib.guro.go.kr/
111307,상계도서관,,01605,02-3391-7882,02-3391-0990,서울특별시 노원구 동일로243길 57,jk-choi@nowonlib.kr,http://www.sglib.kr
111308,고래이야기(작은도서관),,140-896,070-8950-0615,,서울 용산구 효창동 5-495 효창맨션 1층,deka78@naver.com,http://cafe.naver.com/bookwhale
111309,강서구립 등빛도서관,,07585,070-4454-0651,02-3664-8045,서울특별시 강서구 강서로62길 48,deungbit_lib@naver.com,lib.gangseo.seoul.kr
111310,강서영어센터,,157-701,02-2600-6987,02-2600-6973,서울 강서구 강서로 62길 (1층),wjh7692@gangseo.seoul.kr,
111311,중랑숲어린이도서관,,131-802,02-490-9113,02-490-9140,서울 중랑구 망우본동 204-1,bgl7407@hanmail.net,
111312,고맙습니다 하난곡작은도서관,,151-022,02-868-8995,,서울 관악구 미성동 597-96,poling79@ga.go.kr,
111313,다사랑작은도서관(보라매동),,151-051,02-876-2879,,서울 관악구 보라매동 661 2층 새마을문고,poling79@ga.go.kr,
111314,서울도서관,,04524,02-2133-0300,02-2133-0392,서울특별시 중구 세종대로 110,indigo23@seoul.go.kr,http://lib.seoul.go.kr/
111315,작은도서관 책읽는 사람들,,132-906,070-8263-2030,,"서울 도봉구 창5동 263-4, 3층 작은도서관 책읽는 사람들",5718605@hanmail.net,
111316,드나드리 마을도서관,,150-844,02-2849-0934,,서울 영등포구 신길4동 209-102호 신길4동 주민센터 3층,canhouse77@nate.com,
111317,대림2동 작은도서관,,150-070,02-832-1215,02-832-1215,서울 영등포구 대림동 705번지,cby440@hanmail.net,
111318,새마을문고성북구지부,,136-060,02-921-4020,,서울 성북구 돈암동 606-275 성북구민회관3층,nami3418@nate.com,
111319,길음1동 새마을문고,,136-110,02-919-6560,02-920-3817,서울 성북구 길음동 1281-7,201204252@sb.go.kr,
111320,성북구 월곡2동 새마을문고회,,136-120,02-957-2901,02-920-3825,서울 성북구 상월곡동 92-22,kyungho7@sb.go.kr,http://www.dong.seongbuk.go.kr
111321,보문동새마을문고,,136-087,02-927-0964,,서울 성북구 보문동7가 108-1 보문동주민센터,syeosa@yahoo.co.kr,
111322,길음2동새마을문고,,136-801,02-985-5742,,서울 성북구 길음2동 1064-1 길음2동주민센터 2층,201103303@sb.go.kr,
111323,돈암2동새마을문고,,136-062,02-926-5671,02-920-3809,서울 성북구 돈암2동 600 돈암2동주민센터,n2215888@sb.go.kr,
111324,장위1동 새마을문고,,136-141,02-941-4761,02-920-3826,서울 성북구 장위1동 225-100,sk49@hanmail.net,http://cafe.daum.net/jangwi1books
111325,래미안석관북카페,,136-728,02-957-2111,,서울 성북구 석관동 래미안석관아파트 (101~114동) 래미안석관 관리동 2층,kjmn66@hanmail.net,
111326,삼선동 새마을문고,,136-044,02-923-8893,,서울 성북구 삼선동4가 349-1,57jinok@hanmail.net,
111327,안암동새마을문고,,136-072,02-927-0685,02-920-3810,서울 성북구 안암동2가 140 안암동주민센터,choonja4898@hanmail.net,http://cafe.daum.net/anamtiger
111328,꿈자람 책 놀이터,,157-775,02-2661-0670,02-2661-0674,서울 강서구 방화2동 방화11단지아파트 내 방화11종합사회복지관 1층 꿈자람 책 놀이터,04011215abc@hanmail.net,http://www.banghwa11.or.kr/
111329,나누리작은도서관,,08574,02-896-7991,,서울특별시 금천구 금하로23길 40 나누리교회 3층 나누리작은도서관,nanuryone@hanmail.net,
111330,장위2동 새마을문고,,136-140,02-942-0672,02-920-3827,서울 성북구 장위2동 69-54,kyilyil@sb.go.kr,
111331,창2동새마을문고(디딤돌 작은도서관),,132-042,02-2289-7595,,서울 도봉구 창2동 632-73 창2동 주민센터 2층,weloveyj@dobong.go.kr,
111332,구민회관 작은도서관,,150-802,02-831-1130,02-2672-9996,서울 영등포구 당산동3가 3번지 구민회관3층,,
111333,정릉1동 새마을문고,,136-101,02-916-8920,,서울 성북구 정릉1동 1020 정릉1동주민센터 내 새마을 문고(2층),ljo6507@hanmail.net,
111334,시냇가에 심은 나무 도서관,,132-032,010-9403-0608,,서울 도봉구 쌍문2동 192-5번지 (3층),angbright@hotmail.com,
111335,곰세마리 어린이 도서관,,02863,02-742-3385,02-742-6488,서울특별시 성북구 삼선교로 54 곰세마리어린이도서관(삼선동3가),ekyeong64@hanmail.net,http://bear.egentouch.com
111336,성북동새마을문고,,136-023,02-747-8110,02-920-3801,서울 성북구 성북동1가 117-1,frenchblue@sb.go.kr,
111337,다슬 도서관,,136-830,02-909-0739,02-6406-0739,서울 성북구 장위2동 74-181,1991dasol@hanmail.net,
111338,양평1동 작은도서관,,150-101,02-3667-9996,,서울 영등포구 양평동1가 211 양평1동사무소 2층 새마을 문고,25soojin@daum.net,
111339,삼선힐스테이트도서관,,136-747,070-7789-4203,,서울 성북구 삼선동2가 삼선힐스테이트아파트 (101~109동),shk-340@hanmail.net,http://삼선힐스테이트.apti.co.kr/
111340,이화마을 작은도서관,,110-500,02-2148-2023,,서울 종로구 이화장길 33 이화동주민센터 2층,jnlibrary@mail.jongno.go.kr,http://lib.jongno.go.kr/
111341,창신1동하람 작은도서관,,110-541,02-2148-2023,02-2148-5821,서울 종로구 창신1동 창신1동 주민센터 2층,jnlibrary@mail.jongno.go.kr,http://lib.jongno.go.kr/
111342,지혜만들기 작은도서관,,110-850,02-2148-2023,02-2148-5821,서울 종로구 효제동 173-2 종로56가동 주민센터,jnlibrary@mail.jongno.go.kr,http://lib.jongno.go.kr/
111343,무악다솜방,,110-813,02-2148-2023,02-2148-5821,서울 종로구 무악동 60-2 무악동주민센터,jnlibrary@mail.jongno.go.kr,http://lib.jongno.go.kr/
111344,성동구립성수도서관,,04778,02-2204-7590,,"서울특별시 성동구 뚝섬로1길 43, 성수문화복지회관 내 7층",a1112@naver.com,www.sdlib.or.kr/ss
111345,쁘레네 작은도서관 별찌 1호,,138-160,02-431-7505,02-431-1355,서울 송파구 가락동 175-8 2층 202호,sucess317@naver.com,http://cafe.naver.com/frenelib
111346,마포 어린이 영어 도서관,,121-040,02-716-3987,02-716-3991,서울 마포구 도화동 357-8번지(2층),mapoelc@gamil.com,http://mapoelc.go.kr
111347,강남구립 도곡정보문화도서관,,06269,02-2176-0782,,서울특별시 강남구 도곡로18길 57,tanoii77@gangnam.go.kr,http://dogoklib.gangnam.go.kr/
111348,창4동마을문고,,132-040,02-2289-7617,,서울 도봉구 창동 33-1(노해로 390) 창4동주민센터 2층,k95108@dobong.go.kr,
111349,유만작은도서관,,132-045,02-2289-7960,,서울 도봉구 창5동 224-41,mbw0615@dobong.go.kr,
111350,창3동 공립 작은도서관,,132-043,02-2289-7604,,서울 도봉구 창3동 462-2 창3동 주민센터,2009112519@dobong.go.kr,
111351,도봉1동 밤골마을 작은도서관,,132-011,02-2289-7970,,서울 도봉구 도봉1동 593-69,phk326@dobong.go.kr,
111352,백합어린이도서관,,04332,02-755-0525,02-756-4792,서울특별시 용산구 후암로15길 19-22,gfriend75@naver.com,http://cafe.naver.com/100kidsbook
111353,단꿈작은도서관,,04335,02-3789-1216,02-3789-1218,서울특별시 용산구 두텁바위로1길 70 (후암동),dankum1216@naver.com,
111354,이레문고,,07958,02-2653-8009,02-2646-0143,서울특별시 양천구 목동중앙남로 57-7 (목동),mdcoc@hanmail.net,
111355,이펜 우리도서관,,158-070,02-2601-0796,,서울 양천구 신정동 신정이펜1로 99,jeon0206@naver.com,
111356,마을문고(그루터기),,158-070,02-2606-0289,,서울 양천구 신정동 신정이펜2로 55 신정이펜하우스 2단지,islee819@hanmail.net,
111357,김수영 문학도서관,,132-835,02-2289-7910,,서울 도봉구 방학3동 해등로32길 80,tnla59@dobong.go.kr,
111358,은행정 책마당,,08028,010-5668-3049,,"서울특별시 양천구 오목로 110, 2층 은행정 책마당 (신월동)",bookmadang@tistory.com,bookmadang.tistory.com
111359,아름다운도서관(도봉구),,132-920,02-904-2642,,서울 도봉구 창2동 629-26 (4층),like0711@naver.com,
111360,종이비행기작은도서관,,158-827,02-3665-5313,,서울 양천구 신월1동 115-18,yesoozoa@yahoo.com,http://cafe.naver.com/paperairl
111361,효창사랑작은도서관,,04312,02-713-2309,02-713-2309,서울특별시 용산구 효창원로 160 (청파동3가),1377jun@daum.net,hyochanglove.modoo.at/
111362,책읽는마을 작은도서관,,08557,02-858-9919,02-856-5024,서울특별시 금천구 독산로74길 31 (독산동),make2121@naver.com,
111363,다시서기문고,,140-801,02-777-5217,02-777-5394,서울 용산구 갈월동 8~28,usagi123@hanmail.net,
111364,작은도서관 꿈꾸는책마을,,04394,02-2199-8708,,"서울특별시 용산구 장문로 95, 보광동주민센터 1층 (보광동)",jmy221990@yongsan.go.kr,
111365,신정이펜한어울터,,08051,02-2604-1185,02-2604-1287,"서울특별시 양천구 신정이펜1로 51, 신정이펜하우스(신정동, 신정이펜하우스4단지)",hanaulta@naver.com,
111366,새재미문고,,153-855,02-896-4571,02-896-4572,서울 금천구 시흥4동 817-1,Kty0128@hanmail.net,
111367,뜰안에도서관,,151-017,02-839-3071,,서울 관악구 난향동 1735-5,poling79@ga.go.kr,
111368,혜화마을 북카페,,110-530,02-2148-5334,02-2148-5852,서울 종로구 혜화동 혜화로 12,jnlibrary@mail.jongno.go.kr,http://lib.jongno.go.kr/
111369,평창동 꿈꾸는 작은도서관,,110-847,02-2148-2023,02-2148-5821,서울특별시 종로구 세검정로 347,jnlibrary@mail.jongno.go.kr,http://lib.jongno.go.kr/
111370,로뎀나무,,122-010,02-375-0025,02-306-5502,서울 은평구 응암동 577-57,semch@chol.com,
111371,창이 작은도서관,,110-837,02-2148-2023,02-2148-5821,서울 종로구 창신길 62,jnlibrary@mail.jongno.go.kr,jnlibrary@mail.jongno.go.kr
111372,청운효자동 북카페,,110-031,02-2148-2023,02-2148-5821,서울 종로구 자하문길 90,jnlibrary@mail.jongno.go.kr,http://lib.jongno.go.kr/
111373,강서 영어도서관,,07740,02-2061-2276,,서울특별시 강서구 곰달래로57가길 26,asell33@hanmail.net,http://lib.gangseo.seoul.kr
111374,복사골 작은도서관,,121-040,02-716-5800,02-716-5665,서울 마포구 도화동 357-8 (3층),mapo.bsg@gmail.com,http://libsmall.mapo.go.kr
111375,청파도서관,,140-896,02-749-5315,02-749-5306,서울 용산구 효창동 5-32,barampark@gmail.com,http://www.yong-san.or.kr
111376,수색장로교회도서관,,122-874,02-304-6111,02-304-2014,서울 은평구 수색동 115-5,opus1111@chol.com,http://susaek.winbook.kr/
111377,서초구립반포도서관,,06599,02-520-8700,02-520-8720,서울특별시 서초구 고무래로 34,reminiscencej@seocholib.or.kr,www.seocholib.or.kr
111378,곰달래도서관,,07781,010-3819-0070,02-2605-3799,"서울특별시 강서구 강서로5길 50 복지문화센터 5, 6층",boil58@hanmail.net,http://lib.gangseo.seoul.kr/
111379,늘솔길 작은도서관,,134-081,02-429-0423,02-441-0363,서울 강동구 고덕1동 670-2 주민자치센터2층 새마을문고,meglaien@hanmail.net,http://cafe.daum.net/gangdongjibu
111380,정릉도서관,,136-706,02-2038-9928,070-4324-5396,서울시 성북구 정릉로 242,maniac798@sb.go.kr,http://jn.sblib.or.kr
111381,홍파랑 북카페,,110-091,02-2148-2023,02-2148-5821,서울 종로구 행촌동 180-10,jnlibrary@mail.jongno.go.kr,http://lib.jongno.go.kr/
111382,참새 작은도서관,,153-751,02-895-8240,,서울특별시 금천구 한내로 69-15(독산동，주공13단지아파트),morning@seoul.go.kr,
111383,미아문화정보도서관,,142-803,02-944-3180,02-944-3189,서울 강북구 미아3동 152∼198,tssyjung@naver.com,http://www.gangbuklib.seoul.kr/
111384,대방해맑은어린이도서관,,156-807,010-3711-3613,,서울 동작구 대방동 23-29 2층 대방해맑은어린이도서관,mildew1@naver.com,
111385,숯고을작은도서관,,151-050,02-876-4083,,서울 관악구 봉천동 1539-1 주민센터 2층,choihee69@ga.go.kr,
111386,파랑새작은도서관,,151-050,02-875-9054,,서울 관악구 봉천동 1712-9 주민센터 2층,choihee69@ga.go.kr,
111387,우리작은도서관(관악구),,151-800,02-588-1331,,서울 관악구 남현동 1086-1 주민센터 2층,choihee69@ga.go.kr,
111388,굴렁쇠작은도서관,,151-891,,,서울 관악구 신림5동 1439-3 주민센터 2층,choihee69@ga.go.kr,
111389,해오름작은도서관,,151-015,02-853-7336,,서울 관악구 신림동 492-4,choihee69@ga.go.kr,
111390,어울작은도서관,,151-015,,,서울 관악구 신림동 1641-65 주민센터 2층,choihee69@ga.go.kr,
111391,울타리작은도서관,,151-015,02-839-1501,,서울 관악구 신림동 1601-3,choihee69@ga.go.kr,
111392,글사랑작은도서관,,151-015,02-884-3951,,서울 관악구 신림동 1694-7 주민센터 2층,choihee69@ga.go.kr,
111393,녹두작은도서관,,151-015,02-872-4765,,서울 관악구 신림동 1516 주민센터 2층,choihee69@ga.go.kr,
111394,상림마을 푸른꿈 문고,,122-736,02-388-5951,02-355-5952,서울 은평구 진관동 은평뉴타운상림마을 608동 1층,pyh7475@hanmail.net,
111395,삼청공원 숲속도서관,,110-701,02-2148-2023,02-2148-5821,서울 종로구 수송동 종로구청,jnlibrary@seoul.go.kr,http://lib.jongno.go.kr
111396,푸르지오책사랑,,135-190,070-8766-4219,02-6204-4500,서울특별시 강남구 자곡로 21 세곡푸르지오아파트 내 작은도서관,hoho0099@naver.com,
111397,공간민들레 청소년도서관,,121-250,02-322-1318,02-6442-1318,서울 마포구 성산동 209-4 2층,mindle00@gmail.com,http://www.flyingmindle.or.kr
111398,숭인마루 작은도서관,,110-862,02-2148-2023,02-2148-5821,서울특별시 종로구 지봉로 86 (숭인동),jnlibrary@seoul.go.kr,http://lib.jongno.go.kr
111399,큰마음 작은도서관,,157-033,02-2600-7448,02-2620-0527,서울 강서구 등촌3동 화곡로63길 96 등촌3동 주민센터 2층,cjo26120@gangseo.seoul.kr,
111400,강서구립 채움 작은도서관(방화2동),,157-853,02-2600-5203,02-2620-0575,서울 강서구 개화동로23길 20 (방화동),onoff2000@hanmail.net,
111401,새싹작은도서관(봉천동),,151-050,02-875-9513,,서울 관악구 봉천동 892-23,choihee69@ga.go.kr,
111402,푸른숲작은도서관(봉천동),,151-050,02-876-4031,,서울 관악구 봉천동 1000 주민센터,choihee69@ga.go.kr,
111403,마루작은도서관,,151-050,02-876-3434,,서울 관악구 봉천동 1670-7,choihee69@ga.go.kr,
111404,우듬지작은도서관,,151-050,02-876-4070,,서울 관악구 봉천동 1624-24,choihee69@ga.go.kr,
111405,책의향기 작은도서관,,151-015,02-830-5312,,서울 관악구 신림동 763-9,choihee69@ga.go.kr,
111406,샛별작은도서관,,151-015,02-876-2063,,서울 관악구 신림동 1528,choihee69@ga.go.kr,
111407,강서구립 도란도란쉼터 작은도서관,,157-806,02-2600-7768,,서울특별시 강서구 허준로 30 (가양동),chkim2010@gangseo.seoul.kr,
111408,중곡제2동주민센터 새마을 금고,,143-222,02-450-1036,,서울 광진구 중곡2동 47-33 중곡제2동주민센터,pgg018@seoul.go.kr,
111409,해다올 작은도서관,,04339,02-792-7783,,"서울특별시 용산구 신흥로 90, 용산2가동주민센터 지하 (용산동2가)",eunjeeyoo@yongsan.go.kr,
111410,강서구립 아리향기 작은도서관(염창동),,157-859,02-2600-7326,02-2620-0519,서울 강서구 염창동 53-1 염창동주민센터 2층,niceofficial@gangseo.seoul.kr,http://lib.gangseo.seoul.kr/small/index.jsp
111411,작은샘 작은도서관,,157-280,070-8733-8591,02-3663-8591,서울 강서구 내발산동 649-7,holy-dklee@hanmail.net,http://cafe.daum.net/JES-sLibrary
111412,강서구립 내발산 작은도서관,,157-280,02-2600-7752,02-2620-0554,서울 강서구 내발산동 648-8,ajg9597@gangseo.seoul.kr,http://cafe.naver.com/soqkftks2012/
111413,상계6.7동빛글북카페,,139-943,02-2116-2852,02-2116-4686,서울 노원구 상계6.7동 722,venuslove@nowon.go.kr,
111414,상계6.7동메아리북카페,,139-943,02-2116-4744,,서울 노원구 상계6.7동 722,venuslove@nowon.go.kr,
111415,한울작은도서관(노원구),,139-209,02-2116-2912,,서울 노원구 상계9동 주민센터 내 2층,2384Yks@naver.com,
111416,맑은누리작은도서관,,153-858,02-2104-5381,02-802-6931,서울 금천구 시흥1동 886-6,jitea63@naver.com,
111417,람원도서관,,157-928,02-2605-2599,,서울 강서구 화곡6동 1133-10,youngwooshin@naver.com,
111418,행복열림북카페,,157-013,02-2969-1945,,서울 강서구 화곡3동 1008-6 발산동 성당,anna0323@hanmail.net,
111419,용산e편한세상 북카페,,140-090,070-8899-8842,,서울 용산구 신계동 48 용산e편한세상 북카페,binsoo21@nate.com,
111420,사근동 어린이놀이터 도서관,,133-817,02-2286-7263,02-2286-5955,서울특별시 성동구 사근동길 45-8 사근동주민센터 2층 어린이놀이터 도서관 (사근동),cowhyun@sd.go.kr,http://sd.go.kr/sd/dong.do?mCode=12E000000000
111421,꿈터작은도서관(서울 강서구),,157-891,02-2600-7515,,서울 강서구 화곡1동 425-4번지 주민센터3층,coco28467@naver.com,http://cafe.naver.com/ggumterbook/
111422,생명가족작은도서관,,136-130,02-916-9193,02-916-9199,서울 성북구 하월곡동 96-113,lifelineseoul@hanmail.net,http://www.lifelineseoul.or.kr/
111423,기쁨이자라는작은도서관,,136-787,02-6083-6747,,서울 성북구 종암동 극동아파트 상가 202호,hy-an@hanmail.net,
111424,성수1가1동나래울새마을문고,,133-819,02-2286-7423,02-2286-5965,서울 성동구 성수1가1동 27-23,lkkkyoo@sd.go.kr,
111425,초록향기 작은도서관,,157-895,02-2600-7474,02-2620-0532,서울 강서구 화곡본동 28~53 46-148 화곡본동 주민센터 2층,lya8918@gangseo.seoul.kr,http://lib.gangseo.seoul.kr/index.jsp
111426,화곡푸르지오도서관,,157-773,02-2691-6104,,서울 강서구 화곡3동 화곡푸르지오 아파트,letterjun@daum.net,
111427,생각열매 작은도서관,,157-840,02-2600-7365,,서울특별시 강서구 공항대로53가길 55 (등촌동),doormoon@gangseo.seoul.kr,
111428,방배마을작은도서관,,137-817,02-522-9526,02-523-9528,서울 서초구 방배2동 437-23 방배마을작은도서관,sbm_book@hanmail.net,www.sonbal.net
111429,청개구리 작은도서관,,153-825,02-857-4183,,서울 금천구 독산3동 969~973,aoj601223@hanmail.net,
111430,한길문고,,157-736,02-3665-8733,02-3664-5123,서울 강서구 염창동 롯데캐슬아파트 (101~105동) 상가 1층,ryeol12@hanmail.net,http://cafe.naver..com/hangilcenter
111431,하계1동 가재울작은도서관,,139-872,02-2116-2562,02-2116-4676,서울 노원구 하계1동 251-2 하계1동주민센터,areum0628@nowon.go.kr,
111432,네이처힐5단지 작은도서관,,06764,02-577-6617,02-577-6618,"서울특별시 서초구 태봉로2길 5, 508동 1층 (우면동, 서초네이처힐5단지)",rlaaudwls0164@naver.com,http;//cafe.naver.com/hillsmalllib
111433,초록길도서관,,122-900,02-357-7279,,서울 은평구 역촌동 58-9 부호아파트상가 1층 2호,africa967@hanmail.net,http://cafe.daum.net/greenwaybooks
111434,금천구립시흥도서관,,08645,010-3661-4025,,서울특별시 금천구 금하로 764,ymj8605@nate.com,http://geumcheonlib.seoul.kr
111435,송파글마루도서관,,05812,02-449-8855,,서울특별시 송파구 충민로 120,inhwanjoe@songpa.go.kr,http://www.splib.or.kr/spjlib
111436,마포구립하늘도서관,,121-711,02-3153-8966,02-3153-8989,서울 마포구 성산2동 마포구청 12층,nan502@mapo.go.kr,http://skylib.mapo.go.kr/
111437,청수도서관,,136-100,02-920-3071,,서울 성북구 정릉동 266-121,maniac798@sb.go.kr,
111438,도림천에서 용나는 작은도서관,,151-015,02-879-5712,,서울 관악구 신림동 1642-7,bechoin79@ga.go.kr,
111439,사당솔밭도서관,,07019,02-585-8411,02-585-8413,서울특별시 동작구 솔밭로 86,kimhg2637@dongjak.go.kr,http://lib.dongjak.go.kr/
111440,도담도담 어린이도서관,,110-550,02-2148-2025,02-2148-5821,서울 종로구 숭인동 750,shahn@mail.jongno.go.kr,http://lib.jongno.go.kr/
111441,아름꿈도서관,,110-550,02-2148-2025,02-2148-5821,서울특별시 종로구 종로58가길 19 (숭인동),shahn@mail.jongno.go.kr,http://lib.jongno.go.kr/
111442,성동구립청계도서관,,04700,02-2204-7540,,"서울특별시 성동구 마장로 141, 왕십리도선동 복합청사 5, 6층",kamapc@naver.com,http://www.sdlib.or.kr/cg
111443,대방어린이도서관,,06945,02-813-6740,02-813-6741,서울특별시 동작구 대방동길 55,enter1984@naver.com,http://lib.dongjak.go.kr/
111444,여의샛강마을도서관,,150-881,02-2629-2226,02-761-0830,서울 영등포구 여의도동 28-1 전국경제인연합회 후생복지동 여의디지털도서관,nunosong@adminydp.bizmeka.com,www.yulib.or.kr
111445,동대문구 답십리 도서관,,130-030,02-2216-9411,02-2216-9413,서울 동대문구 서울시립대로4길 75(답십리동),frmoon@dfmc.kr,http://www.l4d.or.kr/homepage/s.index.php?libCho=MF
111446,휘경 어린이도서관,,130-090,02-2248-1959,02-2248-1969,서울 동대문구 망우로18가길38(휘경동 282-4),hwi1959@naver.com,http://www.l4d.or.kr/ddmeach/index.php?libCho=MJ
111447,청운문학도서관,,110-030,070-4680-4032,,서울 종로구 청운동 4-20,shahn@mail.jongno.go.kr,http://lib.jongno.go.kr
111448,돌마리도서관,,138-190,02-2147-2378,,서울 송파구 석촌동 265(석촌동주민센터 5층),tank38tk@songpa.go.kr,
111450,시연유치원 도서관,,138-170,02-422-4770,,서울 송파구 송파동,siyonyoo@lycos.co.kr,
111451,영광시각장애인모바일점자도서관,,120-819,02-393-4568,02-392-1136,서울 서대문구 북아현로 26-10 1층,ybmbl@naver.com,http://ybmbl@naver.com
111452,구립 은평뉴타운 도서관,,122-200,02-6341-6400,02-6341-6419,서울특별시 은평구 진관2로 111-51 은평뉴타운 도서관 (진관동),song8685@enlib.or.kr,www.enlib.or.kr/
111453,강서구립 가양도서관,,157-200,02-3665-8797,,서울특별시 강서구 양천로61길 101 강서구립 가양도서관 (가양동),libhym@naver.com,
111454,둘리어린이도서관,,132-030,02-990-2200,02-990-8655,서울 도봉구 쌍문동 시루봉로1길 6 둘리뮤지엄,infor@doolymuseum.or.kr,http://www.doolymuseum.or.kr/
111455,성북시각장애인학습지원센터,,136-054,02-923-4555,02-928-6565,서울특별시 성북구 동소문로25가길 20 성북시각장애인복지관 3층 (동선동4가),neogurie@naver.com,http://www.sbstudy.kr
111456,가락몰 도서관,,138-701,02-3435-0950,02-3435-0959,서울특별시 송파구 양재대로 932 가락몰 4층,garaklib@naver.com,www.splib.or.kr/spalib/index.jsp
111457,도봉기적의도서관,,01320,02-3493-7171,,서울특별시 도봉구 마들로 797 도봉기적의도서관,sosrrr@naver.com,
111458,구산동도서관마을,,03414,02-357-0100,02-356-9393,서울특별시 은평구 연서로13길 29-23 구산동도서관마을,sybi2@naver.com,http://www.gsvlib.or.kr
111459,지샘터 올림픽공원도서관,,05540,02-4101-816,,서울특별시 송파구 올림픽로 424 벨로드롬 내 스포츠비즈홀 1층,ehdwn@kspo.or.kr,lib.ksponco.or.kr
111460,성동장애인종합복지관,,04704,02-2290-3110,02-2290-3181,서울특별시 성동구 청계천로 506 성동장애인종합복지관 5층 북카페,happy33@omni.or.kr,http://www.omni.or.kr
111461,양천구 영어특성화도서관,,08094,02-2654-8493,02-2696-4681,서울특별시 양천구 목동동로 81 7층 양천구 영어특성화도서관,spruce76@yfac.kr,https://lib.yangcheon.or.kr/libeng/
111462,마포푸르메어린이도서관,,03918,02-6070-9286,,서울특별시 마포구 월드컵북로 494 마포푸르메어린이도서관,purmelibrary@naver.com,
111463,갈산공공도서관,,08104,02-2649-2735,02-2652-9260,서울특별시 양천구 목동남로4길 48-6,,
111464,월곡꿈그림도서관,,02748,02-6906-9347,,서울특별시 성북구 화랑로13길 17 월곡꿈그림도서관,zone989@sbculture.or.kr,
111465,삼각산어린이도서관,,01071,,,서울특별시 강북구 미아동 813-35,shinhwa2020@gangbuk.go.kr,
111466,서이도서관,,06624,02-3471-1335,,서울특별시 서초구 서초대로70길 51 3층 서이도서관,kyu0105@hanmail.net,
111467,마포중앙도서관,,03965,02-3153-5846,02-3153-5849,서울특별시 마포구 성산로 128,mihye84@mapo.go.kr,
111468,아리랑어린이도서관,,02826,02-6906-9363,,서울특별시 성북구 아리랑로 75 아리랑어린이도서관,hyoju@sbculture.or.kr,https://www.sblib.seoul.kr/arclib/index.do
111469,꿈나래 어린이 영어도서관,,04010,02-323-1840,02-323-1843,서울특별시 마포구 월드컵로13길 80 2층 꿈나래 어린이 영어도서관,rpgusl@mapodream.com,
111470,천호도서관,,05332,02-488-7223,02-488-7225,"서울특별시 강동구 성안로31마길 1, 2층",bomi@gdfac.or.kr,
111471,궁동어린이도서관,,08249,02-2060-8229,,서울특별시 구로구 오리로 1352 궁동어린이도서관,yuyu924@hanmail.net,
111472,송파위례도서관,,05850,02-402-3003,,서울특별시 송파구 장지동 445-1,spwrlib@naver.com,
111473,용산 꿈나무도서관,,04316,02-707-0138,,서울시 용산구 백범로 329 용산 꿈나무종합타운 3층,jiwoo@yongsan.go.kr,
111474,강남구립 못골한옥어린이도서관,,06372,02-2226-5930,,서울특별시 강남구 자곡로7길 3 강남구립못골한옥어린이도서관,jjeh55@hanmail.net,
111475,성북이음도서관,,02848,02-6906-9387,,서울특별시 성북구 보문로 168 12층,kny138@sbculture.or.kr,www.sblib.seoul.kr
111476,서초구립내곡도서관,,06799,0234613007,0234613008,"서울특별시 서초구 청계산로7길 9-20, 서초구립내곡도서관 (신원동)",leed0118@seocholib.or.kr,
111477,서초그림책도서관,,06655,02-3471-0995,02-3471-0998,서울특별시 서초구 서초동 1498-11 A동,2gennie@seocholib.or.kr,http://spublic.seocholib.or.kr
111478,양원숲속도서관,,02062,02-490-9121,,서울특별시 중랑구 송림길 172 (망우동),030048@gw.jungnangimc.or.kr,
111479,강남구립못골도서관,,06373,02-459-5522,02-459-1011,서울특별시 강남구 자곡로 116 강남구립못골도서관,mglib@naver.com,https://library.gangnam.go.kr/mglib
111480,미감도서관,,07958,02-2653-5919,,서울특별시 양천구 목동중앙남로 57-10 목사랑공유센터 3층 미감도서관,jazac09@yangcheon.go.kr,http://www.yangcheon.go.kr/lib
111481,해맞이역사도서관,,08042,02-2699-9223,0226999274,서울특별시 양천구 지양로 37  해맞이도서관 2층 종합자료실,amj2000@yfac.kr,https://lib.yangcheon.or.kr/libsun/
111482,내를 건너서 숲으로 도서관,,03443,02-307-6701,02-307-6703,"서울특별시 은평구 증산로17길 50, 내를건너서숲으로도서관 (신사동)",jsm1023@nslib.or.kr,
111483,명성교회 도서관,,05294,02-440-9140,--,서울특별시 강동구 상암로51길 8 명성교회 도서관,aenylee@naver.com,www.mslib.or.kr
111484,월계어린이도서관,,01884,02-942-3273,--,서울특별시 노원구 월계동 936,wglib@naver.com,
111485,불암도서관,,01731,02-935-0721,02-935-0722,서울특별시 노원구 중계로4길 106 불암도서관,whoismay@nowonlib.kr,http://www.nowonlib.kr/
111486,어린이청소년 국학도서관,,03070,02-2148-2025,--,"서울특별시 종로구 명륜길 26, 5층",shahn@mail.jongno.go.kr,
111487,장위행복누림도서관,,02755,02-6954-7955,--,"서울특별시 성북구 장위로21다길 53, 장위행복누림도서관 (장위동)",acadia8@sbculture.or.kr,www.sblib.seoul.kr
111488,중랑상봉도서관,,02139,02-490-9121,--,서울특별시 중랑구 동일로114길 10 (상봉동),030030@gw.jungnangimc.or.kr,
111489,구로기적의도서관,,08206,010-3794-0536,--,"서울특별시 구로구 구로중앙로40길 24, 구로기적의도서관",guromiracle@daum.net,https://lib.guro.go.kr/
111490,배봉산 숲속 도서관,,02508,02-2127-4700,--,"서울특별시 동대문구 전농로16길 97, 배봉산 숲속 도서관 (전농동)",bfl-bil@dfmc.kr,
111491,구립은뜨락도서관,,03311,02-389-7635,02-389-7638,서울특별시 은평구 통일로 972 구립은뜨락도서관,kangdh134@naver.com,https://www.edlib.or.kr/
111492,성북길빛도서관,,02727,02-6906-9396,--,서울특별시 성북구 숭인로8길 52,chiwn92@sbculture.or.kr,
111493,서초구립양재도서관,,06755,02-3486-4050,02-3486-4060,"서울특별시 서초구 양재천로 33, 서초구립양재도서관 (양재동)",jaeok@seocholib.or.kr,
111494,서울남부교도소,,08367,010-3078-4819,--,"서울특별시 구로구 금오로 867, 서울남부교도소 (천왕동)",paranja@nate.com,
111495,자양한강도서관,,05110,010-3730-8638,02-3437-0165,"서울특별시 광진구 뚝섬로52길 74, 자양한강도서관 (자양동)",tjwn91@naver.com,https://www.gwangjinlib.seoul.kr
111496,쌍문채움도서관,,01450,070-4943-2255,02-998-0917,서울시 도봉구 우이천로 340 쌍문채움도서관,ljh2@dbfac.or.kr,www.unilib.dobong.kr
111497,IT로 열린도서관,,06705,02-3471-3434,02-0955-3434,"서울특별시 서초구 방배로 36, 301호 (방배동)",shw2035@naver.com,www.itlo.org
111498,손기정어린이도서관,,04501,02-2230-2945,--,"서울특별시 중구 손기정로 101, 손기정어린이도서관 (만리동2가)",sylee06973@gmail.com,
111499,성동구립 숲속도서관,,04731,02-2204-6432,--,서울특별시 성동구 옥수동 528-6,ntsltjdus@sdfac.or.kr,
111500,글빛도서관,,02721,02-6906-9256,--,"서울특별시 성북구 길음로7길 20, 서울 성북 미디어문화마루 1,2층 (길음동)",yoojung@sbculture.or.kr,https://www.sblib.seoul.kr
111501,강동구립둔촌도서관,,05368,02-489-6557,02-489-6559,"서울특별시 강동구 동남로49길 21-8, 강동구립둔촌도서관 (둔촌동)",tina99@gdfac.or.kr,http://www.gdlibrary.or.kr/intro/main.do
111502,구립 김영삼도서관,,06919,02-827-0557,02-827-0558,서울특별시 동작구 매봉로 1 (상도1동),seung0911@idfac.or.kr,lib.dongjak.go.kr
111503,서초청소년도서관,,06629,02-3486-9543,02-3486-9548,"서울특별시 서초구 효령로77길 37, 서초청소년도서관 (서초동)",sc2020-@naver.com,https://seocho.seocholib.or.kr/
111504,양천중앙도서관,,08049,02-2699-5919,02-2699-5918,서울특별시 양천구 신정로7길 81,choizzang@yfac.kr,lib.yangcheon.or.kr
111505,평화통일도서관,,07799,02-2085-7330,02-6925-2109,서울시 강서구 마곡서1로 56 남북통합문화센터내,acejoiner@unimail.or.kr,https://unilibrary.unikorea.go.kr
111511,신당누리도서관,,04610,010-9252-3790,,서울특별시 중구 다산로33길 3 신당누리센터 1층 도서관,sj3790@caci.or.kr,
111512,공릉도서관(공릉행복발전소),,01857,02-2116-0705,02-2116-4656,서울특별시 노원구 동일로179길 22,wkdwlsgh0510@nowon.go.kr,hrrp://www.nowonlib.kr
111513,다산성곽도서관,,04602,02-2230-2966,,서울특별시 중구 동호로17길 173 &amp;#40;다산아트공영주차장&amp;#41;,ggulzzang2@naver.com,https://www.e-junggulib.or.kr/SJGL/
111514,마포소금나루도서관,,03965,010-3319-1921,,서울특별시 마포구 성산로 128 4층,rladmsco1921@mapo.go.kr,
111515,김근태기념도서관,,01301,02-956-3100,,서울특별시 도봉구 도봉산길 14,office@geuntae.co.kr,
111516,까망돌도서관,,156-070,070-7204-4257,,서울시 동작구 흑석동 340-1,35triangle@idfac.or.kr,https://lib.dongjak.go.kr
111517,손기정문화도서관,,04501,02-2230-2958,,서울특별시 중구 손기정로 101 손기정문화도서관,myoju1229@naver.com,https://www.e-junggulib.or.kr/SJGL/
111518,일원라온영어도서관,,06346,02.6712.0592,02.445.0850,서울특별시 강남구 영동대로 22 일원스포츠문화센터 지하1층,seonah93@gfac.kr,
111519,하계어린이도서관,,01809,02-979-7644,02-933-2455,서울특별시 노원구 공릉로58가길 13 하계어울림센터 2층 하계어린이도서관,lib2008@nowonlib.kr,http://www.nowonlib.kr
111520,밤동산 마을도서관,,07319,02-849-9716,,서울특별시 영등포구 여의대방로61길 18-2 밤동산 마을도서관,jhahn1276@ydpcf.or.kr,
111521,군자동도서관,,04995,010-4195-5310,02-3437-0165,서울특별시 광진구 면목로 13 군자동복합청사 1층,joliebub@naver.com,https://gwangjinlib.seoul.kr
111522,휘경행복도서관,,02511,02-2127-4321,02-3299-2686,서울특별시 동대문구 장안벚꽃로 323,moonjh1121@ddm.go.kr,
111523,아차산숲속도서관,,04965,010-9174-5698,02-3437-0165,서울특별시 광진구 워커힐로 127 아차산숲속도서관,dudfks9@gwangjin.or.kr,https://www.gwangjinlib.seoul.kr/
111524,원당마을한옥도서관,,01360,02-2091-2273,,서울특별시 도봉구 해등로32가길 17,haru0402@dobong.go.kr,
111525,신대방 누리도서관,,07074,010-4024-9144,,서울특별시 동작구 시흥대로 606 신대방 누리도서관,2020017@idfac.or.kr,https://lib.dongjak.go.kr/dj/index.do
