LIB_CODE,LIB_NAME,DIVISION,ZIP_CODE,TEL,FAX,ADDRESS,E_MAIL,HOMEPAGE,LATITUDE,LONGITUDE
148001,거제도서관,,53257,0556376311,055637-6313,경상남도 거제시 계룡로7길 2,libraian23@naver.com,gjlib.gne.go.kr,34.8789688,128.6228721
148002,거창도서관,,50133,055)944-8594,055)943-6052,경상남도 거창군 거창읍 하동1길 9,gclib84@korea.kr,gclib.gne.go.kr,35.687410400000005,127.91173209223244
148003,경상남도교육청 고성도서관,,52937,0556738461,0556738464,경상남도 고성군 고성읍 동외로195번길 6,iwantu012@korea.kr,http://gslib.gne.go.kr/,,
148004,김해도서관,,50918,055-320-5562,055-320-5574,경상남도 김해시 왕릉길 72,choho3@korea.kr,https://ghlib.gne.go.kr,,
148005,남해도서관,,52427,055)864-0973,055-864-2074,경상남도 남해군 남해읍 화전로43번길 11-3,nhlib4453@korea.kr,nhlib.gne.go.kr,34.8318357,127.8952483
148006,마산도서관,,51334,055-240-4551,055-240-4568,경상남도 창원시 마산합포구 용마산길 12 (산호동),seogunyoun@korea.kr,mslib.gne.go.kr,,
148007,밀양도서관,,50467,055-353-6975,055-356-8048,경상남도 밀양시 삼랑진읍 만어로 7,ynmee@dreamwiz.com,mrlib.gne.go.kr,35.4395148,128.8459692
148008,밀양시립도서관,,50437,055-359-6027,055-359-6032,경상남도 밀양시 중앙로 265,sunori00@korea.kr,http://www.myclib.or.kr/,35.4733777,128.7712199
148009,사천도서관,,52518,055)853-8401,055)853-8406,경상남도 사천시 사천읍 평화2길 21,mogwa63@hanmail.net,salib.gne.go.kr/,,
148010,산청도서관,,666-804,055)973-2544,055)973-2711,경남 산청군 산청읍 꽃봉산로 79번길 45,eyoungp31@naver.com,www.sanlib.or.kr/,,
148011,삼천포도서관,,52553,835-4436,834-8928,경상남도 사천시 삼천포대교로 622,hylibki@empal.com,http://www.scplib.or.kr/,34.9266303,128.0485238
148012,양산도서관,,50617,055)385-7003,055)385-7006,경상남도 양산시 희망1길 25,sky09420@hanmail.net,www.yangsanlib.or.kr/,35.3473843,129.0437239
148013,마산회원도서관,,51324,055-225-7481,055-225-4804,"경상남도 창원시 마산회원구 3·15대로 558, 마산회원도서관 (회원동)",masean19@korea.kr,lib.changwon.go.kr/hw,,
148014,울산남부도서관,,44648,0522597530,0522597579,울산광역시 남구 거마로13번길 6,26000960@use.go.kr,www.usnl.or.kr/,35.5357051,129.2945096
148015,울산동부도서관,,44018,052-236-0465,052-236-0469,울산광역시 동구 봉수로 505,26000965@mail.use.go.kr,www.usdl.or.kr/,35.50668,129.41875
148016,울산광역시남구문화원,,680-030,052-272-3438,,울산시 남구 달동 518-7,1,http://www.ng518.kr/,,
148017,울산중부도서관,,44532,0522106504,0522106565,"울산광역시 중구 시계탑거리 38, 엉터리생고기 2층,3층 울산중부도서관 (성남동)",prowess@use.go.kr,www.usjl.or.kr/,,
148018,울주도서관,,44940,052-255-8166,052-255-8159,울산광역시 울주군 언양읍 언양로 109,uljulib@use.go.kr,www.usul.or.kr/,35.5560847,129.1408332
148019,의령도서관,,52143,055)572-0941,055)573-0890,경상남도 의령군 의령읍 의병로25길 9-8,-,www.urlib.or.kr/main/main.xm,,
148020,진양도서관,,660-843,0557612722,0557619606,경상남도 진주시 문산읍 동부로 588번길 24(진주시 문산읍 삼곡리 640-3번지),jylib272@korea.kr,http://www.jy-lib.or.kr/,,
148021,경상남도교육청 진영도서관,,50864,0553421971,0553421451,경상남도 김해시 진영읍 진영로265번길 9-61,enk11@korea.kr,http://jylib.gne.go.kr/,35.3023895,128.7468081
148022,진주시립 연암도서관,,52786,055-749-5982,055-749-5989,경상남도 진주시 모덕로47번길 13-17 (상대동),pridean@korea.kr,lib.jinju.go.kr,,
148023,진해도서관,,51694,055-225-7511,055-225-4806,경상남도 창원시 진해구 충장로 141,-,lib.changwon.go.kr/jh,35.1529806,128.679332
148024,창녕도서관,,50331,055)532-9506,055)532-9507,경상남도 창녕군 창녕읍 남창녕로 52,chlib12@korea.kr,cnlib.gne.go.kr,35.5339768,128.5023218
148025,창원도서관,,51519,055-278-2871,055-278-2835,경상남도 창원시 성산구 두대로 203,pdcl3738@hanmail.net,cwlib.gne.go.kr,35.2273855,128.6579047
148026,통영도서관,,53077,055-648-8091,055-648-1602,경상남도 통영시 봉수로 37,tylib@korea.kr,tylib.gne.go.kr,34.8262097,128.4157542
148027,하동도서관,,52332,055-884-7981,055-882-5958,"경상남도 하동군 하동읍 경서대로 80, 하동도서관",hdlib@korea.kr,www.hdlib.gne.go.kr/,,
148028,함안도서관,,52043,055)583-6919,055)583-8266,경상남도 함안군 가야읍 함안대로 495,upis70@hanmail.net,hmlib.gne.go.kr,35.2738753,128.4073783
148029,경상남도교육청 함양도서관,,50036,055-963-3186,055-964-0810,경상남도 함양군 함양읍 함양로 1143-1,,hylib.gne.go.kr,35.48075,127.68464
148030,합천도서관,,50238,055)932-0521,055)932-3945,경상남도 합천군 합천읍 동서로 152,tjdrk123@korea.kr,hclib.gne.go.kr,,
148031,대평면새마을문고,,,,,,,,,
148032,경상남도 교육청 남지도서관,,635-903,055)526-1490,055)526-1492,경남 창녕군 남지읍 낙동로 437,ksj9558@korea.kr,https://njlib.gne.go.kr/,,
148033,거제시립장승포 도서관,,53318,055-639-3871,055-639-3879,경상남도 거제시 신부로 36 (장승포동),shinefhd@korea.kr,http://lib.geoje.go.kr,,
148034,진동도서관,,631-815,055)271-0350,055)271-0351,경상남도 창원시 마산합포구 진동면 삼진의거대로 661-94,jindonglib@korea.kr,http://www.jindonglib.or.kr,35.1193137,128.48976008589602
148035,창원중앙도서관,,51434,055-255-7331,055)261-8273,경상남도 창원시 의창구 용호로 50 (반송동),-,www.cwcl.or.kr/,,
148036,경상남도교육청 하남도서관,,50460,055)391-1829,055)391-1848,경상남도 밀양시 하남읍 수산중앙로 63,master@hlib.or.kr,hnlib.gne.go.kr/,35.3748075,128.7103018
148037,마산회원도서관 내서분관,,51224,055)225-7481,055)225-4804,경상남도 창원시 마산회원구 내서읍 삼풍로 79,wingbag@masan.go.kr,http://www.cwcl.or.kr/,35.233655,128.5016491
148038,꿈이랑도서관,,53084,055)643-6494,650-4688,경상남도 통영시 산양읍 둔전길 155,-,www.tongyeonglib.or.kr/library/,,
148039,김해칠암도서관,,50817,055-330-4581,055-330-2919,경상남도 김해시 활천로285번길 14 (삼방동),sjs6069@korea.kr,http://lib.gimhae.go.kr/,,
148040,진주시립서부도서관,,52669,055-749-5983,055-749-5988,"경상남도 진주시 평거로 249, 진주시립서부도서관 (이현동)",pridean@korea.kr,lib.jinju.go.kr,,
148041,양산시립 웅상도서관,,50520,055)386-6603,055)380-4138,경상남도 양산시 웅상대로 1009-2 (주진동),uslib@yscity.or.kr,lib.yangsan.go.kr,,
148042,김해시립장유도서관,,51004,055-330-7451,055-330-6793,경상남도 김해시 대청로176번길 7,sjs6069@korea.kr,http://lib.gimhae.go.kr,35.1909203,128.7977794
148043,마산합포도서관,,51742,055-240-2414,055-225-4803,경상남도 창원시 마산합포구 월영동16길 22 해운동,lyj0201@masan.go.kr,http://www.cwcl.or.kr,,
148044,통영시립욕지도서관,,650-913,055)650-4795,055)650-4796,경남 통영시 욕지면 동항리 787-1,ribba344@nate.com,,,
148045,꿈샘작은도서관,,50963,055-333-2771,055-334-2775,"경상남도 김해시 흥동로 7, 김해중앙교회 꿈샘작은도서관 (풍유동)",cho5100@daum.net,,,
148046,거창군립한마음도서관,,50130,055-940-8470,055-940-3739,경상남도 거창군 거창읍 거열로6길 11,crow1027@yahoo.co.kr,http://library.geochang.go.kr/,35.68908745,127.90377849057066
148047,진주시어린이전문도서관,,660-992,055-749-2495,055-749-2876,경남 진주시 평거동 761,angelsjy@daum.net,http://www.jinjulib.or.kr/,35.1709417,128.0557403
148048,석전2동마을문고,,630-010,055-296-2524,055-253-0637,마산시 석전동 255-6,woodsyeyes@naver.com,,35.2200867,128.5791816
148049,진해기적의도서관,,51595,055-547-0095,055-547-0955,경상남도 창원시 진해구 석동로 70 진해기적의도서관(석동),hsfs1004@hanmail.net,http://www.jhml.or.kr,,
148050,동부도서관,,51604,055-225-7531,055-225-4806,경상남도 창원시 진해구 용재로 66,yakum@korea.kr,http://lib.changwon.go.kr/db,35.1011404,128.8163669
148051,상남도서관,,51500,055)264-2719,055)264-2723,경상남도 창원시 성산구 원이대로 810,gilgang@hanmail.net,www.cwcl.or.kr/,35.211573,128.6969372
148052,고향의봄도서관,,51371,055-225-7371,055-294-7279,경상남도 창원시 의창구 평산로135번길 32,libhss@hanmail.net,http://lib.changwon.go.kr/gh/index_real.php,35.2555963,128.6200493
148053,고성동부도서관,,638-813,055-670-2205,055-670-2209,경남 고성군 회화면 배둔리 468-14,dkdlslemdb@korea.kr,,35.0595118,128.3622526
148054,화정글샘도서관,,621-070,055-330-2971,055-330-2918,경상남도 김해시 삼계중앙로13번길 19,sjs6069@korea.kr,http://lib.gimhae.go.kr/,35.2630239,128.8666613
148055,남해화전도서관,,52419,055-860-3864,055-860-3879,"경상남도 남해군 남해읍 망운로30번길 9, 남해평생학습관(화전도서관)",choi8640@korea.kr,https://lib.namhae.go.kr,,
148056,젤미작은도서관,,621-831,055-313-4149,055-312-0246,경남 김해시 장유면 삼문리 부영그린타운7차아파트 관리소 지하1층,jelmilib@hanmail.net,http://cafe.daum.net/jelmilib,,
148057,시호미래작은도서관,,621-871,055-346-7274,,"경상남도 김해시 한림면 한림로641-22, 시호복지회관 2층",hr3801@hanmail.net,http://lib.gimhae.go.kr,,
148058,캐슬작은도서관,,621-020,055-334-4822,,"경남 김해시 가야로451번길 9, 관리동 2층(동상동, 롯데캐슬1단지 아파트)",ondol1970@hanmail.net,http://lib.gimhae.go.kr,,
148059,덕산작은도서관(김해),,621-775,070-7760-0775,,"경상남도 김해시 함박로119번길 6, 관리동 2층(외동, 덕산아파트)",ranghae9421@hanmail.net,http://lib.gimhae.go.kr,,
148060,하늘빛작은도서관,,621-727,055-314-3601,,경남 김해시 구산동 구지마을동원아파트 복리동지하1층,mshong3@gimhae.go.kr,,,
148061,월산주공작은도서관,,621-833,055-311-0261,,경남 김해시 장유면 부곡리 805-1 월산주공11단지 관리동 2층,mshong3@hanmail.net,http://lib.gimhae.go.kr,,
148062,장유대우작은도서관,,50998,055-312-4489,,"경상남도 김해시 팔판로 71, 복리동 2층 (관동동, 팔판마을5단지푸르지오아파트)",librarydw2017@hanmail.net,http://lib.gimhae.go.kr,,
148063,대동한마음작은도서관,,621-090,055-326-7760,055-904-9963,"경상남도 김해시 함박로101번길 19, 관리동 2층(외동, 대동아파트)",hyang9149@hanmail.net,http://lib.gimhae.go.kr,,
148064,불암동작은도서관,,621-210,055-336-7879,,경남 김해시 불암동 220-259 선암마을회관 3층,mshong3@hanmail.net,http://lib.gimhae.go.kr,,
148065,삼계푸르지오작은도서관,,621-070,055-339-7870,,"경상남도 김해시 가야로 19, 관리동 2층 (삼계동, 분성마을5단지푸르지오아파트)",ondol1970@hanmail.net,http://lib.gimhae.go.kr,,
148066,진례작은도서관,,621-883,055-345-4277,,경상남도 김해시 진례면 송현로21-1,yoois67@hanmail.net,http://lib.gimhae.go.kr,,
148067,대포천작은도서관,,621-812,055-323-8766,,경상남도 김해시 상동면 장척로756번길 6,nene-1234@hanmail.net,http://lib.gimhae.go.kr,,
148068,비봉 어린이도서관,,660-200,055-749-2490,,경남 진주시 옥봉동 397-3,na-nahyeon@hanmail.net,http://www.jinjulib.or.kr,35.1960521,128.0943519
148069,생각이크는작은도서관,,621-807,055-346-4406,,"경상남도 김해시 진영읍 김해대로361번길 31, 관리동 지하1층(진영자이아파트)",iyessir@naver.com,http://lib.gimhae.go.kr,,
148070,책고래작은도서관,,621-831,055-330-6683,,경남 김해시 장유면 삼문리 1333 장유e편한세상@ 관리동 3층,mshong3@hanmail.net,,,
148071,김해청소년문화의집,,621-900,055-330-6683,,경남 김해시 구산동 93-4,mshong3@gimhae.go.kr,http://ghyouth.or.kr/,,
148072,마산시 우리누리 청소년문화센터,,630-520,055-220-6727,055-245-9179,경남 마산시 합성동 91-3,master@masan.go.kr,http://www.urinuri.go.kr,,
148073,마산시립도서관 중리초등학교 복합시설 도서관,,630-856,055-225-7492,055-225-4804,경상남도 창원시 마산회원구 내서읍 삼풍로 79,sizzmine@korea.kr,http://www.cwcl.or.kr/2010/lib/jungri/main/main.php,35.233655,128.5016491
148074,팔판작은도서관,,621-831,055-312-9822,,경남 김해시 장유면 관동리 448-1 팔판마을부영3단지,palpan9822@hanmail.net,http://cafe.daum.net/vkfvks/,,
148075,글혜윰작은도서관,,621-807,055-342-0674,,"경상남도 김해시 진영읍 김해대로361번길 34, 관리동 2층(김해진영코아루아파트)",hee6380@hanmail.net,http://lib.gimhae.go.kr,,
148076,우리작은도서관(김해),,621-722,055-312-3342,,경남 김해시 장유면 삼문리 부영그린타운아파트,kms3123342@naver.com,,,
148077,석봉마을작은도서관,,621-713,055-330-6683,,경남 김해시 장유면 무계리 대동아파트,keys@korea.kr,http://cafe.daum.net/seokbong.co.kr/,,
148078,대동푸른뜰 작은도서관,,621-891,070-8883-4883,055-335-4883,"경상남도 김해시 대동면 동남로41번길 13-11,  대동복지회관 1층",egg9123@hanmail.net,http://lib.gimhae.go.kr,,
148079,한신책사랑작은도서관,,621-779,055-337-5151,,"경상남도 김해시 분성로48번길 16, 관리동 2층(외동, 한덕한신타워아파트)",applejjs@naver.com,http://lib.gimhae.go.kr,,
148080,뜨란채작은도서관,,621-922,055-336-1250,,"경상남도 김해시 우암로36, 관리동 2층(외동, 뜨란채아파트)",gomi08@naver.com,http://lib.gimhae.go.kr,,
148081,이안나누리작은도서관,,621-070,070-8168-0648,055-313-0647,경남 김해시 삼계동 610 삼계이안아파트주민공동시설,wizme1109@hanmail.net,,,
148082,삼계로얄작은도서관,,50897,055-311-2151,055-311-2151,"경상남도 김해시 가야로 60, 관리동2층 삼계로얄작은도서관 (삼계동, 분성마을동원로얄듀크아파트)",royallibrary@naver.com,,,
148083,분성IPARK작은도서관,,621-770,055-330-6683,,경남 김해시 삼계동 분성마을아이파크아파트,keys@korea.kr,,,
148084,진영한빛도서관,,621-805,055-330-4831,055-330-6786,경상남도 김해시 진영읍 김해대로 440,gimhaelib@korea.kr,http://lib.gimhae.go.kr,35.3045341,128.713225
148085,김해글로벗도서관,,621-030,055-338-1616,,"경상남도 김해시 가락로81, 아이조이빌딩 6층(서상동) 김해 외국인근로자지원센터",good529@naver.com,http://lib.gimhae.go.kr,,
148086,도동어린이도서관,,660-330,055-749-2491,,경남 진주시 하대동 139-43,cecily21@naver.com,http://www.jinjulib.or.kr,35.1920314,128.1162152
148087,내외작은도서관,,621-080,055-337-0050,055-338-4579,"경상남도 김해시 금관대로 1255, 내외문화의집 1층(내동)",bulddukii@naver.com,lib.gimhae.go.kr,,
148088,반딧불이작은도서관(경남),,641-873,055-298-6588,055-299-8980,경남 창원시 북면 신촌리 956-4,seolguisuk@nate.com,,,
148089,거제시립옥포도서관,,656-130,055-639-8250,,경남 거제시 옥포동 1291-1번지 거제시립옥포도서관,sfraise@hanmail.net,http://www.okpolib.go.kr/,,
148090,책사랑 작은도서관(경남),,638-832,055-672-2055,055-672-2055,경남 고성군 거류면 당동리 76-2,328hyeonju@hanmail.net,,,
148091,소리 작은도서관,,621-030,055-314-3657,,"경상남도 김해시 가락로94번길7, 동상동 및 중앙상점가 고객쉼터 2층(서상동)",sori2750@daum.net,http://lib.gimhae.go.kr,,
148092,희망 작은도서관,,667-831,055-880-2364,055-880-2369,경남 하동군 적량면 동산리 546,koreachea@korea.kr,,,
148093,주님의교회도서관,,641-200,055-277-3152,,경남 창원시 대원동 96-5,uni302@naver.com,,,
148094,리첼작은도서관,,621-831,055-330-6683,,경남 김해시 장유면 관동리 1051 세영리첼아파트 관리동 지하1층,keys@korea.kr,,,
148095,일동한신꿈나무작은도서관,,621-777,055-322-4141,,"경상남도 김해시 분성로 14, 복리동 2층(외동, 일동한신아파트)",sensoon@hanmail.net,http://lib.gimhae.go.kr,,
148096,U.보라작은도서관,,621-100,055-324-3335,055-324-3335,경남 김해시 전하로 176번길 71 반도보라 관리동2층,keys@korea.kr,,,
148097,떡갈나무숲작은도서관,,621-834,055-903-3006,,경남 김해시 장유면 율하리 1403 휴먼시아아파트 떡갈나무숲작은도서관,keys@korea.kr,http://cafe.naver.com/forestlibrary/,,
148098,주촌디딤돌작은도서관,,50968,055-329-0079,0504-027-4713,경상남도 김해시 주촌면 서부로1637번길 15,juchonlib@naver.com,http://lib.gimhae.go.kr,35.2607112,128.8138046
148099,활천행복작은도서관,,621-913,055-330-6683,,경남 김해시 삼정동 660-6 활천동주민센터 2층,keys@korea.kr,-,,
148100,통영시립도서관,,53035,055-650-2630,,경상남도 통영시 무전3길 29,ghj0310@korea.kr,www.tongyeonglib.or.kr/,34.8612826,128.4249724
148101,홈플러스김해점 e파란작은도서관,,,055-320-8104,055-320-8106,경남 김해시 내동 1131-2번지,elisabet80@samsung.tesco.com,,,
148102,다숲 작은도서관,,626-705,055-365-2950,011-592-9004,경남 양산시 소주동 대동아파트 관리소3층,insgreen@yahoo.co.kt,http://cafe.daum.net/dasooplibrary/,,
148103,우남작은도서관,,626-791,070-8166-6108,055--365-6109,경남 양산시 물금읍 범어리 우남퍼스트빌아파트 주민편의실내,pkink@hanmail.net,,,
148104,동면극동 작은도서관,,626-821,055-383-5789,,경남 양산시 동면 석산리 극동아파트 내,moi1101@hanmail.net,,,
148105,쌍용하늘작은도서관,,626-765,055-910-3034,055-363-3037,경남 양산시 남부동 쌍용아파트 관리동 2층,jien427@naver.com,,,
148106,청어람아파트 새마을문고,,626-785,055-366-8831,055-363-8203,경남 양산시 남부동 롯데청어람아파트 관리동 지하,kes9665@hanmir.com,,,
148107,신기주공 작은도서관,,50574,055-389-0068,,"경상남도 양산시 신기서길 23, 관리사무소 3층 (신기동, 양산신기주공아파트)",yangsandaek@hanmail.net,,,
148108,동무동무씨동무 작은도서관ⓧ,,626-772,055-386-1366,055-386-1366,"경남 양산시 물금읍 목화로 43-1, 201호",roakdch@empal.com,,,
148109,대석햇살작은도서관,,626-853,055-374-8331,055-374-7331,경남 양산시 상북면 대석리 808번지 대석휴먼시아A 관리동2층,andz49@naver.com,,,
148110,경남아너스빌 작은도서관,,626-763,070-8167-7990,070-8167-7990,경남 양산시 남부동 608-1번지 경남아너스빌 선큰3 지하층,kabapt@hanmail.net,,,
148111,웅상푸르지오한마음문고,,626-723,055-362-2855,055-362-2856,경남 양산시 삼호동 웅상신도시푸르지오아파트 관리사무실복리동1층,yj70010@yahoo.co.kr,,,
148112,글마루작은도서관(양산),,626-793,055-910-8022,055-387-0808,경남 양산시 물금읍 범어리 e편한세상2차아파트 101-115,kisi222@empal.com,http://cafe.daum.net/geulmarulib,,
148113,대동작은도서관,,626-758,055-382-2009,055-383-2503,경남 양산시 중부동 대동아파트 관리실,hkhs99@hanmail.net,,,
148114,백년가약작은도서관(경남),,626-795,055-910-5114,055-366-3726,경남 양산시 물금읍 범어리 효성백년가약아파트 101-113 주민공동시설,planet70@naver.com,http://cafe.daum.net/100yearsapt,,
148115,한일양지뜸작은도서관,,626-320,055-364-2260,055-364-0477,경남 양산시 평산동600 한일유엔아이아파트 관리동4층,sujin7517956@naver.com,,,
148116,e-편한작은도서관,,626-706,055-386-1170,055-386-1170,경남 양산시 남부동 e-편한세상1차아파트 선큰광장내,1939kkk@hanmail.net,,,
148117,반도유보라문고,,626-792,055-381-3660,055-367-3660,경남 양산시 물금읍 범어리 반도보라빌아파트내 복리동 반도유보라문고,qksehansrh@hanmail.net,,,
148118,코아루작은도서관,,626-736,055-388-4105,,경남 양산시 평산동 코아루아파트 1199번지 108동 1층 공동주민시설내 코아루작은도서관,,,,
148119,양산종합사회복지관행복한도서실,,626-813,055-365-9544,055-364-9545,경남 양산시 물금읍 범어리 501번지 양산시종합사회복지관,5757697@hanmail.net,,,
148120,성산도서관,,51472,055-225-7391,055-225-4801,경상남도 창원시 성산구 외리로 47,capig@korea.kr,http://www.cwcl.or.kr,35.2010199,128.7083988
148121,생림작은도서관,,50801,055-330-8712,,경상남도 김해시 생림면 봉림로 40 복지회관,madkwang@korea.kr,,,
148122,양산시립 중앙도서관,,50601,055-392-5900,055-392-5919,경상남도 양산시 물금읍 청룡로 11,ansewo@korea.kr,lib.yangsan.go.kr/,35.3249735,128.9978673
148123,푸른마을도서관,,660-300,011-9505-4801,,경남 진주시 가좌동 573-1 주공그린빌 복지동,,,,
148124,다니엘도서관,,660-310,055-759-9639,,경남 진주시 호탄동 619-11,,,35.1614422,128.1214582
148125,가호동새마을문고,,660-761,010-3552-4256,,경남 진주시 가좌동 660 가좌주공아파트 관리동,,,,
148126,위브글마루도서관,,660-921,055-756-2324,,경남 진주시 금산면 장사리 705,,,,
148127,가좌3주공작은도서관,,660-300,070-8988-9218,,경남 진주시 가좌동 주공3차아파트,palmi@hanmail.net,,,
148128,꿈꾸는도서관(경남 진주),,660-812,010-2773-0906,,경남 진주시 나동면 독산리 1104,,,,
148129,초전푸르지오1단지도서관,,660-360,055-763-3597,,경남 진주시 초전동 1640-1 초전1차푸르지오 문고,,,,
148130,하늘소작은도서관,,660-040,010-2511-7760,,경남 진주시 봉곡동 22-1,,,35.1943543,128.0748438
148131,꿈이있는도서관(진주),,660-322,019-361-8291,,경남 진주시 상대2동 180-12,,,,
148132,봉안동새마을문고,,660-040,055-749-2642,,경남 진주시 봉곡동 6-25,,,35.1943543,128.0748438
148133,상봉동새마을문고,,52748,055-749-2644,055-749-0938,경상남도 진주시 비봉로85번길 12 (상봉동),cho1940@naver.com,,,
148134,상봉동 자율방범대문고,,660-900,055-743-4140,,경남 진주시 상봉동동 1423-1,,,,
148135,상봉동봉원새마을문고,,660-050,055-742-0324,,경남 진주시 상봉동 1446 주공2차아파트,,,,
148136,상봉2동 새마을문고(진주시),,660-050,055-741-8919,,경남 진주시 상봉동 811-4,,,35.2035062,128.0727283
148137,상대1동 새마을문고,,660-320,055-749-2652,,경남 진주시 상대동 244-18,,,35.1827632,128.113519
148138,상대1동새마을문고(현대분소),,660-763,055-758-2691,,경남 진주시 상대1동 472 상대현대아파트 관리사무소 2층,,,,
148139,상대2동 새마을문고,,660-320,055-746-2654,,경남 진주시 상대동 331-6 상대2동 주민센터 내,,,,
148140,하대1동 새마을문고,,660-997,011-9515-5272,,경남 진주시 하대1동 344-45,,,,
148141,진주여성회 부설 달팽이어린이도서관,,660-330,055-761-9720,,경남 진주시 하대동 113-5,,,35.1920314,128.1162152
148142,진주시새마을문고정촌지회(정촌글샘),,660-821,011-557-9919,,경남 진주시 정촌면 화개리 976 정촌면사무소 2층,,,,
148143,사봉글사랑문고,,660-882,055-754-3741,,경남 진주시 사봉면 봉곡리 929,,,,
148144,대곡면새마을문고,,660-912,016-548-1815,,경남 진주시 대곡면 광석리 361-3,,,,
148145,금빛마을 작은 도서관,,660-921,055-762-5815,,경남 진주시 금산면 장사리 흥한골든빌아파트 관리동 2층,,,,
148146,금산면아이파크새마을문고,,660-921,070-8291-1915,,경남 진주시 금산면 장사리 금산아이파크아파트 965-1 아이파크 관리동,,,,
148147,집현면새마을문고,,660-931,010-8301-0074,,경남 진주시 집현면 봉강리 현대아파트 금빛마을현대아파트,,,,
148148,대평면새마을문고,,660-962,010-845-9099,,경남 진주시 대평면 대평리 517-15,,,,
148149,주약현대아파트 마을도서관 다락,,660-771,010-6295-5126,,경남 진주시 주약동 주약현대아파트 관리소 2층,,,,
148150,망경한보 도담작은도서관,,52712,010-7159-5231,,"경상남도 진주시 망경로 234-5 (망경동, 망경한보타운)",,,,
148151,강남동 새마을문고,,660-250,055-749-2634,,경남 진주시 강남동 98,,,35.1836082,128.0876912
148152,디딤돌문고,,660-260,017-553-6754,,경남 진주시 망경동 34-3,,,35.1815677,128.0813727
148153,이반성면 새마을문고,,660-871,055-746-2612,,경남 진주시 이반성면 가산리 788,,,,
148154,중앙성결문고,,660-010,055-742-8296,,경남 진주시 중안동 202 중앙성결교회,,,,
148155,제자교회 부설 예닮작은도서관,,660-330,055-753-7156,,경남 진주시 하대동 101 현대아파트 상가 지하 104,,,,
148156,상평동 새마을문고,,660-904,016-830-9209,,경남 진주시 상평동 221-23 상평동주민센터 내,,,,
148157,한우리독서문화원,,660-908,018-763-0774,,경남 진주시 신안동 581-7,,,35.1823174,128.0684971
148158,신안주공1차아파트 새마을문고,,660-100,055-748-2495,,경남 진주시 신안동 708-1 신안주공1차아파트,,,,
148159,평거동 새마을문고,,660-992,055-749-2664,,경남 진주시 평거동 764(신안동 419-4번지),,,,
148160,이현웰가 새마을문고,,660-080,055-742-6611,,경남 진주시 이현동 이현하이클래스웰가아파트 1180 이현웰가 복지동,,,,
148161,참좋은작은도서관,,660-320,055-763-6677,,경남 진주시 상대동 33-119,,,35.1827632,128.113519
148162,웅상신원아침도시작은도서관,,626-300,055-366-0391,055-366-0393,경남 양산시 주남동 55-1 웅상신원아침도시 종합복지관 지하1층,hann0410@nate.com,,,
148163,디딤돌작은도서관,,626-764,055-388-5455,055-388-5455,경남 양산시 남부동 주공아파트8단지 내,kyung680128@hanmail.net,http://cafe.daum.net/didimdoolsmallibrary/,,
148164,한내들 작은도서관,,626-730,055-363-5515,055-363-5515,경남 양산시 삼호동 유승한내들아파트 101-110 관리동 2층,jhs3050@nate.com,,,
148165,신창비바패밀리작은도서관,,626-814,055-362-1248,055-383-1250,경남 양산시 물금읍 범어리 2713-1 신창비바패밀리아파트 관리동2층,sul2332@hanmailnet,,,
148166,황전새마을문고,,626-773,055-385-3149,055-385-3149,경남 양산시 물금읍 범어리 황전아파트,guma1965@naver.com,,35.3263022,128.9988509046716
148167,행복미소작은도서관,,52249,055-970-7449,,경상남도 산청군 신안면 원지로4번길 8 행복미소작은도서관,kheraq@naver.com,,,
148168,남산평생교육센터,,641-801,055-282-9605,055-282-9606,창원시 성산구 가음동 42-1 남산복지회관 2층,"wjdgml1016@naver.com, 김유순  kys609@hanmail.net",http://gnwomen.com/,,
148169,사천시어린이도서관,,664-701,055-831-2585,055-831-6021,경남 사천시 사남면 조동길 49-28,dggki1975@korea.kr,elc.sacheon.go.kr/,,
148170,글밭작은도서관,,656-934,055-638-2019,055-637-8148,경남 거제시 고현동 769-1 거제시여성회관,yy8996@yahoo.co.kr,http://www.geojewoman.or.kr,,
148171,선비마을작은도서관,,666-934,055-974-0190,055-974-0199,경남 산청군 시천면 사리 900-34,ein2u@naver.com,,35.29712,127.8493
148172,공감마루,,667-804,055-883-1118,055-884-6001,경남 하동군 하동읍 읍내리 272번지,bananabang@naver.com,http://www.gnpoliec.go.kr/hd/,,
148173,남부면작은도서관,,656-843,055-639-4144,055-639-3664,경남 거제시 남부면 저구리 70,pas4587@yahoo.co.kr,,34.7146393,128.58590942216784
148174,작은도서관 책보따리,,52305,055-884-4192,,경상남도 하동군 악양면 악양서로 384 작은 도서관 책보따리,miru0923@hanmail.net,htt://cafe.daum.net/chackBo,,
148175,모오리돌 작은도서관,,53310,055-682-4950,055-681-0127,"경상남도 거제시 탑곡로 75, 거제시근로자가족복지회관 (아주동)",gujeywca@hanmail.net,http://www.gjywca.or.kr,,
148176,휴먼빌둥지작은도서관,,626-794,055-385-5310,055-362-5311,경남 양산시 물금읍 범어리 일신휴먼빌아파트 내,rudwo79@hanmail.net,rudwo79@hanmail.net,,
148177,거제새마을중앙문고,,656-931,055-637-0185,055-635-5505,경남 거제시 고현동 158-1(공공청사3층),jayeon7@nate.com,,,
148178,지리산반달작은도서관,,667-821,055-884-1979,055-880-2369,경남 하동군 화개면 대성리 1389-2,koreachea@korea.kr,http://hadong.libekas4.net/,35.28828,127.65075
148179,고맙습니다물구나무작은도서관,,626-836,055-366-2121,,경남 양산시 삼호동 535-10,hjoo0403@naver.com,,,
148180,김해기적의도서관,,621-834,055-330-4651,055-330-6795,경상남도 김해시 율하1로 55,timetowin@korea.kr,http://lib.gimhae.go.kr,35.1746699,128.8089927
148181,삼가지역아동센터문고,,678-961,055-931-2131,055-931-2131,경남 합천군 삼가면 금리 627-3,nongchon47@daum.net,,,
148182,함안군립 칠원도서관,,52017,055-580-3647,055-580-3649,경남 함안군 칠원읍 원서로 56,ggaeng0604@korea.kr,http://chilwonlib.haman.go.kr/,35.304889349999996,128.51549081093614
148183,자여마을도서관,,641-863,055-291-0124,055-291-0125,경남 창원시 동읍 송정리98-21자여민원센터2층,maryong1226@naver.com,,,
148184,거제시립장평도서관,,656-927,055-639-3861,055-639-3869,경남 거제시 장평동 174번지(장평3로 10),minseok2@korea.kr,https://lib.geoje.go.kr/index.php,,
148185,봉우별떨기작은도서관,,626-756,055-367-3046,055-367-3046,경남 양산시 평산동 봉우아파트 568,tonga30027@hanmail.net,,35.386256149999994,129.1426898299629
148186,꿈터 작은도서관(경남 양산시),,626-110,055-363-3865,,경남 양산시 북정동 새롬성원 네오파트 주민공동시설 2층,neoapt2009@naver.com,,,
148187,합성 가고파 작은도서관,,630-816,055-253-5583,055-225-4939,경남 창원시 마산회원구 합성서 3길 21 합성1동주민센터 2층,jumwoo@korea.kr,,,
148188,용지작은도서관,,641-041,055-261-8477,055-261-6967,경남 창원시 용호동62-2 용지주민센터3층 용지평생교육센터(작은도서관),kgr9324@hanmail.net,http://www,,
148189,창원시아이세상장난감도서관,,645-140,055-541-1911,055-541-1913,경남 진해시 통신동 2-2번지,ljflower@hanmail.net,http://cafe.daum.net/toylib,,
148190,천주평생교육센터,,641-490,055-299-3407,055-299-3401,경남 창원시 동정동 250,skh1418@naver.com,http://changwon.go.kr,35.238234,128.5902771243031
148191,밀알공부방 문고,,676-813,055-962-1355,0303-0120-1355,경남 함양군 수동면 화산리 1251-9,maai1355@hanmail.net,,,
148192,함양경찰서 새마을문고,,676-806,055-960-1321,055-963-5847,경남 함양군 함양읍 운림리 46-3,barian@hanmail.net,http://www.gnpolice.go.kr/hy/,,
148193,이미지작은도서관,,630-782,055-294-9537,055-294-9537,경남 마산시 내서읍 삼계리 삼계대동이미지2차아파트 2단지관리소내,su6590@naver.com,,,
148194,메트로자이아파트 작은도서관,,637-708,055-587-5810,055-055-055,경남 함안군 칠원면 오곡리 광려천메트로자이아파트 101-122,csj1191@nate.com,,,
148195,남양마을도서관,,641-754,055-275-0307,055-275-0307,경남 창원시 남양동 피오르빌아파트 복지동 3층,mcwlnamyang@hanmail.net,,,
148196,책사랑회내서마을도서관,,630-786,055-297-4724,0303-0297-4724,경남 마산시 내서읍 호계리 코오롱타운관리동3층,joo8079@hanmail.net,,,
148197,화성파크드림작은도서관,,626-250,055-386-9885,055-362-4088,경남 양산시 명동 1080-7 화성파크드림센터 2층,kih55416@hanmail.net,,,
148198,안민마을도서관,,641-150,055-281-5520,055-281-5520,경남 창원시 안민동 261-5 안민복지회관2층 도서관,rhrtjs1409@naver.com,,,
148199,성주마을도서관,,641-120,055-286-5506,055-282-9584,경남 창원시 성주동 59-1 성주동주민센터 2층 성주평생교육센터,hjs0106@hanmail.net,,,
148200,하늘채문화의집,,630-787,055-292-0484,055-292-6855,경남 마산시 내서읍 호계리 코오롱하늘채2차아파트 관리사무소2층문화의집,gymommy@hanmail.net,,,
148201,함안주공새마을작은도서관,,637-803,055-584-1101,055-584-9333,경남 함안군 가야읍 도항리 307 주공@ 그린시설 내,apwhd5944@hanmail.net,,,
148202,함안군새마을작은도서관,,637-803,055-583-3217,055-584-9333,경남 함안군 가야읍 도항리 121-1 새마을운동함안군지회 사무실내,dso1175@hanmail.net,,,
148203,숲속마을도서관,,630-852,055-252-0882,055-252-0882,경남 마산시 내서읍 삼계리 숲속3주공 복지관 2층,junz2068@naver.comhttp://cafe.daum.net/soop-library,,,
148204,사랑방문고,,636-804,055-573-2648,055-573-2641,경남 의령군 의령읍 하리 432-3번지 덕실교회,idsangwon@hanmail.net,,,
148205,창원시평생학습시설신월평생교육센터,,641-838,055-287-0667,055-287-0602,경남 창원시 신월동 68-5,1004aeja@hanmail.net,http://www.chwhotine.or.kr,35.19236,128.55894
148206,책동이마을문고,,636-821,055-572-1515,,경남 의령군 가례면 운암리 822-1,gkh9080@hanmail.net,,,
148207,창원시소계평생교육센터,,641-480,055-297-3452,055-295-3452,경남 창원시 소계동 714-8번지 소계민원센터 2층,sunhej80@hanmail.net,,,
148208,글 고은 작은 도서관ⓧ,,626-821,070-7350-8582,055-385-8582,경남 양산시 동면 석산리 699-3 석산해강아파트 101동 1~2라인앞,wndlf7765@naver.com,,,
148209,여울목 의탄 문고,,676-913,055-962-5665,055-962-5664,경남 함양군 마천면 의탄리 804,khc0191@naver.com,,,
148210,갑을동산문고,,636-822,055-574-1537,,경남 의령군 가례면 개승리 565-1번지,jho0907@naver.co.kr,,,
148211,옥포작은도서관,,656-907,0556807021,055-639-8153,경남 거제시 옥포동 옥포대첩로 84(옥포2동 660-4),xkimh2@naver.com,www.okpowelfare.or.kr/,,
148212,보름달 작은 도서관,,678-883,055-931-9106,,경남 합천군 야로면 월광리 101,guz70@naver.com,,,
148213,꿈꾸는도서관(경남 합천),,678-971,055-931-8230,055-931-8205,경남 합천군 가회면 덕촌리 439-12 2층,dg0925@hanmail.net,,,
148214,혜윰문고,,,055-758-8950,,,phk9804@hanamil.net,,,
148215,행복한 아이터,,678-893,010-6271-7235,055-932-8232,경남 합천군 가야면 매안리 513,경남 합천군 가야면 매안리 513,,,
148216,중앙평생교육센터,,641-844,055-263-4511,055-263-4512,경남 창원시 중앙동 66-1,sjh10042002@hanmail.net,http://www.kisingo.or.kr/,35.1491405,128.6616164
148217,샛별문고,,678-862,055-931-3131,,경남 합천군 덕곡면 장리 760번지(구 덕곡중학교),jesuagape@yahoo.co.kr,,,
148218,의창평생학습센터,,641-520,055-296-5604,055-288-0047,경남 창원시 북동 260번지,icsh1214@hanmail.net,http://www.kisingo.or.kr,,
148219,만산솥바위문고,,636-801,010-2712-7569,,경남 의령군 의령읍 정암리 275-5,39kyu@hanmail.net,,,
148220,웅남마을도서관,,641-370,055-286-5666,,경남 창원시 신촌동14번지 웅남동주민센터3층 마을도서관,ysun5739@hanmail.net,,,
148221,휴먼시아새마을작은도서관,,676-801,055-962-3736,,경남 함양군 함양읍 교산리 휴먼시아아파트 새마을작은도서관,ssggs37@hanmail.net,,,
148222,지리산(군부대)새마을작은도서관,,676-805,011-1752-9393,,경남 함양군 함양읍 용평리 8962부대,ssggs37@hanmail.net,,,
148223,서하면새마을작은도서관,,676-832,055-962-3736,,경남 함양군 서하면 송계리 서하면새마을작은도서관,ssggs37@hanmail.net,,,
148224,새마을자동차학원작은도서관,,676-806,055-962-3736,,경남 함양군 함양읍 이은리 1139-95 새마을자동차학원작은도서관,ssggs37@hanmail.net,,,
148225,반지평생교육센터(반지마을도서관),,641-820,055-238-7068,055-238-7067,경남 창원시 반지동 50~119,wjd3221@naver.com,http://cafe.daum.net/banji.s.e.c,35.248350200000004,128.67521344186662
148226,안민청솔마을도서관,,641-903,055-264-0129,055-275-3931,경남 창원시 안민동 청솔아파트 197번지 관리동,bjw1545@hanmail.net,,,
148227,푸른숲 작은 도서관(상동동),,656-777,055-633-8849,,경남 거제시 상동동 대동다숲아파트 101-124,ithwjd0640@hanmail.net,,34.86811835,128.62961896326505
148228,가음정평생교육센터,,641-110,055-289-9155,055-289-9154,경남 창원시 가음정동 21-1번지 가음정민원센터 2층,chamgul01@hanmail.net,,,
148229,푸르미작은도서관,,52735,070-8988-9403,,"경상남도 진주시 초장로14번길 29 (초전동, 진주초전푸르지오2단지)",07871004@hanmail.net,,,
148230,묘산중앙문고,,678-873,055-933-8667,,경남 합천군 묘산면 산제리 18,rlaqudtn777@hanmail.net,,,
148231,옹달샘작은도서관(양산),,626-856,055-374-4353,055-374-6074,경남 양산시 상북면 소토리 908번지 대우마리나아파트,hj1845@hanmail.net,,,
148232,의령덕암교회문고,,636-911,055-574-2466,,경남 의령군 용덕면 와요리 27번지,bobae000@hanmail.net,,,
148233,그린빌 작은도서관,,641-762,070-4108-8298,,경남 창원시 대방동 대방그린빌아파트 관리동2층 그린빌 작은도서관,aeji9203@hanmail.net,,,
148234,율하e편한작은도서관,,621-834,055-905-1154,,경남 김해시 장유면 율하리 1405 율하e편한세상아파트 휘트니스센타 내,the1472@nate.com,http://..,,
148235,중흥샘이깊은작은도서관,,621-807,055-346-7181,,"경상남도 김해시 진영읍 장등로19번길 18, 관리동 2층(중흥s클래스2단지아파트)",sglily33@hanmail.net,http://lib.gimhae.go.kr,,
148236,한국작은도서관,,621-756,055-334-5400,,"경상남도 김해시 분성로 155, 관리동 지하1층(외동, 한국2차아파트)",hklib@naver.com,http://lib.gimhae.go.kr,,
148237,명곡도서관,,51171,055-225-7321,,경상남도 창원시 의창구 서곡길 21,nanamec@korea.kr,http://www.cwcl.or.kr/,35.251099,128.652143
148238,통영시립충무도서관,,53017,055-650-2640,055-650-2649,경상남도 통영시 용남면 기호바깥길 7-87,jaybird@korea.kr,www.tongyeonglib.or.kr,,
148239,팔룡마을도서관,,641-849,055-255-6537,055-255-6536,경남 창원시 의창구 팔용동 102-4,cecimo2001@hanmail.net,http://cafe.daum.net/palyong1996,35.2572366,128.6035472
148240,대원평생교육센터,,641-807,055-273-5134,055-273-5135,경남 창원시 의창구 대원동 37-5,jangee76@naver.com,,,
148241,동읍마을도서관,,641-864,055-253-7841,055-253-7841,경남 창원시 의창구 동읍 용잠리575,jaya6114@hanmail.net,,,
148242,신나는 도서관,,637-803,055-583-6430,,경남 함안군 가야읍 도항리 317-6,lsmhjw@naver.com,,,
148243,늘푸른 작은도서관(경남),,667-893,055-880-2365,055-880-2369,경남 하동군 옥종면 양구리 46-5 1층,koreachea@korea.kr,,,
148244,사파마을도서관,,642-550,055-266-1158,055-266-1157,경남 창원시 성산구 사파동 106-1,heaja28@naver.com,http//www.cwymca.or.kr,35.2196733,128.69295712036768
148245,하늘꿈 작은도서관(경남),,637-804,055-585-2281,055-585-2287,경남 함안군 가야읍 말산리 188번지,omegalnch@hanmail.net,,,
148246,수림작은도서관,,637-955,055-582-2309,,경남 함안군 여항면 주서 1길 7번지 주주골수림교회,jinsoolee5@hanmail.net,,,
148247,용잠마을도서관,,641-864,055-253-9161,055-253-1232,경남 창원시 의창구 동읍 용잠리 230-7,kuilun@hanmail.net,,,
148248,핑크드림도서관,,660-777,055-746-5480,055-746-5483,경남 진주시 평거동 392번지 주공2차아파트 단지 내 진주평거종합사회복지관,kwf41@childfund.or.kr,http://www.childfund-jinju.or.kr,,
148249,착한마음도서관,,660-991,055-748-4491,02-6280-6091,경남 진주시 평거동 725-5 2층 착한마음도서관,ddol1225@gmail.com,,,
148250,사파동성 마을도서관,,642-550,055-263-8216,055-263-8211,경남 창원시 성산구 사파동 93번지,choung3243@paran.com,,,
148251,글누리도서관,,637-706,2006/06/21,,경남 함안군 칠서면 무릉리 에이스아파트 관리사무소1층,haeeun1004@paran.com,,,
148252,가람휘 작은도서관ⓧ,,626-250,010-3769-8328,010-3769-8328,경남 양산시 명동 석호가람휘@ 상가 301호(덕명로 322 상가),youthlem@hanmail.net,,,
148253,향파새마을문고,,678-804,055-932-3450,055-934-1136,경남 합천군 합천읍 합천리 524-1 종합사회복지관 5층,whiteej72@hanmail.net,,,
148254,명곡 마을도서관,,641-811,055-273-8019,055-273-8020,경남 창원시 의창구 도계동 태복산로 27번길 27-1,7321pyj@hanmail.net,,,
148255,온새미로도서관,,52704,010-6329-4563,,"경상남도 진주시 새평거로 75, 관리동 지하 온새미로 도서관 (평거동, 평거휴먼시아4단지)",kum4563@naver.com,,,
148256,삼익마을도서관,,642-776,055-601-7451,055-602-3664,경남 창원시 성산구 사파동 삼익아파트 관리동 1층,skymien@hanmail.net,http://cafe.daum.net/samik147,,
148257,창원 늘푸른 도서관,,642-020,055-281-3342,,경남 창원시 성산구 외동 반림로 134번길 15 장수경로당2층,mdh6608@naver.co.kr,,,
148258,글샘누리문고,,52703,055-743-0404,055-743-0405,"경상남도 진주시 새평거로 111 (평거동, 평거휴먼시아3단지)",8877@daum.net,,,
148259,마하어린이도서관,,52737,055-753-9922,055-761-1141,"경상남도 진주시 초장로 55, 2층 마하어린이도서관 (초전동)",mahalibrary@naver.com,www.mahacl.com,,
148260,동원로얄듀크작은도서관,,50632,055-364-7709,055-364-7709,"경상남도 양산시 양주로 32, 관리사무소 지하1층 (남부동, 양산신도시동원로얄듀크)",252prayer@naver.com,http://lib.yangsan.go.kr,,
148261,새마을문고 구암1동 분회,,630-800,055-255-8722,,경남 창원시 마산회원구 구암1동 6~16번지,smo386@naver.com,,,
148262,꿈터문고,,636-964,070-7720-4820,055-574-0163,경남 의령군 부림면 신반리 90-4,kang141@hanmail.net,,,
148263,내동마을도서관,,642-050,055-287-4114,,경남 창원시 성산구 내동 452번지 내동민원센터 2층,duddo23398@hanmail.net,,,
148264,명서2도서관,,,055-273-9766,055-273-9796,경상남도 창원시 의창구 우곡로101번길 28 2층 명서2평생학습센터 마을도서관,audtj9766@daum.net,,,
148265,새마을문고진주시지부,,660-320,055-753-5467,055-762-9870,경남 진주시 상대동 287-31 새마을회관 4층,jsa5467@hanmail.net,,,
148266,상곡 어울림 작은 도서관,,630-857,070-8723-4204,,경남 창원시 마산회원구 내서읍 중리 1056번지 상곡 어울림 작은 도서관,"coralista@naver.com, sk3647@naver.com",http://cafe.naver.com/saggok,,
148267,새마을문고 구암2동,,630-801,055-251-2477,,경남 창원시 마산회원구 구암2동 86-2,mrfor1@naver.com,,,
148268,창녕군 영산도서관,,635-862,055-530-1935,055-530-1940,경남 창녕군 영산면 동리 271-4번지,thxhd00@korea.kr,,,
148269,작은도서관 콩깍지이야기,,621-833,055-332-1052,,경남 김해시 장유면 부곡리 809-4번지 엠파이어상가 2관205호,saltedu7@hanmail.net,,,
148270,두란노작은도서관,,50979,055-723-2010,055-723-2023,"경상남도 김해시 능동로 67, 비전관 2층",wonyasi@naver.com,www.jangyu.or.kr/,,
148271,봉림평생교육센터,,51157,055-265-9877,055-237-9548,"경상남도 창원시 의창구 대봉로26번길 5, 2층 봉림평생교육센터 (봉림동)",qhdfla9877@naver.com,없음,,
148272,명서1 평생교육센터,,641-815,055-273-9765,055-265-4084,경남 창원시 의창구 명서동 174-14,world23@daum.net,,,
148273,디지털마을도서관,,642-913,055-603-3087,055-603-3089,경남 창원시 성산구 대방동 대동디지털2차아파트 (201~208동),gjin0517@hanmail.net,,,
148274,반월작은도서관,,631-421,055-221-8160,,경남 창원시 마산합포구 중앙동1가 4-2 반월주민센터 2층 반월작은도서관,wnsgh0320@naver.com,,,
148275,책놀이터작은도서관(경남),,664-712,055-853-5214,055-855-4795,경남 사천시 사남면 월성리 대우푸르지오아파트 (101~115동) 관리동,lbh0320@hanmail.net,,,
148276,동강아뜨리에작은도서관,,664-713,055-853-3877,,경남 사천시 용현면 신복리 동강아뜨리에아파트 작은도서관,tjswjd1270@daum.net,,,
148277,대동다숲작은도서관,,645-777,070-7760-8893,055-551-0843,경남 창원시 진해구 장천동 대동다숲 114동 지하,nay_il@hanmail.net,,,
148278,대산평생교육센터,,641-923,055-291-6457,055-291-6458,경남 창원시 의창구 대산면 제동리 271-59번지,alsgml8042@hanmail.net,,,
148279,봉곡작은도서관,,,055-265-6086,055-288-0047,경남 창원시 의창구 봉곡동 46-1번지 봉곡평생교육센터,ahnhyo13@hanmail.net,http://www.kisingo.kr,,
148280,일신숲속마을작은도서관,,645-759,055-552-8810,,경남 창원시 진해구 용원동 일신님아파트 관리동2층 책방,joosapin@nate.com,,,
148281,사림평생교육센터(사림마을도서관),,641-825,055-261-1034,055-263-1034,경남 창원시 의창구 사림동 81~159,fer1011@hanmail.net,,,
148282,에버빌작은도서관,,626-774,070-8688-1653,,경남 양산시 물금읍 범어리 현진에버빌아파트 주민공동시설지하1층,mybin529@hanmail.net,,,
148283,칠원대동새마을문고,,637-922,055-587-1885,055-587-1886,경남 함안군 칠원면 무기리 대동아파트관리동2층,tulboys@hanmail.net,,,
148284,성은 작은 도서관,,656-132,055-687-7794,055-687-6883,경남 거제시 옥포2동 1271-1 성은 아파트 관리사무실,jun3669@empal.com,,,
148285,한림리츠빌 작은 도서관,,645-769,055-980-6413,055-980-6413,경남 창원시 진해구 풍호동 한림리츠빌아파트,mkbumis@hanmail.net,http://WWW.jhapt.net,,
148286,송보 작은도서관,,52523,010-4170-2212055-855-2210,055-855-1154,"경상남도 사천시 정동면 여옥길 36, 송보관리동 3층 송보작은도서관 (송보파인빌)",sjc357@naver.com,,,
148287,벌리주공 푸른 작은도서관,,664-705,010-8514-6000,,경남 사천시 벌리동 주공아파트,farangbi@korea.kr,,,
148288,훼미리 작은도서관,,664-932,010-5073-4384,,경남 사천시 정동면 고읍리 한보훼미리2차,farangbi@korea.kr,,,
148289,진사주공 작은도서관,,52533,055-853-9981,,경상남도 사천시 사남면 조동길 60 106동 1층,yamacowh@naver.com,,,
148290,곤명 꿈나무 작은도서관,,52501,010-8998-0850,,"경상남도 사천시 곤명면 완사3길 4, 곤명꿈나무 작은도서관",cjk0850@naver.com,,,
148291,한주빌라트 늘푸른 작은도서관,,664-942,010-3889-7713,,경남 사천시 사남면 월성리 한주빌라트,farangbi@korea.kr,,,
148292,삼한평생대학 작은도서관,,664-837,016-9897-4440,,경남 사천시 선구동 227-12,farangbi@korea.kr,,34.9322892,128.0733451
148293,생각을 키우는 작은도서관,,664-917,010-3853-9600,,경남 사천시 곤양면 서정리 988-1,farangbi@korea.kr,,,
148294,삼성아파트 책마루 작은도서관,,664-932,010-2577-3735,,경남 사천시 정동면 풍정리 388-1 삼성아파트,farangbi@korea.kr,,35.065050049999996,128.10974436497173
148295,대방 작은도서관(사천시),,664-040,017-574-4380,,경남 사천시 대방동 327-1,farangbi@korea.kr,,34.9364984,128.056567
148296,용강주공 느티나무 작은도서관,,664-160,010-7104-6763,,경남 사천시 벌리동 용강주공아파트,farangbi@korea.kr,,,
148297,리가아파트 작은도서관,,664-714,010-6328-2549,,경남 사천시 사남면 월성리 사천리가아파트,farangbi@korea.kr,,,
148298,현대 작은도서관,,664-160,010-5151-2228,,경남 사천시 벌리동 용강현대아파트,farangbi@korea.kr,,34.9437549,128.08809939751038
148299,문화동 책사랑방 작은도서관,,631-200,055-220-5444,,경남 창원시 마산합포구 대외동 5-2 문화동주민센터 2층,ypp75@korea.kr,,,
148300,밀양시립영어도서관,,627-804,055-359-6024,055-355-5544,경상남도 밀양시 중앙로 265 (삼문동),akoutyg@korea.kr,,35.48683255,128.7578681523524
148301,양산시립 영어도서관,,626-280,055-392-5942,055-392-5919,경상남도 양산시 대평들1길 9-10 (소주동),sjblue27@korea.kr,,,
148302,거제시립수양도서관,,53241,055-639-3894,055-639-3899,경상남도 거제시 제산로5길 26 (양정동),hyein95@korea.kr,http://lib.geoje.go.kr,,
148303,합천군육아종합지원센터 어린이도서관,,678-801,010-9575-6733,055-934-0885,경남 합천군 합천읍 동서로 109,hc4children@hanmail.net,http://www.hc4children.or.kr/,,
148304,양산시립 상북어린이도서관,,50557,055-392-5900,,경상남도 양산시 상북면 반회서7길 14-16 상북어린이도서관,kimbbock@korea.kr,http://lib.yangsan.go.kr,,
148305,해군 전투병과학교 도서관,,51686,055-907-3064,,경상남도 창원시 진해구 진희로 111 사서함 211-3-1호,ihmgf1117@gmail.com,,,
148306,해군기술행정학교도서관,,51698,055-907-3064,,경상남도 창원시 진해구 중원로 1 사서함 605-1-1,johyun72@naver.com,,,
148307,거제시립하청도서관,,53204,055-639-3894,055-639-3899,경상남도 거제시 하청면 하청로 12-7,hyein95@korea.kr,https://lib.geoje.go.kr,34.9553336,128.6551602
148308,경남대표도서관,,51138,055-254-4833,055-254-4839,경상남도 창원시 의창구 사림로45번길 59 경남대표도서관,moonlib@korea.kr,http://lib.gyeongnam.go.kr,,
148309,김해율하도서관,,51016,055-330-4657,,경상남도 김해시 율하2로 210,dahyekim@korea.kr,,35.1714719,128.8198015
148310,경상남도교육청 마산지혜의바다도서관,,51203,055-252-3866,055-252-3865,경상남도 창원시 마산회원구 구암북12길 24 구암동 경상남도교육청 마산지혜의바다도서관,spring0614@korea.kr,http://jhlib.gne.go.kr,,
148311,진해기지사령부 도서관,,51698,055-549-4517,,경남 창원시 진해구 충장로1 사서함 602-13,johyun72@naver.com,,,
148312,경상남도교육청 김해지혜의바다도서관,,50877,055-330-9800,055-330-9830,경상남도 김해시 주촌면 서부로1541번길 8,tjdrk123@korea.kr,ghjhlib.gne.go.kr,,
148313,국립부곡병원 병원도서관,,50365,055-536-6440,--,"경상남도 창녕군 부곡면 부곡로 145, 국립부곡병원",kjypse1@korea.kr,www.bgnmh.go.kr,,
148314,양산시립 서창도서관(경남 양산시),,50525,055-392-5903,--,경상남도 양산시 삼호8길 7 (삼호동),dealvit@korea.kr,,,
148315,혁신어린이도서관,,52830,055-749-6917,--,"경상남도 진주시 동진로 415, 종합경기장 내 혁신어린이도서관 (충무공동)",pridean@korea.kr,lib.jinju.go.kr,,
148316,경상남도교육청 산청지리산도서관,,52249,010-6304-5668,--,"경상남도 산청군 신안면 원지강변로 101, 산청지리산도서관",coco5668@korea.kr,,35.301107099999996,127.97434042540384
148317,거제시립아주도서관,,53310,055-639-3735,055-639-3859,경상남도 거제시 탑곡로 73 거제시립아주도서관(3층),guiwon1977@korea.kr,HTTPS://lib.geoje.go.kr,,
148318,양산시립 윤현진도서관,,50617,010-6536-0365,055-392-5919,경상남도 양산시 희망1길 25 양산시립 윤현진도서관,josephby@korea.kr,https://lib.yangsan.go.kr,,
148319,최윤덕도서관,,641-871,010-7614-7707,,경상남도 창원시 북면 무동리 103-2 최윤덕도서관,aneko@korea.kr,,,
148320,도천어린이도서관,,53066,055-650-4032,055-650-4099,경상남도 통영시 통영해안로 147-7 2층,hwj3882@korea.kr,,,
148321,남부어린이도서관,,660-300,055-749-6255,,진주시 가좌동 662-3번지,library520@korea.kr,,,
