LIB_CODE,LIB_NAME,DIVISION,ZIP_CODE,TEL,FAX,ADDRESS,E_MAIL,HOMEPAGE
145001,전라북도교육청고창도서관,,585-801,063-563-2720,063-561-3600,전북 고창군 고창읍 천변북로 109,wateroil@jbedu.kr,https://lib.jbe.go.kr/gcplib
145002,군산시립도서관,,54090,063-450-4456,063-466-0367,전라북도 군산시 축동로 72,faly8318@korea.kr,http://lib.gunsan.go.kr
145003,김제공공도서관Ⓧ,,576-010,0658-44-1215,0658-44-1215,전북 김제시 요촌동 130-7,없어진 도서관임,
145004,남원교육문화회관,,55762,063-630-1243,063-636-9597,전라북도 남원시 용성로 49,namwon111@korea.kr,http://www.necc.go.kr
145005,명봉도서관,,580-920,063)534-8261,,전북 정읍시 태인면 태정리 220,,
145006,전라북도교육청무주도서관,,55519,063)322-4635,063)324-7211,전라북도 무주군 무주읍 향한로 37,kdh1104@jbedu.kr,http://www.mujulibrary.or.kr/
145007,부안교육문화회관,,56308,0635801322,0635801390,전라북도 부안군 부안읍 남문안길 10,bec@jbedu.kr,https://lib.jbe.go.kr/bec/index.do
145008,전라북도교육청순창도서관,,56034,063)652-0994,063)652-0024,전라북도 순창군 순창읍 장류로 379,eecw0919@jbedu.kr,
145009,군산교육문화회관 대야분관,,573-910,063)451-2669,063)451-2242,전북 군산시 대야면 산월리 549-3,,
145010,전라북도교육청완주도서관,,55326,063-262-2239,063-261-0401,전라북도 완주군 봉동읍 봉동동서로 109,talmogirl@jbedu.kr,
145011,남원교육문화회관운봉분관,,590-834,063)634-0716,063)634-0297,전북 남원시 운봉읍 서천리 48-1,,
145012,이리공공도서관ⓧ,,570-101,0653-855-3292,0653-855-0539,전북 익산시 남중동1가 237-9,,
145013,익산교육문화회관 함열분관,,570-800,063-861-1474,063)862-3458,전라북도 익산시 함열읍 함열중앙로 53,hamyeol1474@jbedu.kr,
145014,전라북도교육청임실도서관,,55926,0636433525,0636432949,전라북도 임실군 임실읍 봉황로 145,islib@jbedu.kr,https://lib.jbe.go.kr/islib/
145015,전라북도교육청장수도서관,,55630,063-351-5488,063-351-1811,전라북도 장수군 장수읍 호비로 58,maesil@jbedu.kr,jpl.or.kr
145016,전주교육문화회관,,54936,063-270-1643,063)270-1649,전라북도 전주시 덕진구 안덕원로 71,ks2677@cein.or.kr,www.jec.go.kr/
145017,전주시립완산도서관,,550-8,063-287-6417,288-7490,전라북도 전주시 완산구 곤지산4길 12,jjlib@korea.kr,lib.jeonju.go.kr/
145018,전주시립금암도서관,,54922,063)281-6442,063)252-5173,전라북도 전주시 덕진구 거북바우로 13 (금암동),hareaffair@korea.kr,http://lib.jeonju.go.kr/
145019,정읍학생복지회관,,56180,063)533-6528,063)533-5339,전라북도 정읍시 구미길 14-4,thepaper@jbedu.kr,
145020,정읍시립중앙도서관,,56190,0635396437,0635396540,"전라북도 정읍시 벚꽃로 511, 정읍시립중앙도서관 (상동)",ggamsi4835@korea.kr,cenlib.jeongeup.go.kr
145021,전라북도교육청진안도서관,,55426,063)433-2422,063)433-5830,전라북도 진안군 진안읍 대광길 4,-,
145022,김제교육문화회관 금산분관,,576-964,063)545-1670,063)544-3318,전북 김제시 금산면 성계리 683-5(원평로 97),,
145023,익산시립영등도서관,,54541,063-850-4963,063-831-1462,전라북도 익산시 궁동로 57,coolpes@hanmail.net,lib.iksan.go.kr
145024,익산시립마동도서관,,54627,063-722-3344~5,063-722-3349,전라북도 익산시 선화1로 99,eheh28@naver.com,lib.iksan.go.kr/
145025,완주군립 삼례도서관,,55333,0632902643,0632902640,전라북도 완주군 삼례읍 삼봉로 215-12,loo4mami@korea.kr,lib.wanju.go.kr
145026,김제시립도서관,,54392,063-540-4141,063-540-4144,전라북도 김제시 서낭당길 151 (요촌동),object00@korea.kr,http://www.gjl.gimje.go.kr
145027,장수군립공공도서관,,55612,063-351-1614,063-351-1614,전라북도 장수군 장계면 장계7길 15,glatpsdu@korea.kr,
145028,김제시립도서관 어린이도서방ⓧ,,54378,063-540-4110,,전라북도 김제시 요촌길 45 지평선어울림센터내,solisya@korea.kr,
145029,임피채만식도서관,,54056,063-450-6582,063)453-3311,전라북도 군산시 임피면 임피향교길 39,-,lib.gunsan.go.kr
145030,전주시립인후도서관,,561-829,063)281-6405,063)242-1271,전북 전주시 덕진구 안덕원길 349 (인후동1가 532-3),hareaffair@korea.kr,lib.jeonju.go.kr/
145031,부안군립도서관,,579-805,063-581-6571,063-581-6572,전라북도 부안군 부안읍 매창로 125,mrshin13@korea.kr,http://www.buanlibrary.or.kr/
145032,정읍시립도서관신태인분관,,580-901,063)571-3080,063)571-3080,전북 정읍시 신태인읍 신태인리 214-1,,http://jeongeuplib.or.kr/
145033,김제시립도서관만경분관,,570-860,063)540-3540,063)545-3000,전북 김제시 만경읍 만경리 536-2,,http://www.gjl.or.kr/
145034,익산교육문화회관,,54596,063-840-7232,063)840-7260,전라북도 익산시 고봉로 55 (마동),-,https://lib.jbe.go.kr/isec
145035,전주시립삼천도서관,,55083,063)225-2877,063)225-2878,전라북도 전주시 완산구 용리로 107 (삼천동1가),baegmr@jeonju.go.kr / syslib@hanmail.net,lib.jeonju.go.kr/
145036,군산교육문화회관,,573-885,063)450-3244,063)450-3234,전북 군산시 조촌 4길 46,gshall@hanmail.net,
145037,무주형설지공군립도서관,,55514,063-320-5621,063-320-5689,전북 무주군 무주읍 한풍루로 326-17 예체문화관,juang6485@korea.kr,http://library.muju.go.kr
145038,완주군립고산도서관,,55311,063-262-3880,063-262-3861,전라북도 완주군 고산면 고산로 69-13,-,lib.wanju.go.kr
145039,전주시립송천도서관,,561-820,063-278-9403,063-278-9404,전북 전주시 덕진구 솔내로 212번지(송천동2가 168-5),penna@daum.net,http://lib.jeonju.go.kr/
145040,임실군립오수도서관,,566-895,063-642-2574,063-640-2574,전북 임실군 오수면 오수리 387-1,911chae@hanmail.net,blog.naver.com/imsillib
145041,김제시립도서관금구분관,,54351,063)540-3678,063-540-3680,전라북도 김제시 금구면 양시7길 57,o2sun@hanmail.net,http://www.gjl.or.kr
145042,익산시립영등도서관,,570-982,063-850-4963,063-831-1462,전라북도 익산시 궁동로 57 (영등동),coolpes@hanmail.net,http://lib.iksan.go.kr
145043,구암작은도서관,,54043,063-450-4456,063-466-0367,전라북도 군산시 구암3.1로 245,ssc0721@empal.com,lib.gunsan.go.kr
145044,미성작은도서관,,54166,063-450-6175,,전라북도 군산시 동아로 11,ssc0721@empal.com,http://lib.gunsan.go.kr
145045,월명작은도서관,,54022,063-450-6175,,전라북도 군산시 구영7길 6,ssc0721@empal.com,lib.gunsan.go.kr
145046,구이모악작은도서관,,565-823,063-240-4638,063-291-5668,전라북도 완주군 구이면 구이로 1482 2층 구이모악작은도서관 <-전북 완주군 구이면 원기리 450번지,loo4mami@korea.kr,http://lib.wanju.go.kr
145047,정읍기적의도서관,,580-804,063-530-7168,063-537-3035,전북 정읍시 수성동 1014-1번지,yr21vic@hotmail.com,http://jeongeuplib.or.kr
145048,길보작은도서관,,576-020,063-545-1923,063-546-1228,전북 김제시 신풍동 613-3,gugi102@hanmail.net,http://www.kilbo.or.kr
145049,이서배꽃뜰작은도서관,,565-853,063-240-4630,063-240-4630,전라북도 완주군 이서면 이서로 55 이서주민자치센터 3층 배꽃뜰작은도서관<-전북 완주군 삼례읍 신금리 산71번지,"chiri313@hanmail.net, loo4mami@korea.kr",http://lib.wanju.go.kr
145050,남원시립도서관,,590-050,063-620-6158,063-625-5446,"전북 남원시 광한북로54(하정동 185-번지) 1,2층",dajilee@korea.kr,http://lib.namwon.go.kr/
145051,전주시립서신도서관,,54951,063-230-1812,063-230-1828,전라북도 전주시 완산구 서신천변14길 10 (서신동),kolim333@hotmail.com,lib.jeonju.go.kr
145052,고창군립도서관,,585-807,063-560-2323,063-562-1897,전북 고창군 고창읍 읍내리 188 고창군 군립도서관,ankyhee@gcmail.net,http://lib.gccl.kr
145053,흥남작은도서관,,573-749,063-450-4456,063-466-0367,전라북도 군산시 풍문2길 35번지,iami0723@korea.kr,http://lib.gunsan.go.kr
145054,미룡작은도서관,,573-748,063-450-4028,063-450-4278,전라북도 군산시 미룡로 42,iiiiy765@gunsan.go.kr,http://lib.gunsan.go.kr
145055,글마루작은도서관(고창),,585-803,063-564-2150,063-564-2166,전북 고창군 고창읍 석교리4-4,totobin1210@hanmail.net,http://www.happyhappy.or.kr/
145056,선운산 작은도서관,,585-931,063-560-2603,063-560-2633,전북 고창군 아산면 하갑리 190-2,ankyhee@gcmail.net,http://lib.gccl.kr
145057,북면작은도서관(정읍시),,580-814,063-537-3561,,전북 정읍시 북면 한교리,tngml0050@hanmail.net,
145058,상동작은도서관,,580-756,063-535-5845,,전북 정읍시 상동 우미타운아파트 관리동 2층,tngml0050@hanmail.net,
145059,능길작은도서관,,567-861,063-432-0367,063-432-0328,전북 진안군 동향면 능금리 605,gowonnongsan@hanmail.net,
145060,고수 해마루 작은도서관,,585-842,063-560-2420,063-561-1245,전북 고창군 고수면 황산리 308-13,ankyhee@gcmail.net,
145061,흰白구름雲작은도서관,,567-883,063-432-2260,063-432-2260,전북 진안군 백운면 임진로 1326-31,mjoo1009@hanmail.net,
145062,무지개 작은도서관(전주),,54848,063-212-3696,,전라북도 전주시 덕진구 덕용3길 7,beauty0121@hanmail.net,
145063,꿈드리 작은도서관,,560-722,063-225-7338,063-902-7338,전북 전주시 완산구 삼천동 남양아파트,smil0401@naver.com,http://cafe.daum.net/liblovejeonju
145064,호성작은도서관,,,063-245-9030,063-279-6951,전라북도 전주시 덕진구 동부대로 869 호성동주민센터3층,khss0208@naver.com,
145065,독우물작은도서관,,590-953,063-635-9702,,전북 남원시 금지면 옹정리 833-1번지,pym090516@naver.com,
145066,혼불작은도서관,,55702,063-634-9003,,"전라북도 남원시 사매면 오신1길 9-2, 혼불작은도서관",sook3590q@hanmail.net,
145067,꿈이있는나무 작은도서관,,54946,063-229-6511,063-229-2112,전라북도 전주시 완산구 새터로 122-11 M플러스빌딩4층 물댄동산,rebecaa@hanmail.net,
145068,나포작은도서관,,573-853,063-450-6575,063-466-0367,전라북도 군산시 나포면 교동2길 5,lh5408@gunsan.go.kr,http://lib.gunsan.go.kr
145069,장수청소년문화의집 작은도서관,,55634,063-351-3302,063-350-4431,"전라북도 장수군 장수읍 호비로 10, 장수작은도서관",docblues397@korea.kr,
145070,장계문예복지관 작은도서관ⓧ,,597-842,063-353-1150,063-350-2417,전북 장수군 장계면 장계리 862 (장계문예복지관 2층),ksd8910@korea.kr,
145071,마이작은도서관,,567-806,063-433-8478,063-433-3425,전북 진안군 진안읍 군하리 285-8,jujery@hanmail.net,http://www.mylib.or.kr
145072,상관기찻길작은도서관,,585-832,063-290-3524,063-281-3200,전라북도 완주군 상관면 신리로 49 상관주민자치센터 3층 기찻길작은도서관<-전북 완주군 상관면 신리 607번지 지큐빌시세대아파트 관리소 2층,"chiri313@wanju.go.kr, loo4mami@korea.kr",http://lib.wanju.go.kr
145073,책마루작은도서관,,54837,063-252-1612,063-253-1612,전라북도 전주시 덕진구 솔내2길 21 책마루작은도서관,bf090724@hanmail.net,http://bookfloor.winbook.kr
145074,희망남포작은도서관,,576-841,063-542-0211,063-545-4999,전북 김제시 성덕면 남포리 302-3번지,nampo0445@hanmail.net,
145075,전북도청도서관,,54968,063-280-2451,063-280-2459,전라북도 전주시 완산구 효자로 225번지,dlduaud2357@korea.kr,http://library.jeonbuk.go.kr
145076,깊은샘(청복) 작은 도서관,,570-979,063-851-2626,063-852-0691,전북 익산시 영등동 252번지,drlovei@hanmail.net,
145077,김제교육문화회관,,576-807,063-540-6831,,전북 김제시 요촌북로 72,skjj0413@jbedu.kr,http://www.gecc.go.kr/
145078,고창군립성호도서관,,585-801,063-560-2420,063-561-1245,전북 고창군 고창읍 교촌리 275-3,ankyhee@gcmail.net,http://lib.gccl.kr
145079,조촌작은도서관,,573-885,063-450-6577,063-466-0367,전라북도 군산시 양안로 133 (조촌동),choi0070@korea.kr,
145080,부송작은도서관,,570-360,063-831-0250,063-833-2959,전북 익산시 부송동 1069번지,busong@hanmail.net,http://www.swb.or.kr
145081,모현뜰작은도서관,,570-967,063-837-1080,063-837-1080,전북 익산시 모현동1가 335-2번지,wva2mrhb@hanmail.net,http://cafe.naver.com/greenddl/
145082,부안고인돌작은도서관,,579-841,063-582-0608,063-581-6572,전라북도 부안군 하서면 변산로 663-7,tkddus02@korea.kr,
145083,평화꿈틀작은도서관,,560-281,063-285-4408,,전북 전주시 완산구 평화동1가 445-6,szeun99@korea.kr,
145084,열린점자작은도서관,,,063-288-0046,,전라북도 전주시 덕진구 학산길 26-3,jbunion@hanmail.net,
145085,맑은누리작은도서관(전북),,,070-5089-2984,,전라북도 전주시 완산구 물레방아1길 43-68,jjyouthhouse@hanmail.net,
145086,큰나루작은도서관,,561-192,063-271-9336,063-271-9338,전라북도 전주시 덕진구 송천중앙로 36 덕진노인복지관 3층,www.djswc@hanmail.net,
145087,전주작은도서관,,,063-284-2733,,전라북도 전주시 완산구 덕적골2길 10,bokzi@hanmail.net,
145088,봄나루작은도서관,,570-951,063-842-1300,063-842-7435,전북 익산시 춘포면 춘포리 33-4 번지,suukk1122@naver.com,
145089,낭산작은도서관,,570-893,063-861-3389,063-861-3389,전북 익산시 낭산면 삼담리 554번지,baby1009@korea.kr,
145090,예솔작은도서관,,570-080,063-858-8672,063-856-2622,전라북도 익산시 송학동 97-10,,http://www.iksan.go.kr/dong/songhak
145091,왕궁작은도서관,,570-946,063-833-3005,063-832-0525,전라북도 익산시 왕궁면 왕궁로 544 왕궁작은도서관,yangmiya@naver.com,
145092,배산작은도서관,,570-092,063-837-7722,063-837-7766,전북 익산시 모현동2가 62-2,wndhkghk@hanmir.com,
145093,동산작은도서관,,570-958,063-842-2253,,전북 익산시 동산동 145번지,jina-97@hanmail.net,
145094,삼성동어린이도서관,,570-973,063-834-3612,063-834-3612,전북 익산시 부송동 300~1100,fineart21@hanmail.net,http://kidlib.winbook.co.kr/
145095,익산시립모현도서관,,54658,063-859-3725,063-859-3729,전라북도 익산시 선화로6길 7,dream012@korea.kr,lib.iksan.go.kr
145096,군산시청 행정자료실,,573-703,063-450-4235,063-450-4590,전북 군산시 조촌동 군산시청 시청로 17번,yms705@korea.kr,http://lib.gunsan.go.kr
145097,전주시립평화도서관,,55123,063-287-6417,063-230-1828,전라북도 전주시 완산구 평화14길 27-51 (평화동2가),sungnam15@korea.kr,lib.jeonju.go.kr
145098,번암작은도서관,,597-812,063-353-2333,,전북 장수군 번암면 노단리 장수로 480,docblues397@korea.kr,
145099,순창군청소년센터작은도서관,,595-802,063-653-0043,,전북 순창군 순창읍 교성리 233-1,choieh@korea.kr,
145100,순창군문화의집작은도서관,,56033,063-650-1665,,전북 순창군 순창읍 장류로 407-11 문화의집작은도서관,"choieh@korea.kr, clittie79@korea.kr",
145101,원등교회작은도서관,,516-862,061-362-6878,,전남 곡성군 삼기면 원등리 314번지,hwangsg@korea.kr,
145102,석청작은도서관,,516-850,061-362-4480,061-362-4480,전남 곡성군 석곡면 석곡4길 6 석청작은도서관,sj3624480@naver.com,cafe.daum.net/tjrcjdoo
145103,곡성평화학교녹색문고,,516-853,061-363-7775,,전남 곡성군 석곡면 염곡리,hwangsg@korea.kr,
145104,농민열린도서관,,,061-363-6698,,전남 곡성군 죽곡면 용정리,hwangsg@korea.kr,
145105,산골작은도서관,,516-831,010-9038-8341,,전남 곡성군 죽곡면 하한리,hwangsg@korea.kr,
145106,주산교회작은도서관,,516-914,061-363-0221,,전남 곡성군 옥과면 주산리 179-1,hwangsg@korea.kr,
145107,심청골작은도서관,,516-944,061-363-6360,061-362-8620,전라남도 곡성군 입면 송전로 9-6 복지동3층,hwangsg@korea.kr,
145108,곡성은혜마을문고,,516-800,061-363-0600,,전남 곡성군 곡성읍,hwangsg@korea.kr,
145109,행복세상작은도서관,,570-975,063-856-2385,063-856-2361,전라북도 익산시 익산대로 415-7,cornchip26@korea.kr,http://www.wkw.or.kr
145110,무주만나작은도서관,,568-844,07088026000,,전북 무주군 안성면 진성로 2393,2me4you@hanmail.net,
145111,글마루작은도서관(익산),,570-743,063-834-1115,063-834-1115,전북 익산시 팔봉동 파인골드빌아파트2차(204동407호),jnh35125@naver.com,
145112,꿈꾸는 뜰 어린이도서관,,570-973,063-838-0510,063-838-1900,전북 익산시 부송동 1084-2번지. 꿈꾸는뜰 교육문화센터 1층,dia2724@hanmail.net,
145113,수목토작은도서관(정읍),,580-800,063-539-6435,063-539-6540,전북 정읍시 상동 65-1,spring7971@korea.kr,
145114,고부작은도서관,,580-862,063-539-6435,063-539-6540,전북 정읍시 고부면 고부리 145,spirng7971@korea.kr,
145115,울림작은도서관,,570-760,063-831-6050,,전북 익산시 부송동 231-4 동아1차아파트 관리사무소,kulcom@hanmail.net,
145116,익산시립부송도서관,,54550,063-859-3731,063-859-3729,전라북도 익산시 무왕로25길 30,csoon67@korea.kr,lib.iksan.go.kr
145117,개골개골어린이도서관,,560-241,063-228-5698,,전북 전주시 완산구 효자동1가435-1 홈플러스 2층,jy5689@hanmail.net,
145118,완주군립 중앙도서관,,565-811,063-290-2654,063-290-2639,전북 완주군 용진읍 지암로 61,shem1018@korea.kr,http://lib.wanju.go.kr
145119,대산면작은도서관(가칭),,585-860,063-560-8053,,전북 고창군 대산면 시장길 19-2(주민자치센터1층),minicok74@korea.kr,
145120,나운작은도서관,,573-350,063-450-6577,063-466-0367,전라북도 군산시 대학로 330,choi0070@korea.kr,http://lib.gunsan.go.kr/
145121,군산늘푸른도서관,,573-871,063-450-6577,063-466-0367,전라북도 군산시 하나운로 17 (나운동),choi0070@korea.kr,http://lib.gunsan.go.kr
145122,군산시립설림도서관,,573-400,063-450-6577,063-466-0367,전북 군산시 소룡동 1530,choi0070@korea.kr,http://lib.gunsan.go.kr
145123,문화의집 작은도서관,,580-806,063-539-6437,063-539-6540,전북 정읍시 연지동 252-54,spring7971@korea.kr,http://www. jeongeuplib.or.kr
145124,무주반딧불작은도서관,,568-816,063-324-8006,063-324-8006,전북 무주군 설천면 소천리 904-180,kara3212@hanmail.net,http://cafe.daum.net/kara3212
145125,노계3동작은도서관,,567-805,070-8181-0474,,전북 진안군 진안읍 군상리 진용로 뜨란채아파트 내 작은도서관,tiel70@hanmail.net,
145126,죽산작은도서관(전북),,54419,063-546-2079,,전라북도 김제시 죽산면 죽산1길 30-9,997229@hanmail.net,http://0
145127,JG작은도서관ⓧ,,576-080,063-545-9505,063-545-9505,전북 김제시 검산동 도작로 134번지,ktf0310@naver.com,
145128,옹달샘 작은도서관(정읍),,580-050,063-539-6437,063-539-6540,전북 정읍시 상동 966 미소지움 아파트 관리동 3층,spring7971@korea.kr,
145129,수성 작은도서관,,580-804,063-539-6437,036-539-6540,전북 정읍시 수성동 918-1 수성주공아파트 관리동,spring7971@korea.kr,
145130,개암 작은도서관,,579-861,063-580-3946,,전라북도 부안군 상서면 상서길 8,mrshin13@korea.kr,
145131,전주시립아중도서관,,55024,063-281-6484,063-243-0053,"전라북도 전주시 덕진구 무삼지2길 7, 아중도서관 (인후동1가)",djauel07@korea.kr,http://lib.jeonju.go.kr/
145132,안성작은도서관,,568-840,063-323-0101,,전북 무주군 안성면 안성로 288-15,2me4you@naver.com,
145133,교동골 작은도서관,,576-040,063-547-0431,063-545-0431,전북 김제시 교동 118-2,jeilbokji@hanmail.net,http://www.jeilwelfare.or.kr
145134,완주군립 둔산영어도서관,,565-810,063-290-2653,063-290-2639,전북 완주군 용진면 운곡리 957-78,likemui@korea.kr,http://lib.wanju.go.kr
145135,꿈드림 작은도서관(전북),,570-060,063-918-5281,063-837-7989,전북 익산시 동산동 휴먼시아207동 1층 꿈드림 작은도서관,cho670128@naver.com,
145136,감곡 작은도서관,,580-912,063-539-6437,,전북 정읍시 감곡면 방교리 638-2,spring7971@korea.kr,
145137,초산 작은도서관,,580-060,063-539-6437,,전북 정읍시 시기동 412 초산동 주민 자치센터,spring7971@korea.kr,
145138,무장 글샘 작은도서관,,585-881,063-560-8052,063-560-8060,전북 고창군 무장면 성내리 75,minicok74@korea.kr,http://gccl.kr
145139,쪽구름도서관,,54850,063-281-6506,,전라북도 전주시 덕진구 여암2길 9,lsj4687@korea.kr,lib.jeonju.go.kr/
145140,순창군립도서관,,595-805,063-650-5678,063-653-1245,전라북도 순창군 순창읍 순창5길 18,clittie79@korea.kr,http://lib.sunchang.go.kr/
145141,제38전투비행전대 병영도서관,,573-951,010-4504-5165,,전라북도 군산시 옥서면 신장원길 21 사서함 88-1호,kjh_stigma@naver.com,
145142,전주시립건지도서관,,54901,063-281-6607,063-243-6633,전라북도 전주시 덕진구 호성로 25 (호성동1가),hareaffair@korea.kr,lib.jeonju.go.kr/
145143,무형유산 정보자료실,,560-120,063-280-1578,063-280-1499,전라북도 전주시 완산구 서학로 95 국립무형유산원 조사연구기록과 (동서학동),roh1329@korea.kr,library.nihc.go.kr
145144,익산시립황등도서관,,54533,063-859-3727,063-859-3729,전라북도 익산시 황등면 황등8길 7 익산시립황등도서관,bnyj1217@korea.kr,http://lib.iksan.go.kr
145145,전주시립효자도서관,,550-3,063-281-6493,,전라북도 전주시 완산구 우전로 181 이바디공원내,hyangi220@naver.com,lib.jeonju.go.kr/index.sko
145146,전북지방병무청 북카페,,55033,063-281-3304,,전라북도 전주시 완산구 관선3길 14 전북지방병무청 운영지원과,kamchilee@korea.kr,
145148,완주군립 콩쥐팥쥐도서관,,55365,063-290-2659,--,"전라북도 완주군 이서면 갈산로 46, 완주군립 콩쥐팥쥐도서관",iiii765@korea.kr,http://lib.wanju.go.kr
145149,남원시어린이청소년도서관,,55755,063-620-6182,063-620-6707,"전라북도 남원시 역재3길 8, 남원시어린이청소년도서관 (도통동)",nosh1112@korea.kr,
145150,전주시립도서관,,55098,063-230-1811,063-281-5285,전라북도 전주시 완산구 백제대로 306 (중화산동2가) 전주시립도서관,sky602@korea.kr,http://lib.jeonju.go.kr
145151,군산시 산들도서관,,54172,063-454-5804,--,"전라북도 군산시 옥구읍 옥구로 27, 산들도서관",lee8769@korea.kr,lib.gunsan.go.kr
145152,임실군립도서관,,55927,063-640-3041,063-640-2939,"전라북도 임실군 임실읍 호국로 1701, 임실군립도서관",momo0180@korea.kr,
145153,익산시립금마도서관,,54573,063-859-3728,--,전북 익산시 금마면 서고도리 634,faith10@korea.kr,http://lib.iksan.go.kr
145154,유천도서관,,54611,010-4166-7373,063-831-1462,전라북도 익산시 동천로 82 유천도서관,jj99@korea.kr,lib.iksan.go.kr
145155,군산시 금강도서관,,54072,010-8872-4206,063-466-0367,전라북도 군산시 궁포3로 30 금강도서관,herahj@korea.kr,lib.gusan.go.kr
