LIB_CODE,LIB_NAME,DIVISION,ZIP_CODE,TEL,FAX,ADDRESS,E_MAIL,HOMEPAGE
141001,가평군립한석봉도서관,,12419,031-580-4043,031)580-2589,경기도 가평군 문화로 187,muni92@korea.kr,http://www.gaplib.or.kr/
141003,강화희준도서관,,417-800,032)934-6171,,인천시 강화군 강화읍 관청리 336,,
141004,경기과천교육도서관,,13836,0236770345,025075895,경기도 과천시 도서관길 36,younjo77@goe.go.kr,http://www.kwalib.kr/
141005,경기광주교육도서관,,12761,031-768-6921,031-768-6925,경기도 광주시 경안안길58번길 3,gjlib@goe.go.kr,http://www.gjlib.or.kr/
141006,경기김포교육도서관,,10108,031)998-3538,031)983-3536,경기도 김포시 봉화로 68,simple95@goe.go.lr,
141007,경기도립 남양주도서관 ⓧ,,,,,,,
141008,경기성남교육도서관,,13268,031-730-3534,031-731-1335,경기도 성남시 수정구 공원로370번길 26,doppleganger@korea.kr,http://www.snlib.or.kr/
141009,경기평택교육도서관,,17764,031-663-4207,031667-6548,경기도 평택시 서정북로125번길 103 경기평택교육도서관,sykoo77@goe.go.kr,http://www.ptlib.or.kr/
141010,경기중앙교육도서관,,16279,031-240-4064,031-245-3681,경기도 수원시 장안구 조원로 18,admin@gglib.or.kr,http://www.gglib.or.kr/
141011,양평군립도서관,,12562,031-770-2711,031-770-2819,경기도 양평군 양평읍 양근로 240-9,wonchil7@korea.kr,www.yplib.go.kr
141012,경기여주가남교육도서관,,12662,031-884-0594,031-882-2611,경기도 여주시 가남읍 태평2길 28-7,azuresea@korea.kr,gnlib.or.kr/
141013,연천군중앙도서관,,11025,031-839-4411,031)839-4419,경기도 연천군 전곡읍 전은길 9-26,hash68@korea.kr,library.yeoncheon.go.kr
141014,오산시 청학도서관,,18119,031)370-3575,031)370-3578,경기도 오산시 청학로 65,librarian@osan.go.kr,www.osanlibrary.go.kr/
141015,경기도립 용인도서관 ⓧ,,,,,,,
141016,평택시립도서관팽성분관,,17977,031-8024-5481,03180245489,경기도 평택시 팽성읍 안정로95번길 15-25,kjo77@ptcity.net,www.ptlib.go.kr
141017,경기포천교육도서관,,11147,031-531-8751,031-531-8754,경기도 포천시 중앙로 92-6 경기포천교육도서관,ccc@goe.go.kr,http://www.pclib.or.kr/
141018,고양시립행신도서관,,10514,031-8075-9239,031)961-3242,경기도 고양시 덕양구 행당로33번길 25-6,-,http://www.goyanglib.or.kr/
141019,광명시하안도서관,,14245,02-2680-5459,02)2680-2877,경기도 광명시 철망산로 46 (하안동),marzohkh@yahoo.co.kr,https://gmlib.gm.go.kr
141020,구리시립교문도서관,,11934,031-550-2239,031)550-2595,경기도 구리시 안골로30번길 45,leejun72@korea.kr,http://www.gurilib.go.kr
141021,군포 참뜻도서관 ⓧ,,,,,,,
141022,동두천시립도서관,,483-120,031-860-3261,031)860-2568,경기도 동두천시 상패로 60,ssuk2ki@hanmai.net,http://city.ddclib.net
141023,부천시립도서관ⓧ,,420-838,032)625-4551,032)625-4559,경기도 부천시 원미구 상이로 12(620-4),blue809@korea.kr,http://www.bcl.go.kr/
141024,수원시중앙도서관,,16462,031-228-4788,031)228-3745,경기도 수원시 팔달구 팔달산로 318,lno782@hanmail.net,http://www.suwonlib.go.kr/ct
141025,수원시선경도서관,,16258,031-228-4734,031-255-4826,경기도 수원시 팔달구 신풍로23번길 68,sklib@suwon.ne.kr,http://www.suwonlib.go.kr/sk
141026,안성시립중앙도서관,,17587,031-678-5305,031)678-5309,경기도 안성시 안성맞춤대로 1150,hijini96@korea.kr,http://www.apl.go.kr
141027,안양시립만안도서관,,14091,031-8045-6155,031-8045-6159,경기도 안양시 만안구 냉천로 51,kplee1308@korea.kr,www.anyanglib.or.kr
141028,의정부시립정보도서관ⓧ,,480-845,031)8701-542,031)872-1755,경기도 의정부시 의정부동 326-7,,http://www.uilib.net/information/jsp/homepage/uilib/information/main/Main_ko.jsp?menuid=null&websysdiv=null
141029,이천시립도서관,,17354,031-644-4351,031-,경기도 이천시 설봉로81번길 50 (창전동),eyemiso74@hanmail.net,www.icheonlib.go.kr
141030,파주군립도서관 ⓧ,,,,,,,
141031,평택시립비전도서관,,17896,031-8024-5476,031)8024-5459,경기도 평택시 비전로 27,ptlib@pyeongtaek.go.kr,www.ptlib.go.kr
141032,안산관산도서관,,15364,031)481-2751,031)481-3633,경기도 안산시 단원구 관산길 29,-,http://lib.iansan.net/
141034,군포시산본도서관,,15824,031-390-8847,395-4317,경기도 군포시 광정로 96,jeparks@korea.kr,http://www.gunpolib.go.kr/
141035,남양주시 정약용도서관,,12259,031-590-2586,031)590-2588,경기도 남양주시 경춘로 409,-,http://www.nyj.go.kr/lib/s11_mlib/notice.jsp
141036,안양시립평촌도서관,,14052,031-8045-6201,031-389-3869,경기도 안양시 동안구 관평로 213,yhkim1004@korea.kr,http://www.anyanglib.or.kr
141037,양주시 덕정도서관,,11450,031-8082-7420,031-8082-7409,경기도 양주시 화합로1371번길 11,mmin15@korea.kr,www.libyj.go.kr/
141038,용인중앙도서관,,17057,031324-4690,031-324-4609,경기도 용인시 처인구 명지로 27,leeggu@korea.kr,https://lib.yongin.go.kr/yongin/index.do
141039,의왕시내손도서관,,16027,031-345-2631,031-345-2639,"경기도 의왕시 복지로 109, 4층",hyoh@korea.kr,www.uwlib.or.kr/naeson
141040,파주시립금촌도서관,,10932,031)940-4381,031)940-4385,경기도 파주시 시민회관길 40 (금촌동),kalra116@hanmail.net,pajulib.or.kr/
141041,파주시립문산도서관,,10823,0319408433,0319404382,경기도 파주시 문산읍 개포래로 42,jyjy23@korea.kr,https://lib.paju.go.kr/mslib/index.do
141042,화성시립남양도서관,,18263,0313565241,0313565357,경기도 화성시 남양읍 역골중앙로 143,nlibrarian@hcf.or.kr,www.hscitylib.or.kr/
141043,부천시립심곡도서관,,14751,032-625-4588,032320-3069,경기도 부천시 소사구 성무로 24,hsy0930@korea.kr,http://bcl.go.kr
141044,군포시당동도서관,,15860,031)453-6728,031)390-0634,경기도 군포시 산본로197번길 36,-,http://www.gunpolib.or.kr/
141045,시흥시대야도서관,,14914,031-310-5271,,경기도 시흥시 은행로173번길 14,jeld486@korea.kr,www.shcitylib.or.kr
141046,하남시신장도서관,,12951,031-790-6597,031-790-6599,경기도 하남시 하남대로 740 (신장동),nuigence@hanmail.net,hanamlib.go.kr
141047,안양시립호계도서관,,431-082,031-8045-6261~3,031)389-3899,안양시 동안구 경수대로 685번길 26 (호계동),,http://www.anyanglib.or.kr
141048,화성시립태안도서관,,18362,031)223-4764,031)236-7822,경기도 화성시 화산중앙로 19 (안녕동),-,
141049,파주시립법원도서관,,10826,031)940-4383,031)940-4383,경기도 파주시 법원읍 사임당로 947,jyjy23@korea.kr,pajulib.or.kr/
141050,안산성포도서관,,15293,031)481-2755,031)481-3631,경기도 안산시 상록구 충장로 528,-,http://lib.iansan.net/
141051,안산감골도서관,,15591,031-418-1600,031-418-1602,경기도 안산시 상록구 감골공원안길 16-1,ledyn74@korea.kr,http://lib.iansan.net
141052,성남시 분당도서관,,13606,031-729-4800,031-715-2686,경기도 성남시 분당구 불정로 110,pookaman@korea.kr,http://bd.snlib.go.kr
141053,성남시 중원도서관,,13371,031-752-3913,0317521616,경기도 성남시 중원구 원터로17번길 46,kimmh21@isdc.co.kr,http://jw.snlib.net
141054,세종도서관,,469-107,031-886-5006,031)887-2860,경기도 여주시 영릉로 125,jk3514@korea.kr,http://www.yjlib.go.kr
141055,고양시립마두도서관,,10408,031-8075-9072,031)901-5894,경기도 고양시 일산동구 일산로 355,anawana@korea.kr,http://www.goyanglib.or.kr/
141056,부천시립북부도서관,,14459,032-625-4605,032)320-3755,경기도 부천시 원미구 삼작로301번길 5,-,http://bcl.go.kr
141057,김포시중봉도서관,,10106,0319805186,0319805199,경기도 김포시 봉화로130번길 26 북변동,jungbonglib@korea.kr,lib.gimpo.go.kr/
141059,고양시립원당도서관,,10463,031-8075-9259,031)961-3244,경기도 고양시 덕양구 호국로790번길 87(구 원당제일교회),-,http://www.goyanglib.or.kr/
141060,성남시 수정도서관,,13129,031-743-9600,,경기도 성남시 수정구 수정로332번길 32,-,sj.snlib.go.kr
141061,수원시영통도서관,,16703,031-228-4758,031-228-3756,경기도 수원시 영통구 청명로 151,sehwa80@korea.kr,http://www.suwonlib.go.kr/yt
141062,과천시정보과학도서관,,427-100,02-3677-0801,02-3677-0710,경기도 과천시 중앙로 23,wchjun@gccity.net,http://www.gclib.go.kr/
141064,한아름도서관(수원청소년문화센터내),,16486,031)218-0420,031)218-0404,경기도 수원시 팔달구 권광로 293 (인계동),clearhead73@syf.or.kr,http://www.suwonlib.go.kr/sycc
141065,부천시립꿈빛도서관,,14535,032-625-4622,032)320-3414,경기도 부천시 원미구 신흥로275번길 19,monami@puchonsi.com,http://bcl.go.kr
141066,시흥시중앙도서관,,15035,0313105230,0313105239,경기도 시흥시 정왕대로 191,gsunlight@korea.kr,www.shcitylib.or.kr/
141068,이천시립청미도서관,,17421,031-644-4372,643-0822,경기도 이천시 장호원읍 서동대로8829번길 53-6,iloveall@kg21.net,www.icheonlib.go.kr
141069,성남시립중앙도서관,,13514,031-729-4637,031709-4183,경기도 성남시 분당구 판교로 546,webmaster@sncentrallib.or.kr,http://ct.snlib.go.kr
141070,구리시립인창도서관,,11922,031-550-2936,031-550-2939,경기도 구리시 건원대로34번길 90,glawn1304@guri.go.kr,http://www.gurilib.go.kr
141071,남양주시화도도서관,,12184,031-590-4587,031-590-4588,경기도 남양주시 화도읍 수레로1260번길 33,kyong@nyj.go.kr,http://lib.nyj.go.kr
141072,화정도서관,,412-826,031-8075-9215,031965-5093,경기도 고양시 덕양구 은빛로77번길 8,jinnariza@nate.com,http://www.goyanglib.or.kr/
141073,고양시립백석도서관,,10444,031-8075-9090,031)961-3253,경기도 고양시 일산동구 일산로 118,sunhwa@goyang.go.kr,http://www.goyanglib.or.kr/
141075,의정부정보도서관,,11622,031-828-8700,031-828-8699,경기도 의정부시 의정로 41 (의정부동),admin@uilib.go.kr,www.uilib.go.kr
141076,화성시립삼괴도서관,,18563,031-358-2101,031-358-2102,경기도 화성시 우정읍 쌍봉로 109-26,skycheon@hscity.net,www.hscitylib.or.kr
141077,안양시립석수도서관,,13905,031-8045-6103,031-8045-6533,경기도 안양시 만안구 양화로217번길 34,anyanglib@ayct.net,http://www.anyanglib.or.kr
141078,군포시대야도서관,,15886,031)501-5407,031)390-8675,경기도 군포시 대야2로 139,ejlee29@korea.kr,gunpolib.go.kr
141079,수지도서관,,16841,031-270-8861,,경기도 용인시 수지구 문정로7번길 23,suk@yonginsi.net,lib.yongin.go.kr/suji
141080,광명시광명도서관,,14283,02-2680-5422,02-2680-6531,경기도 광명시 원광명안로 48,karlbn13@korea.kr,http://gmlib.or.kr
141081,꿈을 주는 작은도서관,,425-400,031-481-5611,031-481-5671,경기 안산시 수암동 441-9,gold2002@iansan.net,
141082,파주시 중앙도서관,,10917,031-940-5661,031-940-5649,경기도 파주시 쇠재로 33,jyjy23@korea.kr,www.pajulib.or.kr/
141083,느티나무도서관,,449-170,031-262-3449,031-262-3449,경기 용인시 수지구 동천동 882-3번지,office@neutinamu.org,
141084,평택시립안중도서관,,451-882,031-8024-8344,031-8024-8349,경기도 평택시 안중읍 서동대로 1531,kjo77@pyeongtaek.go.kr,www.ptlib.go.kr
141085,슬기샘어린이도서관,,440-802,031-228-3980,031-228-4454,경기 수원시 장안구 송정로9(송죽동417-23),hanmaum@suwon.ne.kr,http://www.suwonlib.go.kr/skid
141086,지혜샘어린이도서관,,441-886,031-225-6150,031-225-5569,경기 수원시 권선구 동탄원천로 818 (권선동 1310번지),hmpark@swcf.kr,http://www.suwonlib.go.kr/jkid
141087,바른샘어린이도서관,,443-807,031-216-9373,031-217-9935,경기 수원시 영통구 매봉로 10(매탄동 1213),jyyu@swcf.kr,http://www.suwonlib.go.kr/bkid
141088,화성시립병점도서관,,18408,031-226-1822,031-226-1824,경기도 화성시 병점3로 132-6 (병점동),ddun86@hcf.or.kr,www.hscitylib.or.kr/bjlib/html/index.asp
141089,동두천꿈나무정보도서관,,11349,031-860-3281,031-860-2574,경기도 동두천시 지행로 38,jiys0928@hanmail.net,http://dream.ddclib.net
141090,부천예술정보도서관 다감,,420-812,032-326-6923,032-326-6929,경기 부천시 원미구 상1동 복사골문화센터,lib@bcf.or.kr,http://lib.bcf.or.kr
141091,남양주시진건도서관,,472-831,031-590-8260,031-590-2588,경기도 남양주시 진건읍 진건오남로 41-25,library@nyj.go.kr,http://lib.nyj.go.kr
141092,북수원도서관,,16328,031-228-4779,,경기도 수원시 장안구 만석로 65,vista@suwon.ne.kr,http://www.suwonlib.go.kr/buk
141093,서수원도서관,,441-440,031-228-4747,,경기도 수원시 권선구 탑동로 57번길 35,ytheo@suwon.ne.kr,http://www.suwonlib.go.kr/seo
141094,포천시립일동도서관,,11120,031-538-3971,031-538-2975,경기도 포천시 일동면 화동로 1021,hyshin1120@nate.com,lib.pcs21.net
141095,안양시립박달도서관,,13982,031-8045-6194,031-8045-6179,경기도 안양시 만안구 박달로 459,kikokwac@korea.kr,http://www.anyanglib.or.kr
141096,행복한도서관(경기),,421-816,032-679-2907,032-679-2924,경기도 부천시 오정구 상오정로10 (오정동) / 노동복지회관 2층,prajna2@hanmail.net,http://bcl.go.kr
141097,장안구민회관 햇살도서관,,440-715,031-240-3061,031-240-3019,경기 수원시 장안구 조원동 888번지,pug93@hanmail.net,http://jccc.goldis.kr/
141098,양주시립꿈나무도서관,,482-835,031-820-5970,031-820-5979,경기 양주시 백석읍 꿈나무로 199,jhs4533@hanmir.com,http://www.libyj.go.kr/YangJu_child/
141099,안산중앙도서관,,15485,031-481-2753,031-481-3633,경기도 안산시 단원구 안산천남로 14,kyongho@iansan.net,http://lib.iansan.net/main.do
141100,광명옹달샘도서관,,423-806,02-2680-6562,02-2680-6531,광명시 오리로 964번길 26-1,webmaster@gmolib.or.kr,http://gmlib.or.kr
141101,군포시어린이도서관,,15803,031-390-8680,031-390-8676,경기도 군포시 고산로677번길 21,jss0227@hanmail.net,http://www.gunpolib.go.kr
141102,포천시립영중어린이도서관,,487-883,031-538-3981,,경기 포천시 영중면 양문리 833-2,hyshin1120@nate.com,http://lib.pcs21.net
141103,평택시립초록도서관,,17763,031-8024-7451,031-659-4946,경기도 평택시 지산로 48,dlkukwha@hanmail.net,www.ptlib.go.kr
141104,시흥어린이도서관,,429-811,031-310-3961,031-310-3969,경기 시흥시 비둘기공원로 25,kimchi220@hanmail.net,http://www.shcitylib.or.kr/
141105,조종도서관,,477-834,031-580-4302,,경기도 가평군 조종희망로 26번길 22,ownkayoung@hanmail.net,http://www.gaplib.or.kr
141106,경기의정부교육도서관,,480-824,031-836-9583,031-836-9506,경기 의정부시 체육로 265-25,jhpark@goe.go.kr,http://www.ujblib.or.kr/
141107,희망샘도서관,,441-360,031-293-6003,031-293-7366,경기 수원시 권선구 고색동 7필지,sailorwon@hanmail.net,http://www.suwonlib.go.kr/swhope
141108,화홍어린이도서관,,442-180,031-254-2585,031-254-2585,경기 수원시 팔달구 북수동 44-2번지,thdwken@hanmail.net,http://www.suwonlib.go.kr/hwahong
141109,양평어린이도서관,,12562,031-770-2708,,"경기도 양평군 양평읍 양근로 240-9, 어린이도서관",biankasta@nate.com,http://child.yplib.or.kr/main.asp
141110,포곡도서관,,449-814,031-324-4631,031-324-4635,경기 용인시 처인구 포곡읍 삼계리 556-2,yonginlib@yonginsi.net,https://lib.yongin.go.kr/pogok/index.do
141111,오전빛고운도서관,,437-817,031-345-2613,031-345-2633,경기 의왕시 오전동 844-18호,yippjee@naver.com,http://www.uwlib.or.kr
141112,부곡글고운도서관,,437-813,031-345-2612,03-345-2642,경기 의왕시 부곡사장길 81번지,yippjee@naver.com,http://www.uwlib.or.kr
141113,영은 어린이 문고,,423-060,02-892-5669,,경기 광명시 하안동 27-3,comyech@hotmail.com,
141114,광주시 시립도서관,,12761,031-760-5678,031-760-2037,경기도 광주시 문화로 82,nahh125@nate.com,http://lib.gjcity.go.kr/
141115,부천시립책마루도서관,,420-856,032-625-4645,032-320-3469,경기도 부천시 원미구 심중로 121 (중동),sw9949@naver.com,http://bcl.go.kr
141116,오포작은도서관,,464-891,031-760-5695,031-760-1451,경기 광주시 오포읍 고산리 1~250,fug777@nate.com,http://www.gjcity.go.kr
141117,연천도서관,,486-803,031-839-4401,031-839-4409,경기도 연천군 연천읍 차현로 76-7,altarry@korea.kr,library.yeoncheon.go.kr
141118,용인구성도서관,,446-525,031-324-4131~3,031-324-4139,경기도 용인시 기흥구 구성로77번길 17 (언남동 324-1) 구성도서관,guseonglib@yonginsi.net,http://www.yonginlib.or.kr/guseong/
141119,의정부어린이도서관,,480-020,031-828-8605,031-828-8609,경기 의정부시 호원동 319-25,ujlib12@hanmail.net,http://ucl.uilib.net/child/index.jsp
141120,의왕시중앙도서관,,437-800,031-345-3656,031-345-3649,경기 의왕시 고천동 골우물길 49(고천동 159번지),,http://www.uwlib.or.kr
141121,김포시누리봄작은도서관,,415-030,031-980-5197,031-980-5199,경기 김포시 북변동 226-37,momo@gimpo.go.kr,http://lib.gimpo.go.kr/
141122,광명시 평생학습원 평생학습도서관,,432-837,02-2680-6130,02-2619-0567,광명시 철산3동 419번지,webmaster@gmedu.or.kr,https://lll.gm.go.kr/
141123,아람누리도서관,,10409,031-8075-9038,031-931-2022,경기도 고양시 일산동구 중앙로 1286,sunhwa@goyang.go.kr,http://www.goyanglib.or.kr/
141124,주엽어린이도서관,,411-370,031-8075-9168,031-931-2022,경기도 고양시 일산서구 주엽로 104,sunhwa@goyang.go.kr,http://www.goyanglib.or.kr/
141125,고양시 화정어린이도서관,,10501,031-8075-9299,031-931-2022,경기도 고양시 덕양구 화신로 323 (화정동),sunhwa@goyang.go.kr,http://www.goyanglib.or.kr/
141126,행신어린이도서관,,412-220,031-8075-9278,031-931-2022,경기도 고양시 덕양구 소원로181번길 42,sunhwa@goyang.go.kr,http://www.goyanglib.or.kr/
141127,오산시립햇살마루도서관,,447-805,031-370-6160,,경기 오산시 원동 404-8번지 (중앙대로 119),librarian@osan.go.kr,http://www.osanlibrary.go.kr
141128,용문도서관,,476-841,031)770-2709,,경기도 양평군 용문면 다문리 343번지,biankasta@yp21.net,http://www.yplib.or.kr
141129,구갈희망누리도서관,,446-594,031-324-6561,031-324-6562,경기 용인시 기흥구 갈곡로 12번길 1,yonginlib@yonginsi.net,http://www.yonginlib.or.kr/gugal
141130,경기화성교육도서관,,18592,031-369-5725,031-366-2936,경기도 화성시 향남읍 발안로 85-10,hslib@goe.go.kr,www.hslib.or.kr
141131,의정부과학도서관,,11780,031-828-8688,031-828-8649,경기도 의정부시 추동로124번길 52 (신곡동),admin@uilib.go.kr,www.uilib.go.kr
141132,안양어린이도서관,,14076,031-8045-6273,031-389-3865,경기도 안양시 동안구 동안로 66,libnanna@ayct.net,http://www.anyanglib.or.kr/info/child
141133,안산 단원어린이도서관,,425-866,031-481-2678,031-481-3644,경기 안산시 단원구 화정로 30,leeki2u@empal.com,http://lib.iansan.net/main.asp?sitekey=6
141134,안산시립상록어린이도서관,,426-858,031-481-2671,031-481-3643,경기 안산시 상록구 일동 산 70-1 (구룡체육관길 45),hyoyoung@iansan.net,http://lib.iansan.net/
141135,군포시중앙도서관,,15867,031-390-8866,,경기도 군포시 수리산로 79 (산본동),webmaster@gunpolib.or.kr,https://www.gunpolib.go.kr/
141136,퇴계원 푸른꿈도서관,,472-824,031-590-8451,,"경기 남양주시 퇴계원면 퇴계원리 314-15 일석빌딩 B동 4,5층",jinzaro@hanmail.net,http://lib.nyj.go.kr
141137,남양주시별내도서관,,12084,031-590-8808,031-590-8809,경기도 남양주시 별내면 청학로 86-1,libhyo@korea.kr,lib.nyj.go.kr
141138,반달어린이도서관,,443-813,031)201-8349,031-201-8310,경기도 수원시 영통구 영통동 1012-5,lysabc@hanmail.net,http://www.suwonlib.go.kr/bandal
141139,대화도서관,,10370,031-8075-9130,,경기도 고양시 일산서구 일산로 689 (대화동),sunhwa@goyang.go.kr,http://www.goyanglib.or.kr/
141140,한뫼도서관,,10339,031-8075-9115,031-975-1952,경기도 고양시 일산서구 탄중로 284,hpchoi98@korea.kr,www.goyanglib.or.kr/han
141141,경기평생교육학습관,,16557,031-259-1031,031-898-5924,경기도 수원시 권선구 권중로 55,wjstks@goe.go.kr,http://www.gglec.go.kr/
141142,성남시 구미도서관,,13630,031-729-4680,031-729-4689,경기도 성남시 분당구 미금일로 105,dewian@naver.com,http://gm.snlib.net
141143,설악도서관,,12465,031-580-4313,031-580-2329,경기도 가평군 설악면 자잠로 65,ceria02@ga21.net,http://www.gaplib.or.kr
141144,해밀도서관,,14575,032-650-4600,032-612-2949,경기도 부천시 원미구 옥산로10번길 4,haemil@naver.com,www.hmlib.or.kr/
141145,화성시립샘내작은도서관,,445-833,031-292-7307,031-292-7308,경기도 화성시 매송면 매송고색로 375번길,redchachacha@naver.com,http://hscitylib.or.kr/samGuide.do
141146,남양주시 와부도서관,,12212,031-590-8920,031-590-2588,경기도 남양주시 와부읍 월문천로 43,library@nyj.go.kr,http://lib.nyj.go.kr
141147,대주 작은도서관,,464-896,031 -760 -4650,,경기 광주시 오포읍 양벌리 355-1,nahh125@nate.com,
141148,용인디지털정보도서관,,449-070,031-324-4621,031-324-4624,경기 용인시 처인구 중부대로1199,yonginlib@yonginsi.net,http://dlib.yonginlib.or.kr
141149,용인죽전도서관,,16881,"031-324-4616, 4641","031-324-4609, 4645",경기도 용인시 수지구 대지로 89,"yonginlib@yonginsi.net,  television@invil.org",lib.yongin.go.kr/jukjeon
141150,풍동도서관,,10306,031-8075-9148,031-901-8317,경기도 고양시 일산동구 숲속마을로 108,"kimjh@goyang.go.kr, szzanggu@naver.com",www.goyanglib.or.kr/
141151,부천시립한울빛도서관,,14761,032-625-4670,,경기도 부천시 소사구 소사로 107,niysama@naver.com,http://bcl.go.kr
141152,책마을도서관(파주),,413-756,031-955-7567,031-955-7569,경기 파주시 교하읍 문발리 출판문화정보산업단지 498-7,morningreading@gmail.com,http://www.morningreading.org
141153,조안씨앗도서관,,472-872,031-576-1253,031-576-1254,경기도 남양주시 조안면 진중리 85-33,paldang@hanmail.net,http://www.psss.or.kr/
141154,양주시 남면도서관,,11404,031-820-5973,031-820-5979,경기도 양주시 남면 개나리17길 24,jhs4533@hanmir.com,www.libyj.go.kr
141155,충현도서관,,14327,02-2680-6102,02-2680-6113,경기도 광명시 충현로42번길 19,mail.gmclib.or.kr,gmlib.or.kr
141156,교하도서관,,10885,031-940-5151,,경기도 파주시 숲속노을로 256,jyjy23@korea.kr,http://www.gyohalib.or.kr/
141157,그루터기문고,,430-016,031-441-0676,,경기 안양시 만안구 안양7동 143-8호 402호,mcheol21c@hanmail.net,
141158,오산시중앙도서관,,18133,031-370-61,,경기도 오산시 운암로 85,0425hong@hanmail.net,www.osanlibrary.go.kr/
141159,금곡 푸른꿈도서관,,472-809,031-590-2864,031-590-2588,경기 남양주시 금곡동 654-2 금곡동 주민자치센터 5층,jinzaro@nyj.go.kr,http://lib.nyj.go.kr
141160,용인 동백도서관,,17008,031-324-4611,031-324-4609,경기도 용인시 기흥구 동백3로 80 (중동),a@yonginsi.net,www.yonginlib.go.kr/dongbaek/
141161,야탑1동 작은도서관,,463-828,031-729-7836,031-729-7829,경기 성남시 분당구 야탑동 363 야탑1동주민센터 3층,bonbonelly@kg21.net,http://www.bundang-gu.or.kr/dong/default/main/index.asp?dong=야탑1동
141162,상대원3동도서관,,462-809,031-729-6762,031-729-6779,경기 성남시 중원구 상대원3동 856번지,jayeon94@naver.com,
141163,금광2동 작은도서관,,462-804,031-729-6859,031-729-6679,경기 성남시 중원구 금광2동 3657 금광2동 주민센터내,jayeon94@naver.com,
141164,태평1동 작은도서관,,13110,031-729-5993,,경기도 성남시 수정구 모란로 88,bonbonelly@kg21.net,.
141165,수내작은도서관,,463-838,031-729-7635,031-729-7629,경기 성남시 분당구 내정로 173번길 21 수내1동 주민센터,hyrbest@cans21.net,
141166,이천시립어린이도서관,,467-030,031-644-4382,031-644-4369,경기도 이천시 남천로 31,moony79@korea.kr,http://www.icheonlib.go.kr
141167,태평3동 작은도서관,,461-190,031-729-5936,031-729-5709,경기 성남시 수정구 태평동 3752-1,choisil34@yahoo.co.kr,
141169,김포시통진도서관,,10016,031-996-0750,031-996-0757,경기도 김포시 통진읍 조강로 132,tongjinlib@guc.or.kr,www.gimpo.go.kr/lib/main.do
141170,화성시립두빛나래어린이도서관,,18431,031-8003-0748,031-8003-0749,경기도 화성시 동탄숲속로 69-14 (능동),nalala0307@nate.com,www.hscitylib.or.kr
141171,하남시나룰도서관,,12927,031-790-6887,031-790-6599,경기도 하남시 덕풍북로 180 (덕풍동),chochr@korea.kr,www.hanamlib.go.kr
141172,포천시립소흘도서관,,11176,031-538-3951,031-538-3957,경기도 포천시 소흘읍 송우로 101-29,pcgg0000@korea.kr,lib.pocheon.go.kr/sh
141173,성지작은도서관,,448-978,010-7388-8698,031-265-7251,경기도 용인시 수지구 풍덕천 2동 신정마을 성지아파트 관리동 3층,fortystart@hanmail.net,http://cafe.daum.net/hohomanse/
141174,오산시 양산도서관,,18105,031-370-6157,031-370-3578,경기도 오산시 양산로410번길 34,lay18@korea.kr,www.osanlibrary.go.kr/
141175,남양주시 평내도서관,,12227,031-590-8560,031-590-8559,경기도 남양주시 의안로 134,coco1209@korea.kr,http://lib.nyj.go.kr
141176,남양주시 오남도서관,,12045,031-590-8531,031-590-8549,경기도 남양주시 오남읍 양지로240번길 12,libstory@live.co.kr,http://lib.nyj.go.kr
141177,산북작은도서관,,12603,031-881-0693,031-881-0694,경기도 여주시 산북면 상품로 113 산북복지회관 3층,ohey@korea.kr,http://www.yjlib.go.kr
141178,구리시교문2동 작은도서관,,471-022,031-550-2685,,경기도 구리시 장자대로 34,gurilib@guri.go.kr,http://www.gurilib.go.kr
141179,거북도서관,,413-863,031-954-1245,031-954-1244,경기도 파주시 파주읍 연풍3리 351,gbdsk@hanmail.net,http://blog.naver.com/gbdsk
141180,구리시 수택 작은도서관,,471-030,031-550-2853,,경기도 구리시 체육관로 74,gurilib@guri.go.kr,http://www.gurilib.go.kr
141181,양주시 봉암작은도서관,,482-862,031-866-8786,031-866-8786,경기도 양주시 은현면 봉암리 187-2(봉암길33),hbh1004@korea.kr,http://www.libyj.go.kr/YangJu_bongam/
141182,도란도란 작은도서관(고강본동),,421-802,032-679-9702,032-679-9707,경기도 부천시 오정구 고리울로 79 (고강본동) / 고강복지회관3층,mynameyun1@hanmail.net,http://bcl.go.kr
141183,고리울꿈터 작은도서관,,421-191,032-677-7998,032-677-4998,경기도 부천시 오정구 고강로72번길 8 (고강동) / 고강1동 주민센터 1층,mseon80@yahoo.co.kr,http://bcl.go.kr
141185,민들레홀씨 작은도서관,,420-033,032-322-9702,032-322-9802,경기도 부천시 원미구 상동로117번길 48 (상동)/ 상3동 주민센터 3층,mijini1645@hanmail.net,http://bcl.go.kr
141186,복사꽃필무렵작은도서관,,422-240,032-665-6053,032-665-6064,경기도 부천시 소사구 심곡로9번길 54 (심곡본동) / 심곡복지회관 3층,doji77@hanmail.net,http://bcl.go.kr
141187,주암 작은도서관,,427-070,02-3463-1801,02-3463-1802,경기 과천시 주암동 67-11,namul@gccity@kr,http://www.gcedu.go.kr/
141188,반월작은도서관,,426-200,031-481-2663,031-481-2664,경기 안산시 상록구 팔곡일동 264-6,library@iansan.net,http://lib.iansan.net
141189,안산다문화작은도서관,,425-850,031-481-2661,031-481-2662,경기 안산시 단원구 원곡동 991-1 외국인주민센터 지하1층,library@iansan.net,http://lib.iansan.net
141190,사2동꿈을키우는 작은도서관,,426-170,031-417-2707,031-417-2707,경기 안산시 상록구 사동 1472-13,library@iansan.net,http://lib.iansan.net
141191,신길샛별작은도서관,,425-774,031-492-2707,031-492-2707,경기 안산시 단원구 신길동 삼익아파트 종합복지관3층,library@iansan.net,http://lib.iansan.net
141192,관인 작은도서관,,487-936,031-538-3919,,경기 포천시 관인면 탄동리 644-8,mint3@pcs21.net,
141193,선단 작은도서관ⓧ,,487-020,031-538-3885,,경기 포천시 선단동 27-4,mint3@pcs21.net,
141194,신북작은도서관,,487-910,031-531-7935,,경기 포천시 신북면 심곡리 300-1번지 심곡리복지회관 2층,mint3@pcs21.net,
141195,이동작은도서관,,487-863,031-538-2829,,"경기 포천시 이동면 장암리 236-9,-13",mint3@pcs21.net,
141196,소나무 푸른 작은도서관,,420-845,032-666-1566,,경기도 부천시 원미구 부일로 342 (중동) / 중동 주민센터 4층,toya07@naver.com,http://bcl.go.kr
141197,꿈나무가족도서관 (작은도서관),,422-090,032-345-5919,032-345-5919,경기도 부천시 소사구 부광로8번길 53 (괴안동) / 역곡3동 주민센터 4층,rainbowfleur@naver.com,http://bcl.go.kr
141198,사랑나무가족도서관 (작은도서관),,420-850,032-661-3034,032-331-3031,경기도 부천시 원미구 계남로 336 (중2동) / 근로자종합복지관 2층,lovetreelib@hanmail.net,http://bcl.go.kr
141199,월곶도서관,,429-834,031-310-4770,031-310-5239,경기 시흥시 월곶동 1012,sakira@korea.kr,
141200,햇빛마을 작은도서관,,412-720,031-972-9955,031-972-9956,경기 고양시 덕양구 충장로152번길 39 관리사무소 2층 (행신3동 햇빛마을20단지아파트 관리소 2층),hyemi77@hanmail.net,
141201,감나무골 작은도서관,,429-300,031-403-0110,031-403-0196,경기 시흥시 조남동 산 9-19,dream-k2000@hanmail.net,http://www.mokgam.or.kr
141202,관산 작은도서관,,412-802,031-962-1969,,경기 고양시 덕양구 관산동 238-1 관산주민센터2층 관산 작은도서관,supercat77@hanmail.net,
141203,고양동 걸어다니는도서관 (작은도서관),,412-801,031-963-4321,,경기 고양시 덕양구 고양동 235-1 고양동 걸어다니는 도서관,silver-sim@hanmail.net,
141204,민들레 작은도서관(정왕동),,429-450,031-434-8040,031-434-8044,경기 시흥시 정왕동 1878-11,tkdal0519@hanmail.net,http://www.sangsaengwc.or.kr/
141205,백암작은도서관,,449-862,031-334-0094,031-324-5798,경기 용인시 처인구 백암면 백암리 495-3번지,23012492@hanmail.net,
141206,햇살이가득한도서관 (작은도서관),,420-822,032-652-3172,032-652-3172,경기도 부천시 원미구 부흥로424번길 25 (심곡동) / 심곡2동 주민센터 1층,ljihye1030@daum.net,http://bcsl.go.kr
141207,푸른마을 작은도서관,,412-500,031-962-6996,031-962-1059,경기 고양시 덕양구 고양동 724 푸른마을6단지 관리사무소 3층 도서관,seomi0920@hanmail.net,
141208,꿈나무 작은도서관,,429-450,031-319-6195,031-310-5239,경기 시흥시 정왕동 1800-8,sakira@korea.kr,http://www.jwwc.net/
141209,우리동네 작은도서관(시흥시),,429-824,031-313-6249,031-310-5239,경기 시흥시 신천동 882-3,sakira@korea.kr,http://www.jakunjari.or.kr/
141210,학미숲 작은도서관,,429-871,031-316-1331,031-310-5239,경기 시흥시 포동 20-33,sakira@korea.kr,http://www.siheung.go.kr/city/main.do?method=mainView&siteCmsCd=CM0398&grp=4
141211,약대신나는 가족도서관 (작은도서관),,420-830,032-682-5800,032-675-7800,경기도 부천시 원미구 수도로 44 (약대동) / 약대동 주민센터 3,iojung@hanmail.net,http://bcl.go.kr
141212,반딧불이도서관 (작은도서관),,448-535,031-302-3121,031-309-0052,경기 용인시 수지구 신봉동 효성아파트403동1층,ldh56484@naver.com,http://cafe.daum.net/sinbongfirefly/
141213,태산아파트 작은도서관,,456-716,031-618-0084,031-652-5572,경기 안성시 공도읍 용두리 태산아파트 683,jlm2047@naver.com,http://www.apl.go.kr/
141214,청계참고운도서관,,437-120,031-345-2686,,경기 의왕시 포일동 602-15번지 청계동주민센터,wiil@korea.kr,http://uwlib.or.kr
141215,꿈꾸는 새싹 작은도서관,,421-814,032-677-0162,032-677-0107,경기도 부천시 오정구 성오로149번길 18 (오정동)/원종종합사회복지관 3층,c_art@hanmail.net,http://bcl.go.kr
141216,대화마을 작은도서관,,411-765,031-924-0467,031-924-0469,경기 고양시 일산서구 대화동 대화마을5단지아파트 5단지관리사무소 1층,ma1969@hanmail.net,
141217,양지해밀도서관 (작은도서관),,449-823,031-338-9095,031-334-5042,경기 용인시 처인구 양지면 양지리 364-1,ksj0422@korea.kr,
141218,김포시고촌 작은도서관ⓧ,,415-810,031-980-5189,,경기 김포시 고촌읍 신곡리 526-2,gingers@korea.kr,http://lib.gimpo.go.kr
141219,장미도서관 (작은도서관),,446-572,031-285-7775,031-286-2418,경기 용인시 기흥구 언남동 삼성래미안2차아파트 장미도서관,hyun_jung@naver.com,http://www.roselibrary.com
141220,"꿈샘도서관 (작은도서관, 용인시)",,446-710,031-679-6959/010-2344-6424,031-289-2025,경기도 용인시 기충구 동백동 백현마을 주공아파트9단지 관리동 2층,gembira@hanmail.net,http://cafe.daum.net/bhdream
141221,책속애도서관 (작은도서관),,448-170,070-7108-2542,,경기 용인시 수지구 풍덕천동1070-2번지 202호,cbyhoon@hanmail.net,
141222,상현작은도서관,,448-131,031-262-3910,031-262-3910,경기 용인시 수지수 상현1동 주민센터내,traveler68@habmail.net,http://hyyp://sh-dong.or.kr
141223,자이행복한 도서관 (작은도서관),,448-130,031-8001-8877,031-276-3565,경기도 용인시 수지구 상현동 만현마을 엘지자이관리사무소 2층,lgshin@naver.com,http://xihappy.winbook.kr/
141224,꿈모아 도서관 (작은도서관),,446-720,031-693-2291,031-693-2293,경기 용인시 시흥구 동백동 백현마을모아미래도아파트 2401-2410,leesy1000@naver.com,http://cafe.naver.com/librarymoa.cafe
141225,구리시 토평도서관,,11961,031-550-8695,,경기도 구리시 장자대로 140,gurilib@guri.go.kr,http://www.gurilib.go.kr
141226,중원청소년수련관 작은도서관,,462-839,031-750-4637,031-750-4635,경기도 성남시 중원구 하대원동 240번지(둔촌대로 332),ahj1962@hanmail.net,http://jwyouth.or.kr
141227,굿모닝 작은도서관,,448-710,031-889-2619,,경기 용인시 수지구 동천동 동문굿모닝힐5차아파트 504동 1층,hmichaela@hanmail.net,
141228,학마을작은도서관(연천군),,486-881,031-839-4408,031-839-4419,경기도 연천군 백학면 청정로 534,themania@korea.kr,http://lib.iyc21.net
141229,분당정자청소년수련관작은도서관,,463-811,031-783-4300,031-783-4307,경기 성남시 분당구 정자동 6-1 정자청소년수련관,dreams99@naver.com,http://www.tenten21.or.kr
141230,탄현 작은도서관(고양시),,411-839,031-915-8875,031-915-8875,경기도 고양시 일산서구 탄현동 121 큰마을대림현대아파트 관리사무소 지하1층 도서관,yippoyo@hanmail.net,
141231,성남시 판교도서관,,13477,031-729-4580,,경기도 성남시 분당구 운중로225번길 37,SNLIB@korea.kr,http://pg.snlib.net
141232,해오름도서관,,448-171,031-324-8612,031-261-4820,경기 용인시 수지구 풍덕천1동 주민센타,광희1454@hanmail.net,
141233,화성시립 봉담도서관,,18316,031-227-7281,031-227-2392,경기도 화성시 봉담읍 샘마을1길 8-4,sodasu911@naver.com,hscitylib.or.kr/bdlib/index.jsp
141234,다산문고,,469-856,070-8831-9403,02-6280-4507,경기 여주군 여주읍 현암리 이안아파트 101-102,elib@bookorea.com,http://cafe.naver.com/smalllib
141235,곤지암도서관,,12804,031-760-5666,031-760-1453,경기도 광주시 곤지암읍 곤지암로11번길 47,fug777@nate.com,http://lib.gjcity.go.kr
141236,오포도서관,,464-891,031-760-5695,031-760-1451,경기 광주시 오포읍 고산리 1~250,fug777@nate.com,http://lib.gjcity.go.kr
141237,의왕시 글로벌도서관,,16051,031-345-3691,031-345-3699,"경기도 의왕시 보식골로 30-10, 3층 (오전동, 어린이랜드)",shami87@korea.kr,www.uwlib.or.kr/global
141238,술이홀작은도서관ⓧ,,413-860,031-940-5082,031-943-8167,경기 파주시 파주읍 파주리 146-1 파주읍사무소2층 도서관,,
141239,용인기흥도서관,,16960,031-324-4484,031-324-4489,경기도 용인시 기흥구 기흥로116번길 10,kkanguj@korea.kr,https://lib.yongin.go.kr/giheung/index.do
141240,수동작은도서관,,472-852,031-590-2864,,경기 남양주시 수동면 입석리 415,jinzaro@korea.kr,
141241,화성시립둥지나래어린이도서관,,18600,031-353-8162,031-353-7329,경기도 화성시 향남읍 행정중앙2로 88,lalamia@naver.com,www.hscitylib.or.kr
141242,파주적성도서관,,10803,031-940-5641,,경기도 파주시 적성면 청송로 1013,jyjy23@korea.kr,www.pajulib.or.kr/jslib/
141243,광탄작은도서관,,413-854,031-940-8549,,경기 파주시 광탄면 혜음로 1044번지 광탄면사무소 2층,gpgp79@paju.go.kr,http://www.pajulib.or.kr
141244,월롱작은도서관ⓧ,,413-812,031-940-5043,031-940-5929,경기 파주시 월롱면 휴암로 9 월롱면사무소 2층,gpgp79@paju.go.kr,http://www.pajulib.or.kr
141245,시흥시군자도서관,,15068,031-310-5191,031-310-5199,경기도 시흥시 군자로 499,kheasoon@korea.kr,http://www.shcitylib.or.kr
141247,기아행복마루 작은도서관,,445-953,031-358-2597,,경기 화성시 우정읍 화산리 617-14 기아카렌스센터 4층,sodasu911@naver.com,
141248,부천시립꿈여울도서관,,14474,032-625-4688,,경기도 부천시 오정구 까치로 103,blueacard@korea.kr,http://bcl.go.kr
141249,꿈누리작은도서관,,445-984,031-203-3942,,경기 화성시 반월동 신영통현대4차아파트 관리사무소,kynan@hanmail.net,
141250,청산작은도서관,,486-851,031-835-3644,031-835-3644,경기도 연천군 청산면 아우라지길 9,ohsook33@hanmail.net,http://lib.iyc21.net
141251,파주시조리도서관,,413-823,0319442945,,경기 파주시 조리읍 봉일천리 266-113,hybae@garamlib.or.kr,www.pajulib.or.kr
141252,부곡도서관,,15302,031-481-3602,031-408-0506,"경기도 안산시 상록구 성호로 333, 부곡도서관 (부곡동)",pasiune@korea.kr,http://lib.iansan.net
141253,석수골작은도서관,,425-142,031-481-2707,,경기 안산시 단원구 선부2동 1159번지 (와동 제1공원 내),library@iansan.net,
141254,햇살마루작은도서관,,445-991,031-369-6181,,경기 화성시 기안동 광도와이드빌아파트 햇살마루작은도서관,seobong@hscity.net,
141255,서현청소년수련관 작은도서관,,463-819,031-781-6184,031-781-6158,경기도 성남시 분당구 서현동 312-5,oscar97@hanmail.net,http://uth.or.kr
141256,한솔작은도서관,,463-833,031-8022-1177,031-8022-1199,경기 성남시 분당구 정자동 101 한솔작은도서관,hansollib@hanmail.net,http://www.hansolwelfare.or.kr
141257,하늘달팽이도서관,,13136,070-8861-0574,031-746-1833,경기도 성남시 수정구 양지로35번길 4 양지동제1복지관(양지동),vlwltja@naver.com,http://cafe.naver.com/dalpengi/
141258,성남시 중원어린이도서관,,462-242,031-729-4350,031-729-4599,경기 성남시 중원구 산성대로408번길 42,snlib@korea.kr,http://cjw.snlib.net
141259,자이행복한문고,,448-529,031-8001-8877,031-276-3564,경기 용인시 수지구 상현2동 만현마을9단지LG자이 관리소 2층 자이행복한 도서관,limbsda@naver.com,http://xihappy.winbook.kr
141260,시흥시능곡도서관,,14994,031-310-2551,031-310-2569,경기도 시흥시 능곡중앙로 85,shm5050@korea.kr,http://www.shcitylib.or.kr
141261,양평양서친환경도서관,,476-824,031-770-2591,031-770-2824,경기 양평군 양서면 용담리 535-1,omuzz@korea.kr,http://www.yplib.or.kr
141262,파평작은도서관ⓧ,,413-881,031-940-5043,031-940-5929,경기 파주시 파평면 금파리 296-17,gpgp79@korea.kr,
141263,안양시립비산도서관,,13922,"031-8045-6243, 6237",031-8045-6239,경기도 안양시 동안구 관악대로 123,canaria0315@korea.kr,http://www.anyanglib.or.kr
141264,오산시초평도서관,,18125,031-370-6157,,경기도 오산시 발안로 1353-11 (누읍동),lay18@korea.kr,www.osanlibrary.go.kr/chopyeong/main.do
141265,호평작은도서관,,472-120,031-590-2864,,경기 남양주시 호평동 669,jinzaro@korea.kr,
141266,김포시대곶작은도서관,,10097,031-980-5189,,경기도 김포시 김포대로926번길 14 (북변동),gingers@korea.kr,http://lib.gimpo.go.kr
141267,탄현작은도서관(파주시),,413-841,031-946-0350,031-940-5929,경기 파주시 탄현면 법흥리 1590번지 마을회관 2층,tan-lib@hanmail.net,http://www.pajulib.or.kr
141268,금곡작은도서관,,413-873,031-940-5043,031-940-5929,경기 파주시 법원읍 금곡리 336-5 금곡초교내1층,gppg79@korea.kr,http://www.pajulib.or.kr
141269,작은도서관 지혜의등대,,483-030,031-860-3286,031-860-2574,경기 동두천시 생연동 70번지 종합운동장 앞,경기 동두천시 생연동 70번지 종합운동장 앞,
141270,고매2통 작은도서관,,446-901,070-4176-3669,031-324-6269,경기도 용인시 기흥구 고매동 692-1,gay960@korea.kr,
141271,금화작은도서관,,446-761,031-309-9042,031-274-9057,경기 용인시 기흥구 상갈동 금화마을주공4단지 관리사무소 2층,eunmi6748@naver.com,http://cafe.naver.com/goldlibrary.cafe
141272,이던책나무 작은도서관,,446-908,031-211-6527,,경기 용인시 기흥구 영덕동 963 흥덕마을 9단지,oharuyuki@paran.com,http://booktree.winbook.kr
141273,밤토실어린이작은도서관,,448-110,031-896-5361,031-896-5312,경기 용인시 수지구 고기동 200,yjp0111@naver.com,http://cafe.naver.com/bamtosilibrary/
141274,서농동 작은도서관,,446-906,031-324-6695,031-324-6689,"경기 용인시 기흥구 서천동 335-2, 2층 서농동주민센터",kocham20@korea.kr,
141275,영덕신일문고,,446-741,031-286-0087,,경기 용인시 기흥구 영덕동 신일아파트 관리동 2층,springchoi@naver.com,
141276,그루터기도서관,,446-758,031-693-5245,031-693-5246,경기도 용인시 기흥구 공세동 한보라마음휴먼시아9단지아파트 관리동,bljs1004@korea.com,
141277,푸른솔작은도서관,,463-400,031-8017-2208,,경기 성남시 분당구 삼평동 못들마을4단지,http://cafe.daum.net/bottle4?t__nil_cafemy=item,http://amjjys@hanafos.com
141278,순사랑어린이도서관,,448-556,031-262-2607,031-262-2669,경기 용인시 수지구 풍덕천2동 1150-1,gaul-cosmos@hanmail.net,http://cafe.daum.net/fgsj/
141279,서울시 광진구 중곡1동 새마을문고,,143-221,02-461-9058,02-498-5823,서울시 광진구 중곡1동 새마을문고,zkqhekdk@nate.com,
141280,시흥시정왕어린이도서관,,15052,031-310-5181,031-310-5189,경기도 시흥시 정왕시장길 45,shm5050@korea.kr,http://www.shcitylib.or.kr
141281,도촌동작은도서관,,462-080,031-729-6802,031-729-6809,경기 성남시 중원구 도촌동 633번지(도촌북로 28),seungae@korea.kr,
141282,양동도서관,,476-881,031-770-2724,031-770-2819,경기 양평군 양동면 쌍학리 181-3,kwak60@yp21.net,http://www.yplib.or.kr
141283,동탄복합문화센터 도서관,,445-160,031-8015-8200,031-8015-8229,경기도 화성시 노작로 134,mapsosa99@hanmail.net,http://www.hscitylib.or.kr
141284,새싹작은도서관(금곡동),,472-010,031-590-8993,,경기 남양주시 금곡동 754-5 마을공동회관 1층,rang@korea.kr,http://www.nyj.go.kr
141285,나래울도서관,,445-320,031-8015-7423,031-8015-4705,경기 화성시 능동 1130번지 화성시복합복지타운 나래울,dingkk@nate.com,http://www.narewul.or.kr
141286,청평도서관,,12452,031-580-4330,031-580-2479,경기도 가평군 청평면 은고개로 31,khk960526@korea.kr,www.gaplib.or.kr
141287,해밀도서관ⓧ,,420-851,032-612-2950,032-612-2949,경기도 부천시 원미구 중2동 1118,seul0409@bcs.or.kr,http://www.hmlib.or.kr/
141288,당정문화도서관,,435-870,031-390-8744,031-390-8745,경기 군포시 당정동 969-2,ok3370@korea.kr,
141289,안성시립보개도서관,,456-872,031-678-5330,031-678-5339,경기 안성시 보개면 양복리 238-1,jkong@korea.kr,http://www.apl.go.kr
141290,안성시립공도도서관,,17560,031-678-3220,031-678-3229,경기도 안성시 공도읍 공도5로 26,jkong@korea.kr,http://www.apl.go.kr
141291,부영아파트 작은도서관,,456-727,031-618-0089,,경기 안성시 공도읍 만정리 부영아파트 관리사무소 2층,jkong@korea.kr,http://www.apl.go.kr
141292,송정아파트 작은도서관,,456-728,031-618-0064,,경기 안성시 공도읍 양기리 송정아파트 관리사무소 2층,jkong@korea.kr,http://www.apl.go.kr
141293,주은풍림아파트 작은도서관,,456-714,031-618-0062,,경기 안성시 공도읍 용두리 주은풍림아파트 관리사무소 1층,jkong@korea.kr,http://www.apl.go.kr
141294,안성시립일죽도서관,,456-915,031-678-3230,,"경기도 안성시 일죽면 금일로 433 , 4층",sunjung8524@naver.com,www.apl.go.kr
141295,죽산작은도서관,,456-894,031-677-7941,,경기 안성시 죽산면 죽산리 471-6,jkong@korea.kr,http://www.apl.go.kr
141296,삼죽작은도서관,,456-882,031-671-7940,,경기 안성시 삼죽면 내강리 46-2,jkong@korea.kr,http://www.apl.go.kr
141297,구미동임시도서관,,,031-717-0544,031-729-4599,경기도 성남시 분당구 구미동224,jbl0301@nate.com,
141298,고대산병영도서관,,486-859,031-839-4411,,경기 연천군 신서면 대광리 사서함 106-2~106-20,themania@korea.kr,
141299,문산행복어린이도서관,,10813,031-940-5044,,"경기도 파주시 문산읍 통일로 1680, 3층",jyjy23@korea.kr,www.pajulib.or.kr/hclib/
141300,장흥작은도서관,,11523,031-820-5975,031-820-5979,경기도 양주시 장흥면 호국로 470,hbh1004@korea.kr,www.libyj.go.kr
141301,태장마루도서관,,16686,031-228-4823,031-228-3757,경기도 수원시 영통구 태장로 46,tuerkis@korea.kr,
141302,강하작은도서관,,476-922,010-8316-4418,,경기 양평군 강하면 운심리 48-11,key4418@naver.com,
141303,서종작은도서관,,476-813,010-2290-9131,,경기 양평군 서종면 문호리 764-1,sky00999kr@naver.com,
141304,호도애도서관,,463-839,031-704-7898,031-704-7898,경기 성남시 분당구 야탑동 517번지,hodoe1318@hanmail.net,http://www.hodoe.com
141305,책이랑도서관,,13224,031-732-7004,031-735-5515,"경기도 성남시 중원구 박석로25번길 44-10, 책이랑도서관 (상대원동)",chek1996@hanmail.net,
141306,아름널도서관,,13532,031-8016-0453,031-8016-0454,경기 성남시 분당구 판교역로 102 아름널도서관,star1219@hanmail.net,
141307,푸른어린이도서관,,13123,031-749-3690,031-749-3630,"경기도 성남시 수정구 수정남로 333, 1층 (산성동)",pu3690@daum.net,
141308,푸른마을 작은도서관(경기 성남시),,463-781,031-711-9164,,경기 성남시 분당구 수내동 푸른마을쌍용아파트 603동 앞 푸른마을도서관,song2171@hanmail.net,
141309,물푸레작은도서관,,462-240,031-736-5659,031-743-0615,경기도 성남시 중원구 광명로 357-1 2층 물푸레작은도서관,snwm2000@hanmail.net,
141310,래미안금광도서관,,462-240,031-734-0923,031-734-0974,경기 성남시 중원구 금광2동2500번지 삼성래미안아파트103동1층,lya3713@naver.com,
141311,책마을도서관(성남),,462-831,031-731-7062,,경기 성남시 중원구 은행2동 959-1번지 2층,hoparg@naver.com,http://blog.naver.com/book9591
141312,예꿈작은도서관,,13222,070-4102-0675,031-748-5329,경기도 성남시 중원구 둔촌대로413번길 42-1 성남산성교회 2층,rlawhghl@naver.com,
141313,아름드리새마을문고,,463-817,031-705-0612,031-704-2599,경기 성남시 분당구 야탑동 176 목련마을 대원빌라 관리사무실지하,lks5560@naver.com,
141314,시흥시신천도서관,,429-831,031-310-2570,,경기 시흥시 신천동 765-5,dotory70@korea.kr,http://www.shcitylib.or.kr
141315,부천시립동화도서관,,14596,032-625-4650,032-625-4652,경기도 부천시 장말로 107 상동,narae93@korea.kr,
141316,시흥시소래빛도서관,,14908,031-310-5241,031-310-5259,경기도 시흥시 비둘기공원로 25,-,http://www.shcitylib.or.kr
141317,지평도서관,,476-874,031-770-2561,,경기 양평군 지평면 지평리584.1,kwak60@yp21.net,http://www.yplib.or.kr
141318,평택시립매봉작은도서관,,450-150,031-659-4938,,경기 평택시 비전동 819-2,antaria77@ptcity.net,
141319,송탄작은도서관,,459-080,031-659-4938,,경기 평택시 칠원동 72-1,(E-MAIL) antaria77@ptcity.net,
141320,서정작은도서관,,459-010,031-659-4938,,경기 평택시 서정동 876-1,antaria77@ptcity.net,
141321,부천시립상동도서관,,14594,032-625-4705,,경기도 부천시 원미구 상이로 12,ujin0425@korea.kr,http://sangdong.bcl.go.kr
141322,해밀마을작은도서관,,472-861,031-590-8252,031-590-8259,경기 남양주시 진접읍 금곡리 1107번지 부영아파트 단지내,jiblis@korea.kr,
141323,양주시 고읍도서관,,11492,031-8082-7440,031-8082-7409,경기도 양주시 고읍남로 207,hbh1004@korea.kr,www.libyj.go.kr/guLibMain.do
141324,화도다문화도서관,,472-843,031-594-5821,,경기 남양주시 화도읍 녹촌리 495-29 외국인근로자복지센터 3층,youmil@hanmail.net,
141325,동백 작은도서관,,446-911,031-282-1988,031-693-6286,경기 용인시 기흥구 동백동 597-2 동백교회,sevenace@naver.com,
141326,해솔도서관,,10893,031-940-5653,031-940-5149,경기도 파주시 해솔로 34,jyjy23@korea.kr,www.pajulib.or.kr
141327,안산시 일동도서관,,426-858,031-481-3706,031-481-3632,경기 안산시 상록구 일동 110-5,) vernal03@korea.kr,http://lib.iansan.net
141328,문원도서관,,13827,02-2150-3080,02-507-8623,경기 과천시 문원로 104(문원동),libhyun@korea.kr,http://www.gclib.go.kr/MW/
141329,이동면 작은도서관,,449-832,070-8186-5700,,경기 용인시 처인구 이동면 송전리 1228 송전복지회관(3층),dragonet0200@nate.com,
141330,신흥1동 작은도서관,,461-161,031-721-9561,031-729-4599,경기 성남시 수정구 신흥1동 5055,jbl0301@korea.kr,
141331,여주도서관,,12636,031-885-4242,031-885-2599,경기도 여주시 여양로 190-17,ohey@korea.kr,www.yjlib.go.kr
141332,세마작은도서관,,447-280,031-370-6158,,경기 오산시 금암동 396,deuxsj2000@korea.kr,
141333,포천시립중앙도서관,,11140,031-538-3912,,경기도 포천시 신북면 중앙로207번길 26,hyejeongkim@korea.kr,lib.pcs21.net
141334,서호가족도서관,,442-150,031-228-4802,,경기 수원시 팔달구 화서동 410-6 서호 생태수자원센터 관리동 2층,902bear@korea.kr,http://seoho.suwonlib.go.kr
141335,구리시 갈매동 작은도서관,,471-080,031-550-2957,031-550-8326,경기 구리시 갈매동 256-14(산마루로 1),gurilib@guri.go.kr,http://www.gurilib.go.kr
141336,구리시 인창동 작은도서관,,471-010,031-550-2852,031-550-8326,경기도 구리시 동구릉로 53번길 34,gurilib@guri.go.kr,http://www.gurilib.go.kr
141337,구리시 수택1동 작은도서관,,471-031,031-550-8495,031-550-8326,경기도 구리시 검배로 93번길 35,gurilib@guri.go.kr,http://www.gurilib.go.kr
141338,푸른어린이도서관(안양),,430-801,031-464-0815,0303-0400-7934,경기 안양시 만안구 박달1동 68-35번지 2층 푸른어린이도서관,sn0609@hanmail.net,
141339,에코타운어린이문고,,465-030,031-777-0510,031-777-0512,경기 하남시 신장동 562번지 에코타운 1단지,clo2@korea.kr,
141340,아낌없이주는나무,,465-010,031-795-5667,031-794-6343,경기 하남시 덕풍동 394-1 하남프라자 501호,clo2@korea.kr,
141341,꿈자람작은도서관,,465-010,031-796-6694,,경기 하남시 덕풍동 823번지 풍산아이파크 1단지,clo2@korea.kr,
141342,에코타운C블럭도서관,,465-030,031-777-0530,,경기 하남시 신장동 560번지 에코타운 303동 지하,clo2@korea.kr,
141343,동화나무어린이도서관,,435-010,031-390-7662,031-390-8867,경기 군포시 당동 871-1,lshlib@korea.kr,http://www.gunpolib.or.kr
141344,LG신산본자이2차문고,,435-870,031-427-0121,031-390-8867,경기 군포시 당정동 973-1,lshlib@korea.kr,http://www.gunpolib.or.kr
141345,갈릴리공부방문고,,435-826,031-454-0507,031-390-8867,경기 군포시 금정동 725-3,lshlib@korea.kr,http://www.gunpolib.or.kr
141346,군포새마을문고,,435-040,031-399-4325,031-390-8867,경기 군포시 산본동 1146-9,lshlib@korea.kr,http://www.gunpolib.or.kr
141347,율곡마을문고,,435-856,03-344-5959,031-390-8867,경기 군포시 오금동 876,lshlib@korea.kr,http://www.gunpolib.or.kr
141348,사랑이있는문고,,435-050,031-429-0400,031-390-8867,경기 군포시 금정동 748-46,lshlib@korea.kr,http://www.gunpolib.or.kr
141349,큰꿈어린이도서관,,435-050,03-456-0243,031-390-8867,경기 군포시 금정동 716-21,lshlib@korea.kr,http://www.gunpolib.or.kr
141350,새롬 모든이의 작은 도서관,,435-010,031-394-9183,031-390-8867,경기 군포시 당동 906-1,lshlib@korea.kr,http://www.gunpolib.or.kr
141351,당정성원독서실,,435-871,031-427-4438,031-390-8867,경기 군포시 당정동 997-1,lshlib@korea.kr,http://www.gunpolib.or.kr
141352,대야미e*편한세상아파트도서관,,435-060,031-505-5626,031-390-8867,"경기 군포시 대야미동 33블럭 3,4,5롯트",lshlib@korea.kr,http://www.gunpolib.or.kr
141353,무지개작은도서관(군포),,435-050,031-396-9016,031-390-8867,경기 군포시 금정동 872-6 세종교육센터 3~4층 (무지개교회),lshlib@korea.kr,http://www.gunpolib.or.kr
141354,해오름문고,,435-010,031-398-9806,031-390-8867,경기 군포시 당동 979-1,lshlib@korea.kr,http://www.gunpolib.or.kr
141355,우리마을도서관,,435-848,031-394-9101,031-390-7659,경기 군포시 산본1동 1056-1 A301,lshlib@korea.kr,http://www.gunpolib.or.kr
141356,부곡휴먼시아2단지 느티나무도서관,,435-020,031-461-7710,031-390-8867,경기 군포시 부곡동 1126 204동내,lshlib@korea.kr,http://www.gunpolib.or.kr
141357,가나안작은도서관,,435-040,031-398-0675,031-390-8867,경기 군포시 산본동 1156-2,lshlib@korea.kr,http://www.gunpolib.or.kr
141358,샘물작은도서관,,435-060,031-437-3212,031-390-8867,경기 군포시 대야미동 648-11,lshlib@korea.kr,http://www.gunpolib.or.kr
141359,꿈드림(근로자복지관),,435-010,031-397-3400,031-390-8867,경기 군포시 당동 981,lshlib@korea.kr,http://www.gunpolib.or.kr
141360,군포부곡휴먼시아3단지도서관,,435-020,031-461-8886,031-390-8867,경기 군포시 부곡동 1098번지,lshlib@korea.kr,http://www.gunpolib.or.kr
141361,부곡휴먼시아4단지 솔잎도서관,,435-020,031-462-4020,031-390-8867,경기 군포시 부곡동 1080,lshlib@korea.kr,http://www.gunpolib.or.kr
141362,북카페사랑 ING,,435-040,031-391-5530,031-390-8867,경기 군포시 산본동 1094 삼대빌딩 4층,lshlib@korea.kr,www.gunpolib.or.kr
141363,금정작은도서관,,435-050,031-390-8504,031-390-8867,경기 군포시 금정동 750-5,lshlib@korea.kr,http://www.gunpolib.or.kr
141364,재궁꿈나무도서관,,435-860,031-390-8505,031-390-8867,경기 군포시 재궁동 850-4,lshlib@korea.kr,http://www.gunpolib.or.kr
141365,궁내동작은도서관,,435-040,031-390-8508,031-390-8867,경기 군포시 산본동 1148-7,lshlib@korea.kr,http://www.gunpolib.or.kr
141366,책뜨락 혜윰,,435-050,031-390-1430,031-390-8867,경기 군포시 중앙로 322,lshlib@korea.kr,http://www.gunpolib.or.kr
141367,군포부곡휴먼시아1단지도서관,,435-020,031-462-1568,031-390-8867,경기 군포시 부곡동 1137번지,lshlib@korea.kr,http://www.gunpolib.or.kr
141368,책사랑문고,,448-738,031-307-0651,031-306-0652,경기 용인시 수지구 상현2동 만현마을성원상떼빌아파트 관리동2층,mywinia@hanmail.net,
141369,책사랑쉼터도서관,,448-550,031-307-6790,,경기 용인시 수지구 풍덕천2동 태영데시앙아파트 관리동 2층 도서관,hjyeye21@hanmail.net,
141370,영화작은도서관,,449-782,031-323-4500,031-323-4501,경기 용인시 처인구 고림동 임원마을영화아파트,msp5378@hanmail.net,
141371,참솔도서관,,446-724,031-693-3560,,경기 용인시 기흥구 중동 참솔마을월드메르디앙 아파트,kjs72415@naver.com,
141372,아델리움글마루도서관,,446-908,031-892-8201,031-212-0142,경기 용인시 기흥구 영덕동 961 흥덕마을 한국아델리움 관리동지하,jooyh0330@naver.com,http://glmaru.winbook.kr
141373,백남준 라이브러리,,,031-201-8557,,경기 용인시 기흥구 상갈동 백남준로 10 백남준아트센터,library@njpartcenter.kr,
141374,코아루 나눔터 도서관,,446-715,031-899-9711,,경기 용인시 기흥구 중동 어은목마을코아루아파트 4301-4309,rainoverme@naver.com,
141375,꿈꾸는 작은 도서관(용인),,446-908,070-4416-1188,,경기 용인시 기흥구 영덕동 흥덕마을 동원로얄듀크아파트 관리동,dreaming528@naver.com,
141376,데시앙 도서관,,446-742,031-899-6447,,경기 용인시 기흥구 동백동 호수마을자연&데시앙아파트 1701-1707,leemi1672@hanmail.net,
141377,초코도서관,,446-751,031-899-5757,031-899-3812,경기 용인시 기흥구 중동 초당마을코아루아파트 5000단지 관리동2층,heee223@naver.com,
141378,청소년교육문화센터 문화카페,,487-826,031-540-6413,031-540-6121,경기 포천시 소흘읍 이동교리193-1,okok1267@hanmail.net,
141379,애벌레도서관,,446-743,070-8833-1400,,경기 용인시 기흥구 동백동 호수마을주공아파트 관리동 2층,badabus@hanmail.net,
141380,양지햇살어린이문고,,449-823,031-321-9176,031-321-8638,경기 용인시 처인구 양지면 양지리 592-2,hesal300@hanmail.net,http://hesal.org
141381,초당하나비도서관,,446-718,031-274-0390,,경기 용인시 기흥구 중동 초당마을 주공아파트 3단지 관리동2층,hanajokuk@hanmail.net,
141382,경남초록작은도서관,,446-908,070-8884-8005,,경기 용인시 기흥구 영덕동 952번지 경남아너스빌관리동네도서관,bun22@lycos.co.kr,
141383,두꺼비네집,,464-070,031-769-2040,,경기 광주시 장지동 690-3,seoannie@empal.com,
141384,명지사립문고,,449-833,031-322-0691,,경기 용인시 처인구 이동면 천리 765-7,mjc1009@hanmail.net,http://mjc1004.onmam.com
141385,신영지웰 작은도서관,,446-746,031-693-4107,031-693-4102,경기 용인시 기흥구 중동 성산마을신영지웰아파트 3001-3010,p133802003@yahoo.co.kr,http://www.dbgwell.co.kr
141386,효천작은도서관,,449-856,031-328-8373,,경기 용인시 처인구 모현면 일산리 효천마을신안인스빌2단지아파트 201-207,redlip30@gmail.com,
141387,수원시평생학습관 시민사회도서관,,442-190,070-4477-6518~19,031-248-9902,경기 수원시 팔달구 우만동 582,jhkim@suwonedu.org,http://doyo.suwonlib.go.kr
141388,식사도서관,,10323,031-8075-9190,031-901-0339,경기도 고양시 일산동구 위시티2로 43-6,happyci@korea.kr,http://www.goyanglib.or.kr/
141389,모현도서관,,17035,031-324-4351,031-324-4359,경기도 용인시 처인구 모현면 백옥대로 2378,limyj@korea.kr,http://www.yonginlib.go.kr
141390,보라도서관,,446-904,031-324-4331,031-324-4339,경기도 용인시 기흥구 한보라2로 116(보라동),ylib@korea.kr,http://lib.yongin.go.kr/bora
141391,상리작은도서관,,486-802,031-834-4448,,경기도 연천군 연천읍 신망로 26,themania@korea.kr,http://lib.iyc21.net
141392,퇴촌작은도서관,,464-840,031-760-5678,,경기 광주시 퇴촌면 광동리 241-8번지,visualyn@korea.kr,
141393,사랑의집 작은도서관,,449-020,031-338-5100,,경기 용인시 처인구 김량장동 353번지 용인시사랑의집,lmh9629@naver.com,
141394,흥덕마을3단지작은도서관,,446-787,031-213-5156,031-213-5157,경기 용인시 기흥구 흥덕2로 78 휴먼시아 흥덕마을3단지 관리동1층,jangkm9322@yahoo.co.kr,
141395,점진도서관,,480-010,070-7868-2013,,경기 의정부시 의정부2동 407-5,yka@yka.or.kr,
141396,시흥시매화도서관,,429-816,031-310-2580,,경기 시흥시 매화동 77-1,dotory70@korea.kr,
141397,금촌3동 도서관,,413-803,031-940-5041,,경기 파주시 아동동 291-5,inerain40@korea.kr,
141398,덕이도서관,,10230,031-8075-9313,,경기도 고양시 일산서구 하이파크로 128,happyci@korea.kr,http://www.goyanglib.or.kr/
141399,도척작은도서관,,464-880,031-760-5678,,경기 광주시 도척면 노곡리 58-14,visualyn@korea.kr,
141400,퇴계원사랑도서관,,472-821,070-8880-6235,,경기 남양주시 퇴계원면 퇴계원리 366 주공아파트 4단지 관리사무소1층,yogi70@korea.kr,
141401,남양주시퇴계원도서관,,12124,031-590-3910,031-590-3888,경기도 남양주시 퇴계원면 도제원로 12,jiblis@korea.kr,lib.nyj.go.kr
141402,군포시부곡도서관,,15881,031-390-8874,,경기도 군포시 송부로221번길 3-10,mers82@korea.kr,http://www.gunpolib.or.kr
141403,화성시립송산도서관,,18549,031-353-8162,,경기도 화성시 송산면 삼일공원로 87,whenubeliv@hanmail.net,www.hscitylib.or.kr/
141404,김포시양곡도서관,,10056,"031-980-5183, 5413",031-981-7693,경기도 김포시 양촌읍 양곡4로197번길 40,"gingers@korea.kr, 강수경(skkang55@korea.kr)",www.gimpo.go.kr/lib/main.do
141405,광명시철산도서관,,14238,02-2680-2757,,경기도 광명시 철산로 56,scarletter77@paran.com,http://gmlib.or.kr
141406,안산시 평생학습관 작은도서관,,426-170,031-481-3449,031-481-3232,경기 안산시 상록구 사동 1586,sunjik@korea.kr,
141407,모두어린이도서관ⓧ,,425-845,031-494-3579,031-494-3578,경기 안산시 단원구 원곡동 746-6 구 원곡본동주민센터 2층,agnes303@empal.com,http://ansanmodoo.com
141408,호반두드림 도서관,,446-875,070-4231-5357,,경기 용인시 기흥구 영덕동 흥덕마을5단지호반베르디움아파트 (501~508동),koi_73@naver.com,
141409,징검다리도서관,,446-760,031-274-1172,,경기 용인시 기흥구 상갈동 금화마을주공3단지아파트 관리동2층,zini310@naver.com,
141410,꿈나무작은도서관(경기),,445-720,031-366-0827,031-366-0827,경기 화성시 향남읍 발안리 화성발안우림필유아파트 (101~111동),kung6837@naver.com,
141411,예사랑도서관,,445-320,031-8003-0255,,경기 화성시 능동 1114-5번지 엠플렉스빌딩 6층 예사랑도서관(문고),cbsmk@hanmail.net,
141412,생각마루 작은도서관,,445-772,031-221-4996,,경기 화성시 기안동 신일해피트리 관리동 2층 생각마루 작은도서관,0707eun@hanmail.net,
141413,정남문고,,445-965,070-4250-3047,031-8059-6099,경기 화성시 정남면 괘랑리 917-15,sion1105@nate.com,
141414,한일타운마을문고,,445-987,031-223-4489,031-223-4494,경기 화성시 병점동 한일타운아파트 (101~106동),j550306@hanmail.net,
141415,북카페문고,,445-736,031-613-2472,031-613-0352,경기 화성시 반송동 시범다은마을월드메르디앙반도유보라아파트 (331~348동),lee2781600@hanmail.net,
141416,두산위브어린이도서관,,445-738,031-892-6817,,경기 화성시 반월동 두산위브아파트 관리동2층,woowa1220@hanmail.net,
141417,롯데캐슬 작은도서관,,445-855,010-9274-3044,031-8003-6038,경기 화성시 석우동 예당마을 롯데캐슬아파트 도서관,misung1209@hanmail.net,
141418,다은우남작은도서관,,445-734,031-613-1799,031-613-1789,경기 화성시 반송동 시범다은마을우남퍼스트빌아파트 (349~356동),kdh100478@naver.com,
141419,작은도서관 아삭,,445-390,031-267-1526,031-267-1548,경기 화성시 진안동 539-4,amcc@hanmail.net,http://www.key.kr
141420,꿈쟁이작은도서관(기안동),,18337,031-226-9387,031-226-9388,경기 화성시 효행로 229-18 꿈쟁이작은도서관 (기안동 344),"lwy6516@kg21.net, lwy6516@naver.com",
141421,마북e편한세상 작은도서관,,446-505,031-889-4210,,경기 용인시 기흥구 마북동 636 마북대림e편한세상,2079cja@naver.com,
141422,월드반도2차 작은도서관,,445-754,031-613-5596,031-613-5586,경기 화성시 반송동 나루마을월드메르디앙아파트 (641~646동),cmh2104@yahoo.co.kr,
141423,맑은샘 문고,,445-010,031-356-3457,031-356-4542,경기 화성시 남양동 1156-8 은혜의 동산교회,lovecha511@hanmail.net,http://www.7grace.com
141424,무럭무럭도서관,,445-360,070-7779-4531,031-223-4531,경기 화성시 병점동 356-7번지 2층,qhatkfa@hanmail.net,http://www.cafe.daum.net/muruk2
141425,동탄 푸른꿈도서관,,445-849,031-8003-2183,,경기 화성시 석우동 예당마을대우푸르지오아파트 (101~109동),credeme@naver.com,
141426,큰샘도서관,,445-972,070-4259-6029,,경기 화성시 정남면 제기리 253,lhgoo@lycos.co.kr,
141427,반달도서관,,445-984,031-202-9290,031-205-1914,경기 화성시 반월동 신영통현대3차아파트 관리동2층,hyeondai3@hanmail.net,
141428,신일해피트리2차아파트 문고,,445-759,031-226-4542,031-226-4543,경기 화성시 봉담읍 와우리 신일해피트리2차아파트 (101~107동),punimon14@hanmail.net,
141429,우남아파트도서관,,448-935,031-308-5994,,경기 용인시 수지구 신봉동 우남아파트 관리동2층,sbjhhanja@hanmail.net,
141430,꿈꾸는 도서관(경기 화성시),,445-763,031-306-1225,031-233-1541,경기 화성시 병점동 느치미마을주공4단지 (401~409동)관리사무소,lhs95@hscity.net,
141431,물푸레도서관(용인시),,446-923,070-7584-4320,031-275-1307,경기 용인시 기흥구 청덕동 휴먼시아물푸레마을3단지아파트 (301~335동),n7499@naver.com,
141432,해든도서관,,446-709,031-289-9263,031-289-9268,경기 용인시 기흥구 동백동 해든마을동문굿모닝힐아파트 (101~106동),Yurisori2@naver.com,http://www.dbdmapt.com
141433,아름드리 작은도서관(경기),,445-802,011-212-0122,031-278-7014,경기 화성시 봉담읍 동화리 휴먼시아5단지아파트 503동 1층 관리실 맞은편,vesks7@naver.com,
141434,우미린제일풍경채 문고,,445-853,031-8058-1070,,경기 화성시 석우동 예당마을우미린제일풍경채아파트 (111~125동),cgbak@paran.com,
141435,책놀이터 작은 도서관(경기),,445-893,031-227-1771,,경기 화성시 봉담읍 동화리 이원타워 3층 302,genesis1450@naver.com,
141436,신창2차책마을,,445-774,031-223-3203,031-221-1201,경기 화성시 병점동 신창비바훼밀리2차 (201~209동),kang7953@naver.com,http:/cafe.naver.com/viva2
141437,새강마을작은도서관,,445-827,010-2663-5524,031-8015-0891,경기 화성시 반송동 동탄새강마을휴먼시아아파트 (511~529동),noeul63@hanmail.net,
141438,모아미래도 1단지 도서관,,445-793,031-613-7644,031-8003-0541,경기 화성시 능동 숲속마을모아미래도1단지아파트 (841~856동) 도서관,leh2004@hanmail.net,
141439,마석10리 언덕위의 꿈터,,472-782,031-594-2056,031-594-8883,경기 남양주시 화도읍 마석우리 그랜드힐,subi685@paran.com,
141440,풍림숲속의작은도서관,,472-939,010-7675-5623,,경기 남양주시 화도읍 차산리 신창현풍림아이원2차아파트 (201~205동),tea45107@hanmail.net,
141441,판교이지더원도서관,,463-892,031-703-0166,031-703-0133,경기 성남시 분당구 삼평동 봇들마을이지더원아파트 관리동2층,okiegong@yahoo.co.kr,
141442,새마을문고양주시지부(이동도서관),,482-040,031-844-3965,031-844-3966,경기 양주시 남방동 9-28 새마을회관,lbyn123@hanmail.net,http://www.yjsm.lib.or.kr
141443,신창미션힐1차 작은도서관,,445-773,031-891-0115,,경기 화성시 병점동 늘벗마을신창1차아파트 (101~120동),1004princess@hanmail.net,
141444,글향기도서관(화성시),,445-723,031-8050-0850,031-8050-0733,경기 화성시 반송동 시범다은마을다숲캐슬아파트 글향기도서관,aroundus@naver.com,
141445,순종작은도서관,,431-060,031-386-3348,,경기 안양시 동안구 관양동 1381번지 3층,3863348@naver.com,
141446,대월 작은 도서관,,17343,031-637-0997,,경기도 이천시 대월면 사동로 1-10 다목적회관,gahee7@korea.kr,
141447,사동누리 작은 도서관,,467-854,070-8776-9924,,경기 이천시 대월면 사동리 386-72,gygusl@naver.com,
141448,샘터 작은 도서관,,467-773,070-4246-6164,,경기 이천시 부발읍 경충대로 2037 현대3차아파트 (301~302동),gygusl@naver.com,
141449,에버빌 작은 도서관,,467-070,070-8889-3988,,경기 이천시 갈산동 782번지,gygusl@naver.com,
141450,열매 작은 도서관,,467-852,011-312-5712,,경기 이천시 대월면 초지리 420-2번지 열매교회,gygusl@naver.com,
141451,율면 작은 도서관,,467-891,031-641-8777,,경기 이천시 율면 고당로 132 율면 복지회관,,
141452,이화 작은 도서관,,467-791,031-638-2749,031-638-2749,경기 이천시 부발읍 응암리 96번지 이화아파트,yum6469@naver.com,http://cafe.naver.com/ewhalib2010
141453,증포 작은 도서관,,467-719,070-8713-1450,,경기 이천시 증포동 244-3번지 대우2차아파트 (201~206동),gygusl@naver.com,
141454,한마음 작은 도서관,,467-743,010-2928-4833,,경기 이천시 부발읍 아미1리 74-25번지 현대7차아파트 (701~707동),,
141455,효양 작은 도서관,,467-772,01090924784,,경기 이천시 부발읍 부발중앙로 46번길 효양아파트,heven1025@naver.com,heven1025@naver.com
141456,희망 작은 도서관(경기),,467-755,031-631-2722,,경기 이천시 증일동 82-7번지 현대홈타운 (101~111동),gygusl@naver.com,
141457,한솔 작은 도서관(이천시),,467-833,031-694-7643,,경기 이천시 백사면 조읍리 627번지 한솔아파트,gygusl@naver.com,
141458,동양 작은 도서관,,467-740,010-4369-5838,,경기 이천시 증신로 309 동양아파트,gygusl@naver.com,
141459,아리마을 작은 도서관,,467-741,070-8863-4344,,경기 이천시 증신로(송정동) 291번지 신일아파트,gygusl@naver.com,
141460,쁘레네 작은도서관 별찌 4호,,467-802,031-636-0954,031-636-0592,경기 이천시 증포동 157-5 하니빌딩 5층,momlion2003@yahoo.co.kr,http://cafe.naver.com/frenelib
141461,쁘레네 작은도서관 별찌 5호,,440-300,031-246-6534,031-246-6535,경기 수원시 장안구 정자동 정자천로 173번길 21,baehwan@snu.go.kr,http://cafe.naver.com/frenelib
141462,쁘레네 작은도서관 별찌 6호,,446-593,031-8005-9866,031-8005-8853,경기 용인시 기흥구 구갈동 관곡로 92 504호,frene2012@naver.com,http://cafe.naver.com/frenelib
141463,쁘레네 작은도서관 별찌 7호,,445-160,031-8003-9569,031-8003-9527,경기 화성시 반송동 동탄공원로 1길 18 1층,frene2012@naver.com,http://cafe.naver.com/frenelib
141464,바른샘도서관,,446-906,446-906,031-273-9454,경기 용인시 기흥구 서천동 743 서천마을2단지 관리사무소,sanmaru95@naver.com,
141465,동천작은도서관,,448-500,010-7354-5354,,경기 용인시 수지구 동천동 196 3층,oyhwan@hanmail.net,
141466,서부교회도서관,,449-923,031-321-0691,,경기 용인시 처인구 고림동 501~990,alamtj@hanmail.net,
141467,쌍용예가 도서관,,445-752,031-8003-5300,031-8003-5302,경기 화성시 반송동 135번지 솔빛마을쌍용예가아파트 (441~454동),funnyany@naver.com,http://cafe.daum.net/DongtanSSapt
141468,현대 호롱마루 도서관,,446-987,031-892-6844,,경기 용인시 기흥구 영덕동 흥덕마을7단지흥덕힐스테이트아파트 (701~709동),kmee2371@naver.com,
141469,화성태안푸르지오아파트 사랑방마을문고,,445-710,031-221-0360,031-221-0308,경기 화성시 기산동 대우푸르지오아파트 (101~116동),hprugio1@hanmail.net,
141470,선경 작은도서관,,467-724,010-4611-3868,,경기 이천시 증포동 선경2차아파트 선경 작은도서관,gygusl@naver.com,
141471,푸른꿈 청소년 문고,,448-509,031-896-9194,031-896-9193,경기 용인시 수지구 풍덕천2동 1091-6,greendream1@hanmail.net,
141472,쁘레네 작은도서관 별찌 9호,,435-010,031-393-6502,031-393-6501,경기 군포시 당동 951-3 제이엠프라자 104호,frene2012@naver.com,
141473,한빛꿈도서관,,10906,070-8954-6013,031-946-6014,"경기도 파주시 와석순환로 15, 관리사무소2층 (야당동)",hanvitggum@naver.com,cafe.daum.net/hanvitggum
141474,안산시 본오1동작은도서관,,426-816,031-481-3706,031-481-3632,경기 안산시 상록구 본오1동 920,경기 안산시 상록구 본오1동 920,http://lib.iansan.net
141475,송탄국제교류센터 작은도서관,,459-120,031-667-2353,031-667-2354,경기 평택시 신장동 370-2 송탄국제교류센터,sicc@songtan-icc.org,http://www.songtan-icc.org
141476,초지작은도서관ⓧ,,425-080,031-402-1095,031-481-3622,경기 안산시 단원구 초지동 606-1 2층,ocsusu79@korea.kr,http://lib.iansan.net
141477,화도작은도서관ⓧ,,472-845,031-590-8992,031-590-2869,경기 남양주시 화도읍 마석우리,jangbh2214@korea.kr,http://www.lib.nyg.go.kr
141478,안산시 사3동 작은도서관,,426-895,031-481-3704,031-481-3632,경기 안산시 상록구 사3동 1511번지 사3동주민센터 내 4층,yewon33@korea.kr,http://lib.iansan.net
141479,본오3동만화작은도서관,,426-818,031-406-8473,031-481-3632,경기 안산시 상록구 본오3동 1130번지 장수경로당 2층,yewon33@korea.kr,http://lib.iansan.net
141480,샘터작은도서관(남양주시),,472-840,031-594-0196,,경기 남양주시 화도읍 마석우리 392-4,hubak2018240@yahoo.co.kr,
141481,안산시 수암도서관,,426-400,031-481-3967,031-481-3632,경기 안산시 상록구 수암동 506번지,yewon33@korea.kr,http://lib.iansan.net
141482,안산시 본오2동도서관,,426-809,031-481-3697,031-4060548,경기 안산시 상록구 본오2동 778번지,juhee0330@korea.kr,http://lib.iansan.net
141483,노작홍사용문학관,,445-170,031-8015-0880,031-8015-0990,경기 화성시 석우동 64번지,master@nojak.or.kr,
141484,성남시 운중도서관,,463-440,031-729-4370,,경기 성남시 분당구 판교원로81번길 9,khlyu67@korea.kr,http://uj.snlib.net
141485,벽산도서관,,446-938,031-286-8018,031-302-8018,경기 용인시 기흥구 마북동 연원마을벽산아파트,byucksan524@daum.net,
141486,시온성도서관,,467-807,031-635-8101,,경기 이천시 창전동 104-3 시온성교회,gygusl@naver.com,
141487,백사작은도서관,,467-831,031-634-1981,,경기 이천시 백사면 현방리 85 2층 백사작은도서관,gygusl@naver.com,
141488,양지마을문고,,449-822,031-333-0691,031-332-9457,경기 용인시 처인구 양지면 주북리 850-2,jejele99@hanmail.net,
141489,물푸레도서관(파주시),,10876,031-944-5951,031-944-5952,"경기도 파주시 청석로 360, 물푸레도서관 (다율동)",mulpurealib@gmail.com,www.pajulib.or.kr/mplib
141490,행복한작은 도서관(화성),,445-761,010-5055-2408,031-232-6572,경기 화성시 병점동 느치미마을주공2단지 (201~211동),starsky7@dreamwiz.com,
141491,꿈쟁이도서관,,435-010,070-7779-3470,,경기 군포시 당동 971-2 번지 301호,mbc8015@hanmail.net,
141492,발안마을주공작은도서관,,445-751,031-359-8701,031-359-8702,경기 화성시 향남읍 발안리 주공아파트 (101~114동),kayoko7812@naver.com,
141493,꽃초롱 작은 도서관,,445-726,031-224-4528,031-221-4519,경기 화성시 봉담읍 와우리 쌍용스윗닷홈아파트 관리동 2층,jm7775@hanmail.net,http://211.105.1.50:4500/default.asp?sid=b1006
141494,늘푸른작은도서관(화성시작은도서관),,445-985,010-2713-4853,,경기 화성시 병점동 한신아파트 관리동 2층,ttll1026@naver.com,
141495,능동꿈나무문고,,445-783,070-4106-4382,031-8003-4384,경기 화성시 능동 동탄능동마을주공아파트 (701~741동) 2관리사무소관리동,nd4382@hscity.net,
141496,한화꿈에그린 작은도서관,,445-757,031-613-2301,031-613-2302,경기 화성시 반송동 동탄나루마을한화꿈에그린아파트 관리실,jun19200@hanmail.net,http://cafe.daum.net
141497,어린이전문 도서관 꿈이자라는땅,,448-755,031-262-1618,,경기 용인시 수지구 죽전2동 벽산1단지아파트 (101~112동),ksjin200@nave.com,
141498,백일홍작은도서관,,445-758,031-613-4051,031-613-4052,경기 화성시 반송동 솔빛마을서해그랑블아파트 (411~421동),eycdew@hanmail.net,http://cafe.daum.net/dtgb
141499,행복한 도서관(파주시),,413-100,031-949-9112,,경기 파주시 동패동 한울마을5단지 관리사무소 옆,hl9112@naver.com,
141500,우림필유타운하우스작은도서관,,445-877,031-8050-9140,031-8050-9150,경기도 화성시 동탄공원로1길 6-60 우림필유타운하우스 커뮤니티센터,mirybj@naver.com,
141501,즐거운 샘터 작은 도서관,,446-588,031-274-0936,031-305-5563,경기 용인시 기흥구 신갈동 녹원마을새천년그린빌5단지아파트 512동 필로티1층,ewbo77@daum.net,
141502,꽃담작은도서관,,445-992,031-221-1317,,경기 화성시 기안동 우림그린빌리지,jinsua@hanmail.net,
141503,아이파크 도서관,,445-816,031-222-8134,031-222-8139,경기 화성시 봉담읍 와우리 봉담아이파크 (101~108동),031-222-8139,
141504,별방작은도서관,,413-200,031-947-1712,,경기 파주시 야당동 한빛마을 한라비발디 102동 402호,68eunji@hanmail.net,
141505,좋은이웃도서관,,445-330,070-4656-1490,,경기 화성시 반월동 반월북길 27-10,lsdsja@hanmail.net,
141506,버들치도서관,,448-140,031-898-3012,031-898-3013,경기 용인시 수지구 성복동 760번지 힐스테이트3차아파트 관리동1층,syook33@hanmail.net,
141507,어수정 작은도서관,,11328,031-860-3275,031-860-2568,경기도 동두천시 중앙로 283 (생연동),estella01@korea.kr,http://city.ddclib.net
141508,원고잔도서관,,425-020,031-481-2702,031-481-3622,경기 안산시 단원구 고잔동 336-2,suk7400@iansan.net,http://lib.iansan.net
141509,선부3동선녀마을작은도서관,,425-140,031-485-1155,031-483-4200,경기 안산시 단원구 선부3동 우목골길 7-15,ocsusu79@korea.kr,
141510,퓨리턴 도서관,,431-804,070-4372-4220,031-422-6383,경기 안양시 동안구 관양2동 954-4 열린교회,doe6565@hanmail.net,http://yullin.org
141511,수진2동 작은도서관,,461-806,031-729-5931,031-729-5779,경기 성남시 수정구 수진2동 3985,ms828c@naver.com,
141512,초월도서관,,12735,031-760-5688,031-760-1453,"경기도 광주시 초월읍 무들로 3-26, 초월도서관",sindy1116@korea.kr,http://lib.gicity.go.kr
141513,장당도서관,,17740,031-8024-7461,031-8024-7469,경기도 평택시 장당길 116,marcell@korea.kr,www.ptlib.go.kr
141514,오성도서관,,17819,,,경기도 평택시 오성면 오성새싹길 3,antaria77@ptcity.net,www.ptlib.go.kr
141515,포승작은도서관,,451-822,031-8024-5473,,경기 평택시 포승면 도곡리 1110번지,antaria77@ptcity.net,http://www.ptlib.net
141516,숲에사는달조각 작은도서관(상대원2동),,462-816,031-748-7500,031-749-4638,경기 성남시 중원구 상대원2동 2996-35 상대원2동제2복지회관 5층,sdw2wf@hanmail.net,http://www.sdw2wf.co.kr/
141517,한빛도서관,,10907,031-940-5777,031-940-5729,경기도 파주시 와석순환로 94,king6220@korea.kr,www.pajulib.or.kr
141518,성남시 무지개도서관,,463-500,031-729-4700,,경기 성남시 분당구 구미로 111,guniyon@korea.kr,http://gm.snlib.net
141519,화성시 정남도서관,,18517,031-223-4764,,경기도 화성시 정남면 만년로 527,sodasu911@naver.com,www.hscitylib.or.kr/jnlib/
141520,포천시립영북도서관,,11106,031-538-3972,031-538-3975,경기도 포천시 영북면 운천안길 3,nikeyoon@pcs21.go.kr,lib.pcs21.net
141521,남양주시진접도서관,,472-865,031-590-8804,,경기도 남양주시 진접읍 금강로 1554-11,smy1108@korea.kr,http://lib.nyj.go.kr
141522,현대아이파크 어린이 작은도서관,,445-725,031-613-4645,,경기 화성시 반송동 시범한빛마을동탄아이파크아파트 현대아이파크 어린이 작은도서관,bbbony@hanmail.net,
141523,쁘레네 작은도서관 별찌 12호 - 분당,,463-867,031-716-3850,031-717-8807,경기 성남시 분당구 정자동 156-3 대명제스트빌딩 303호,2hyesung@naver.com,http://cafe.naver.com/frenelib
141524,쁘레네 작은도서관 별찌 15호 - 일산,,411-370,031-924-2270,031-924-2274,경기 고양시 일산서구 주엽동 18 자유프라자 9층 905호,2hyesung@naver.com,http://cafe.naver.com/frenelib
141525,참누리 크로바 작은 도서관,,445-727,031-225-9165,,경기 화성시 기산동 참누리1단지아파트 (101~113동),ccc7489@naver.com,
141526,쁘레네 작은도서관 별찌 16호 - 판교,,463-400,031-8016-1689,031-8016-1680,경기도 성남시 분당구 판교로 376 마크시티퍼플 605호 (삼평동),2hyesung@naver.com,http://cafe.naver.com/frenelib
141527,구미어린이도서관,,463-500,031-714-6833,031-714-0018,경기 성남시 분당구 구미동 29-1 더프라자 2층,imcyj70@hanmail.net,http://lib.libportal.co.kr/GUMI/
141528,화성시 에코센터 오목눈이 작은 도서관,,18336,031-297-0792,031-227-0798,"경기도 화성시 봉담읍 하가등안길 100, 화성시에코센터",maroo0382@naver.com,http://blog.naver.com/omoknuni
141529,신미주작은도서관,,463-891,031-702-9577,031-702-2711,경기도 성남시 분당구 동판교로 275 단지내 도서관 (삼평동，봇들마을풍성신미주아파트),pan_shinmiju@naver.com,http://cafe.naver.com/psaptlibrary
141530,희망작은도서관,,461-863,031-741-7878,031-757-5950,경기 성남시 수정구 신흥1동 4506번지 4층,msy14@hanmail.net,
141531,센트럴북카페문고작은도서관,,445-736,031-613-2472,031-613-0352,경기 화성시 반송동 시범다은마을월드메르디앙반도유보라아파트 관리동 지하2층,eugenelim202@hanmail.net,
141532,아름다운 꿈의 도서관,,448-833,031-896-9101,031-896-9252,경기 용인시 수지구 신봉2로 71 태천빌딩 501호,paulfive2@hanmail.net,
141533,하늘땅도서관,,443-400,010-7741-3639,,경기 수원시 영통구 망포동 382-3번지 이타운투 6층,flyduck2@hanmail.net,
141534,백년가약작은도서관(경기도),,450-804,031-692-9048,,경기도 평택시 평남로 865 관리동 B1 백년가약작은도서관 (비전동，효성백년가약),bjsjin@naver.com,
141535,부천시립원미도서관,,14659,032-625-4723,,경기도 부천시 원미구 소사로 456,jullie8@korea.kr,http://bcl.go.kr
141536,남양주시 진접푸른숲도서관,,12057,031-590-8801,031-590-8809,경기도 남양주시 진접읍 해밀예당2로 35,brose68@korea.kr,http://lib.nyj.go.kr
141537,대추골도서관,,16294,031-228-4580,031-228-3746,경기도 수원시 장안구 수일로 164,jhj0318@korea.kr,http://www.suwonlib.go.kr/dcg
141538,안양시립벌말도서관,,14062,031-8045-6301,031-8045-6536,경기도 안양시 동안구 흥안대로434번길 19-27,lkky0@korea.kr,
141539,이천시립효양도서관,,17327,031-644-4392,031-637-8834,경기도 이천시 부발읍 경충대로2250번길 35,woori74@korea.kr,www.icheonlib.go.kr
141540,오산시 꿈두레도서관,,18106,031-8036-6512,031-8036-8929,경기도 오산시 세마역로 20,0425hong@korea.kr,www.osanlibrary.go.kr
141541,흥덕도서관,,16950,031-324-4142,031-324-4149,경기도 용인시 기흥구 흥덕중앙로 153,sunmirr@korea.kr,www.yonginlib.go.kr
141542,한림도서관,,16666,031-228-4855,,경기도 수원시 권선구 동수원로25번길 32-52,jhj0318@korea.kr,http://www.suwonlib.go.kr/hl
141543,경기도사이버도서관,,442-040,031-248-9992,031-246-4021,경기 수원시 팔달구 신풍동 123-69,jashin@library.kr,www.library.kr
141544,가람도서관,,413-190,031-262-3494,,경기 파주시 와동동 1118,,
141545,양주시덕계도서관,,11443,031-8082-7450,031-8082-7409,경기도 양주시 평화로1475번길 39 (덕계동),yjlib@korea.kr,www.libyj.go.kr
141546,신원도서관,,10567,031-8075-9340,031-901-0339,경기도 고양시 덕양구 신원2로 24,zzang7273@korea.kr,http://www.goyanglib.or.kr/
141547,안성시립진사도서관,,17563,031-678-5305,031-678-5309,경기도 안성시 공도읍 진사2길 70,mithra@korea.kr,http://www.apl.go.kr
141548,성남시 판교어린이도서관,,13531,031-729-4580,,경기도 성남시 분당구 판교역로 75,goeun4309@korea.kr,http://cpg.snlib.net/
141549,창룡도서관,,16232,031-228-4881,,경기도 수원시 팔달구 월드컵로381번길 36,jhj0318@korea.kr,http://www.suwonlib.go.kr/cy
141550,버드내도서관,,16578,031-228-4731,,경기도 수원시 권선구 세권로102번길 20,jhj0318@korea.kr,http://www.suwonlib.go.kr/bdn
141551,광교홍재도서관,,16224,031-228-4731,,경기도 수원시 영통구 대학로 88,jhj0318@korea.kr,http://www.suwonlib.go.kr/gh
141552,호매실도서관,,16400,031-228-4731,,경기도 수원시 권선구 칠보로 169,jhj0318@korea.kr,http://www.suwonlib.go.kr/hms
141553,포천시립가산도서관,,11164,031-538-9383,,경기도 포천시 가산면 선마로 223,lhy925@pcs21.go.kr,lib.pcs21.net/gs/
141554,선부도서관,,425-829,031-481-2752,,경기 안산시 단원구 선부2동 1068번지,yewon33@korea.kr,
141555,삼송도서관,,10589,031-8075-9022,031-901-0339,경기도 고양시 덕양구 덕수천1로 73,zzang7273@korea.kr,http://www.goyanglib.or.kr/
141556,상현도서관,,16942,031-324-4121,031-324-4129,경기도 용인시 수지구 법조로 232,qls224@korea.kr,www.yonginlib.go.kr
141557,일월도서관,,16416,031-228-4731,,경기도 수원시 장안구 일월천로 77,jhj0318@korea.kr,http://www.suwonlib.go.kr/iw
141558,양주희망도서관,,11487,031-8082-7460,,경기도 양주시 삼숭로38번길 78-47,joohy@korea.kr,www.libyj.go.kr/hmLibMain.do
141559,부천시립송내도서관,,14727,032-625-4573,,"경기도 부천시 소사구 경인로92번길 33, 송내어울마당 (송내동)",wish@korea.kr,www.bcl.go.kr
141560,책이랑아이랑,,425-130,031-491-1292,031-491-1294,경기 안산시 단원구 원선로 북길 7,dd4911292@hanmail.net,http://cafe.daum.net/4911292
141561,광명시소하도서관,,14320,02-2680-5412,,경기도 광명시 소하일로 7 (소하동),12soundgg@korea.kr,www.gmlib.or.kr/SohaMain.do
141562,시흥시장곡도서관,,429-430,031-310-5233,031-310-5239,경기 시흥시 장곡동 811-1 시흥시장곡도서관,revolkk13@korea.kr,
141563,대부도서관,,425-330,031-481-2752,,경기 안산시 단원구 대부북동 429-2번지,yewon33@korea.kr,http://lib.iansan.net
141564,청덕도서관,,16914,031-324-4611,,경기도 용인시 기흥구 구성1로 28,keuntaek@korea.kr,http://www.yonginlib.go.kr
141565,성남시황새울어린이도서관,,13594,031-786-1425,,경기도 성남시 분당구 수내로 43 어린이종합교육문화시설 2층,poppy02@isdc.co.kr,
141566,탄현도서관,,10858,031-940-8457,,경기도 파주시 탄현면 방촌로649번길 24-7 탄현면사무소 2층,yankee19@korea.kr,http://www.pajulib.or.kr
141567,안산미디어라이브러리,,15483,031-481-3875,,경기도 안산시 단원구 광덕1로 198 안산미디어라이브러리,kyh1291@korea.kr,
141568,남양주시 별빛도서관,,12108,031-590-8867,031-590-8809,경기도 남양주시 별내중앙로 102 (별내동),espoir55@korea.kr,lib.nyj.go.kr
141569,청북도서관,,17805,031-8024-8582,031-8024-8584,경기도 평택시 청북면 안청로2길 60 청북문화센터 2층,jung4299@korea.kr,http://www.ptlib.net/intro/index.jsp
141570,화성직업훈련교도소도서관,,18539,031-357-9400,031-357-9482,경기도 화성시 마도면 화성로 741,ytk5679@hanmail.net,
141571,안양시립관양도서관,,13928,031-8045-6323,,경기도 안양시 동안구 관양동 1675 안양시립관양도서관,gilsoo7@korea.kr,http://www.anyanglib.or.kr
141572,화서다산도서관,,16434,031-228-3542,031-228-3791,경기도 수원시 팔달구 화양로68번길 7-35 화서다산도서관,maydevil@korea.kr,http://www.suwonlib.go.kr/hd
141573,안양시립삼덕도서관,,14024,031-8045-6364,,경기도 안양시 만안구 병목안로 160 삼덕도서관,ahj0070@korea.kr,http://www.anyanglib.or.kr/
141574,가좌도서관,,10210,031-8075-9022,,"경기도 고양시 일산서구 가좌3로 16(가좌동,가좌도서관)",shin0026@korea.kr,http://www.goyanglib.or.kr
141575,진안도서관,,18391,031-224-9977,,경기도 화성시 병점중앙로 229 진안도서관,seok0237@gmail.com,http://www.hscitylib.or.kr/
141576,능평도서관,,12773,031-760-5912,,경기도 광주시 오포읍 창뜰아랫길 6,visualyn@korea.kr,lib.gjcity.go.kr
141577,희망열림 병영도서관,,12438,010-4534-5068,,경기도 가평군 조종면 청군로 1151 공병대대 위병소,seok5068@daum.net,
141578,동탄중앙이음터도서관,,18476,031-378-7344,,경기도 화성시 동탄대로시범길 117 동탄 중앙 이음터 도서관,seok0237@gmail.net,www.hscitylib.or.kr
141579,하남시덕풍도서관,,12979,031-790-5222,,경기도 하남시 역말로 14 하남시덕풍도서관,chochr@korea.kr,www.hanamlib.go.kr
141580,평택시립진위도서관,,17714,031-8024-7341,031-8024-7349,경기도 평택시 진위면 진위서로 137,jung4299@korea.kr,www.ptlib.go.kr
141581,양주시 광적도서관,,11419,031-8082-7481,,경기도 양주시 광적면 광적로42번길 5,mmin15@korea.kr,http://www.libyj.go.kr
141582,이동꿈틀도서관,,17136,031-324-4618,,경기도 용인시 처인구 이동면 경기동로705번길 16,dasom1942@korea.kr,
141583,부천시립도당도서관,,14480,032-625-4573,,경기도 부천시 평천로849번길 25 도당어울마당 4층 부천시립도당도서관,wish@korea.kr,www.bcl.go.kr
141584,부천시립오정도서관,,14434,032-625-4573,,경기도 부천시 성오로 172 오정어울마당,yangs1121@korea.kr,
141585,남양주시 호평도서관,,12141,031-590-8331,031-590-8539,경기도 남양주시 천마산로 67 (호평동),kisingu2@korea.kr,http://lib.nyj.go.kr/hp
141586,점동도서관,,12667,031-887-3311,031-887-3200,경기도 여주시 점동면 청안로 130-15,dldbfl29@korea.kr,www.yjlib.go.kr
141587,금촌3동솔빛도서관,,10850,031-944-8211,031-945-8211,경기도 파주시 시청로 194 금촌3동솔빛도서관,nspark@neutinamu.org,http://www.pajulib.or.kr/gclib3/
141588,성남시 해오름도서관,,13250,031-729-8786,031-729-8799,경기도 성남시 중원구 희망로 403,daynine@korea.kr,https://www.snlib.go.kr/hor/index.do
141589,평택시립세교도서관,,17826,031-8024-5445,031-682-7201,경기도 평택시 은실고가길 180 (세교동),hjk1209@pyeongtaek.go.kr,www.ptlib.go.kr
141590,소래산작은도서관,,14902,031-310-2561,,경기도 시흥시 소래산길 11 ABC행복학습타운 지혜관 1층,ira0130@korea.kr,https://lib.siheung.go.kr
141591,김포시고촌도서관,,10125,031-980-2180,,경기도 김포시 고촌읍 장차로 14 고촌읍 행정복지센터,sinwon0306@korea.kr,http://lib.gimpo.go.kr
141592,아르딤도서관,,18588,031-5183-8917,031-5183-8995,경기도 화성시 향남읍 도이1길 104 화성시 아르딤복지관 아르딤도서관,mina022@naver.com,
141593,김포시장기도서관,,10079,031-980-5197,,경기도 김포시 김포한강2로 42 (장기동),jshee324@korea.kr,http://lib.gimpo.go.kr
141594,이천시립마장도서관,,17354,031-644-4363,,경기도 이천시 설봉로81번길 50,moony79@korea.kr,www.icheonlib.go.kr
141595,수원시광교푸른숲도서관,,16514,031-228-3535,031-228-3792,"경기도 수원시 영통구 광교호수로 131, 광교푸른숲도서관 (하동)",tuerkis@korea.kr,https://www.suwonlib.go.kr/gps/
141596,수원시매여울도서관,,16545,031-228-3606,,경기도 수원시 영통구 효원로 407 매탄동 매여울도서관,kywchon@korea.kr,
141597,의정부가재울도서관,,11678,031-870-6632,,경기도 의정부시 평화로 633,smlove74@korea.kr,www.uilib.go.kr
141598,평택시립배다리도서관,,17862,031-8024-5462,--,경기도 평택시 죽백6로 20 배다리도서관(죽백동),ptlib@pyeongtaek.go.kr,www.ptlib.go.kr
141599,남사도서관,,17117,031-324-4732,031-324-4609,경기도 용인시 처인구 남사면 한숲로 61,zihu8162@korea.kr,
141600,대신도서관,,12610,031-887-3361,031-887-3356,경기도 여주시 대신면 율촌1길 12-10,dldbfl29@korea.kr,
141601,성남시 서현도서관,,13577,031-725-9319,--,경기도 성남시 분당구 중앙공원로 77,khj1017@isdc.co.kr,
141602,파평도서관,,10801,031-940-5990,031-940-5999,경기도 파주시 파평면 청송로 189-21 3층 파평도서관,odessa@korea.kr,lib.paju.go.kr
141603,부천시립역곡도서관,,14663,032-625-4594,032-625-4579,"경기도 부천시 지봉로51번길 54, 역곡도서관 (역곡동)",kangrr0424@korea.kr,
141604,파주시 한울도서관,,10901,031-940-5007,,경기도 파주시 교하로 239,inerain40@korea.kr,
141605,옥정호수도서관,,11473,031-8082-7494,,경기도 양주시 옥정동로7길 110 (옥정동) 옥정호수도서관,choisun777@korea.kr,
141606,김포시풍무도서관,,10113,031-5186-4875,,경기도 김포시 풍무동 풍무 2지구 근린공원 27호,hnes06@korea.kr,
141607,하남시 세미도서관,,12982,031-790-5894,,경기도 하남시 세미로1길 15 (풍산동),hanamlib@korea.kr,
141608,하남시디지털도서관,,12912,031-790-6811,--,경기도 하남시 미사강변한강로 290-2 하남시디지털도서관,hanamlib@korea.kr,
141609,시흥시목감도서관,,14985,031-310-2588,--,경기도 시흥시 솔고개길 43 시흥시목감도서관,ira0130@korea.kr,https://lib.siheung.go.kr
141610,소리울도서관,,18145,031-8036-6515,--,경기도 오산시 경기대로 102-25 소리울도서관,chohanjo@korea.kr,
141611,화성시립동탄다원이음터도서관,,18463,031-372-9611,031-372-9612,"경기도 화성시 동탄순환대로 754-14 동탄다원이음터 1,2층",mapsosa99@hcf.or.kr,http://www.hscitylib.or.kr/
141612,망포글빛도서관,,16685,031-228-4294,031-203-7143,경기도 수원시 영통구 동탄지성로 549-15,kys0212@korea.kr,
141613,광명시 연서도서관,,14214,02-2680-5463,--,"경기도 광명시 연서일로 10, 현충근린공원 내 (철산동)",birdfoot@korea.kr,
141614,월롱도서관,,10946,031-940-8570,031-940-5429,"경기도 파주시 월롱면 엘지로 17, 월롱면 행정복지센터 2층",redraysv1@korea.kr,lib.pajo.go.kr
141615,금사도서관,,12604,031-887-3303,--,"경기도 여주시 흥천면 이여로 1278-2, 이포권역 다목적행복센터 3층",dbwn148@korea.kr,www.yjlib.go.kr
141616,정비대대 도서관,,10834,031-952-6163,,경기도 파주시 파주읍 연풍리 혜음로 사서함 109-5,dldydkssk12@army.mil,
141617,선봉도서관,,17018,031-331-1137,,경기도 용인시 처인구 사서함 505-1-1,lwwpjs@bu.ac.kr,
141618,방공유도탄사령부 북카페,,17759,031-669-3252,031-669-6669,경기도 평택시 사서함 309-2호 방공유도탄 사령부 본부,asteroidk@naver.com,
141619,지혜의숲,,13590,02-748-7148,,경기도 성남시 분당구 황새울로 347 분당우체국 사서함 35호,ans719@mnd.go.kr,
141621,화성시립송린이음터도서관,,18242,031-356-9680,031-356-9681,"경기도 화성시 수노을2로 150, 송린이음터도서관 (새솔동)",sun2080@hcf.or.kr,
141622,하남시미사도서관,,12910,031-790-5682,--,"경기도 하남시 아리수로 545, 하남시미사도서관 (망월동)",shine21c@korea.kr,https://www.hanamlib.go.kr/mslib/index.do
141623,성남시 복정도서관,,13112,031-729-8713,031-729-8698,경기도 성남시 수정구 복정로118번길 7,jsw716@korea.kr,
141624,화성시목동이음터도서관,,18484,031-378-6771,031-378-6774,"경기도 화성시 동탄순환대로20길 6, 목동이음터도서관 (목동)",with@hcf.or.kr,
141625,이석영뉴미디어도서관,,12173,031-590-5363,--,경기도 남양주시 화도읍 맷돌로 84,jmjm@korea.kr,
141626,책여행 어린이도서관,,12240,031-595-5945,--,"경기도 남양주시 석실로 713, 책여행 어린이도서관 (금곡동)",journey-to-books@naver.com,blog.naver.com/journey-to-books
141627,의정부미술도서관,,11814,031-828-8870,031-828-8649,"경기도 의정부시 민락로 248, 의정부미술도서관 (민락동)",clibrary@korea.kr,www.uilib.go.kr
141628,성남시 위례도서관,,13640,031-729-8953,--,"경기도 성남시 수정구 위례순환로 125, 위례도서관 3,4층 (창곡동)",suyon@korea.kr,
141629,안성시립아양도서관,,17577,031-678-0732,--,"경기도 안성시 아양로 88, 아양도서관 (옥산동)",saltisdebora@korea.kr,
141630,술이홀도서관,,10835,031-940-5041,--,"경기도 파주시 파주읍 술이홀로 295, 3층, 술이홀도서관",gpgp79@korea.kr,
141631,일산도서관,,10352,031-8075-9017,--,"경기도 고양시 일산서구 고양대로 586-65, 일산도서관 (일산동)",jiiinah@korea.kr,http://www.goyanglib.or.kr
141632,시흥시배곧도서관,,15010,031-310-5289,031-310-5239,"경기도 시흥시 배곧4로 102, 배곧도서관 (정왕동)",chiho844@korea.kr,https://lib.siheung.go.kr/#/
141633,포일어울림도서관,,16014,031-345-2633,--,"경기도 의왕시 안양판교로 82, 포일어울림센터 (포일동)",clover829@korea.kr,http://www.uwlib.or.kr/naeson
141634,포천시립선단도서관,,11161,031-538-3914,031-538-3925,경기도 포천시 선단동 437-1,yse15@korea.kr,https://lib.pocheon.go.kr/seondan
141635,별꿈도서관,,10595,031-8075-9025,--,경기도 고양시 덕양구 고양대로 1937 (동산동),o103607@korea.kr,
141636,하남시위례도서관,,13012,010-7167-7564,031-790-6037,경기도 하남시 위례대로 230 하남시위례도서관,hanamlib@korea.kr,https://hanamlib.go.kr/
141637,화성시왕배푸른숲도서관,,18489,031-372-4435,,경기도 화성시 동탄대로12길 102 왕배푸른숲도서관,kimjr@hcf.co.kr,
141638,한국장학재단-은행권 제1호 대학생연합생활관 인성교육관 도서관,,10562,031-920-7219,031-920-7210,경기도 고양시 덕양구 원흥1로 23 한국장학재단-은행권 대학생연합생활관,springjuny@kosaf.go.kr,http://dormlib.kosaf.go.kr
141639,라이브러리 티티섬,,13361,031-753-1219,,경기도 성남시 중원구 광명로 120 9층~12층,ttsome@see-art.org,
141640,김포시 마산도서관,,10067,031-5186-4883,031-5186-4899,경기도 김포시 마산동 634-1번지,a8404017@korea.kr,http://lib.gimpo.go.kr
141641,능서 기적의 도서관,,12641,031-887-3303,031-885-2599,경기도 여주시 능서면 양화로 913 능서 기적의 도서관,lawsen@korea.kr,https://www.yjlib.go.kr/
141642,의정부음악도서관,,11733,031-828-4850,,경기도 의정부시 장곡로 280 의정부음악도서관,musiclib@korea.kr,https://www.uilib.go.kr
141643,서농도서관,,17109,031-324-4616,031-324-4529,경기도 용인시 기흥구 서천서로 83 서농도서관,nok81@korea.kr,https://lib.yongin.go.kr
141644,화성시 서연이음터도서관,,18506,031-378-1352,,경기도 화성시 동탄순환대로8길 57,hstree208@hstree.org,https://www.hscitylib.or.kr/intro/index.do
141645,화성시 노을빛도서관,,18367,031-226-3301,,경기도 화성시 병점노을로 19 2층 노을빛도서관,peace84@hcf.or.kr,
141646,성복도서관,,16853,031-324-4616,,경기도 용인시 수지구 성복1로164번길 6 성복도서관,nok81@korea.kr,https://lib.yongin.go.kr
141647,양벌도서관,,12793,010-2304-6721,,경기도 광주시 오포읍 양벌리 1106-1,kim8022@korea.kr,
141648,백운커뮤니티센터 도서관(가칭),,16016,031-345-3642,,경기도 의왕시 백운중앙로 74 4층,sunny80@korea.kr,
